{"type":"FeatureCollection","features":[{"type":"Feature","geometry":{"type":"Point","coordinates":[27.97612,36.36408]},"properties":{"stype":"harbour","category":"marina","osm":"node/273449267","seamark:harbour:category":"marina","seamark:type":"harbour"}},{"type":"Feature","geometry":{"type":"Point","coordinates":[27.9779,36.36405]},"properties":{"stype":"landmark","osm":"node/4171825400"}},{"type":"Feature","geometry":{"type":"Point","coordinates":[28.20818,36.35053]},"properties":{"stype":"ferry","name":"Calypso Beach & Pegasos","osm":"node/27693376"}},{"type":"Feature","geometry":{"type":"Point","coordinates":[28.21567,36.36]},"properties":{"stype":"ferry","name":"Esperides","osm":"node/27693348"}},{"type":"Feature","geometry":{"type":"Point","coordinates":[28.22027,36.36525]},"properties":{"stype":"ferry","name":"Amada Colossos & Palladium","osm":"node/12795507356"}},{"type":"Feature","geometry":{"type":"Point","coordinates":[28.23201,36.445]},"properties":{"stype":"ferry","name":"Ρόδος","osm":"node/667473331"}},{"type":"Feature","geometry":{"type":"Point","coordinates":[28.23269,36.44715]},"properties":{"stype":"ferry","osm":"node/872722200"}},{"type":"Feature","geometry":{"type":"Point","coordinates":[28.22827,36.44531]},"properties":{"stype":"harbour","name":"Λιμάνι της Κολώνας","category":"marina","osm":"node/1499875341","seamark:harbour:category":"marina","seamark:type":"harbour"}},{"type":"Feature","geometry":{"type":"Point","coordinates":[28.23206,36.44433]},"properties":{"stype":"harbour","name":"Τουριστικό Λιμάνι","category":"marina","osm":"node/4187316562","seamark:harbour:category":"marina","seamark:type":"harbour"}},{"type":"Feature","geometry":{"type":"Point","coordinates":[28.22962,36.44611]},"properties":{"stype":"landmark","osm":"node/10068328317"}},{"type":"Feature","geometry":{"type":"Point","coordinates":[28.22886,36.44577]},"properties":{"stype":"ferry","name":"Kolona Port - Rodhos - Symi","osm":"node/14072187626"}},{"type":"Feature","geometry":{"type":"Point","coordinates":[28.22592,36.4489]},"properties":{"stype":"ferry","name":"Rhodes Town (Mandraki)","osm":"node/422512117"}},{"type":"Feature","geometry":{"type":"Point","coordinates":[28.22662,36.44897]},"properties":{"stype":"harbour","name":"Μαρίνα Μαντρακιού","category":"marina","osm":"node/793824424","seamark:harbour:category":"marina","seamark:type":"harbour"}},{"type":"Feature","geometry":{"type":"Point","coordinates":[28.23863,36.43423]},"properties":{"stype":"harbour","name":"Νέα Μαρίνα","category":"marina","osm":"node/4192306889","seamark:harbour:category":"marina","seamark:type":"harbour"}},{"type":"Feature","geometry":{"type":"Point","coordinates":[28.23861,36.43595]},"properties":{"stype":"harbour","name":"DanEri Yachts Rhodos","category":"marina","osm":"node/13584372661","phone":"+306945040555","seamark:harbour:category":"marina","seamark:type":"harbour","website":"https://daneriyachts.com/"}},{"type":"Feature","geometry":{"type":"Point","coordinates":[28.23786,36.44441]},"properties":{"stype":"ferry","osm":"node/872722225"}},{"type":"Feature","geometry":{"type":"Point","coordinates":[28.2369,36.44243]},"properties":{"stype":"harbour","name":"Εμπορικό Λιμάνι","category":"marina","osm":"node/4189708889","seamark:harbour:category":"marina","seamark:type":"harbour"}},{"type":"Feature","geometry":{"type":"Point","coordinates":[28.2368,36.44301]},"properties":{"stype":"ferry","osm":"node/9525051217"}},{"type":"Feature","geometry":{"type":"Point","coordinates":[27.61606,36.77046]},"properties":{"stype":"harbour","name":"Körmen Limanı","category":"ferry","osm":"node/1345105577","harbour":"yes","seamark:harbour:category":"ferry","seamark:type":"harbour"}},{"type":"Feature","geometry":{"type":"Point","coordinates":[27.61787,36.77139]},"properties":{"stype":"ferry","name":"Bodrum - Datça","osm":"node/11227968213"}},{"type":"Feature","geometry":{"type":"Point","coordinates":[27.84543,36.54888]},"properties":{"stype":"ferry","name":"Πανορμίτης","osm":"node/268210732"}},{"type":"Feature","geometry":{"type":"Point","coordinates":[27.86225,36.5663]},"properties":{"stype":"ferry","osm":"node/3625189109"}},{"type":"Feature","geometry":{"type":"Point","coordinates":[27.8711,36.59679]},"properties":{"stype":"harbour","name":"st. georges","osm":"node/14061248968"}},{"type":"Feature","geometry":{"type":"Point","coordinates":[27.83824,36.61746]},"properties":{"stype":"ferry","osm":"node/27684645"}},{"type":"Feature","geometry":{"type":"Point","coordinates":[27.83885,36.61585]},"properties":{"stype":"ferry","osm":"node/3621528177"}},{"type":"Feature","geometry":{"type":"Point","coordinates":[27.83914,36.61779]},"properties":{"stype":"ferry","name":"Ferry Terminal Extra Schengen","osm":"node/3621595194"}},{"type":"Feature","geometry":{"type":"Point","coordinates":[27.83681,36.61601]},"properties":{"stype":"harbour","name":"Γυαλός","category":"marina","osm":"node/4219292365","seamark:harbour:category":"marina","seamark:type":"harbour"}},{"type":"Feature","geometry":{"type":"Point","coordinates":[27.83913,36.61813]},"properties":{"stype":"landmark","osm":"node/10068960817"}},{"type":"Feature","geometry":{"type":"Point","coordinates":[27.84658,36.62088]},"properties":{"stype":"ferry","osm":"node/4219261322"}},{"type":"Feature","geometry":{"type":"Point","coordinates":[27.86874,36.61498]},"properties":{"stype":"ferry","name":"taxi boats <-> Pedi and Yialos","osm":"node/3625180081"}},{"type":"Feature","geometry":{"type":"Point","coordinates":[28.01318,36.56767]},"properties":{"stype":"mooring","osm":"node/2251049648","seamark:type":"mooring"}},{"type":"Feature","geometry":{"type":"Point","coordinates":[28.08244,36.65899]},"properties":{"stype":"harbour","osm":"node/7540368945","harbour":"yes","seamark:type":"harbour"}},{"type":"Feature","geometry":{"type":"Point","coordinates":[28.04262,36.69205]},"properties":{"stype":"harbour","category":"marina","name":"Bozburun Marina","osm":"node/1368367532"}},{"type":"Feature","geometry":{"type":"Point","coordinates":[28.0435,36.70315]},"properties":{"stype":"harbour","category":"marina","osm":"node/27678130"}},{"type":"Feature","geometry":{"type":"Point","coordinates":[28.06317,36.67332]},"properties":{"stype":"harbour","osm":"node/7540368276","harbour":"yes","seamark:type":"harbour"}},{"type":"Feature","geometry":{"type":"Point","coordinates":[28.09293,36.70795]},"properties":{"stype":"harbour","category":"marina","name":"Selimiye","osm":"node/1424956397"}},{"type":"Feature","geometry":{"type":"Point","coordinates":[28.0996,36.70608]},"properties":{"stype":"harbour","category":"marina","osm":"node/1792928435"}},{"type":"Feature","geometry":{"type":"Point","coordinates":[27.69008,36.72227]},"properties":{"stype":"ferry","osm":"node/806401869"}},{"type":"Feature","geometry":{"type":"Point","coordinates":[27.68999,36.72265]},"properties":{"stype":"harbour","category":"marina","name":"Datça Limanı","osm":"node/5757899923"}},{"type":"Feature","geometry":{"type":"Point","coordinates":[28.12677,36.77047]},"properties":{"stype":"harbour","category":"marina","name":"Marti Marina","vhf":"VHF 73/16","phone":"+90 252 487 10 63","website":"https://www.marti.com.tr/tr/marti-marina","osm":"node/648207972"}},{"type":"Feature","geometry":{"type":"Point","coordinates":[28.12828,36.77104]},"properties":{"stype":"harbour","category":"marina","name":"MARTI Marina & Yacht Club","osm":"node/5541855010"}},{"type":"Feature","geometry":{"type":"Point","coordinates":[28.2744,36.74506]},"properties":{"stype":"harbour","category":"marina","name":"Kumlubükü Yacht Club Hollandali Ahmet'in Yeri","osm":"node/420311141"}},{"type":"Feature","geometry":{"type":"Point","coordinates":[28.29293,36.8183]},"properties":{"stype":"harbour","name":"Adaköy Marina","category":"marina","osm":"node/1910041387","operator":"Antmarin İnşaat Turizm Denizcilik ve Taşımacılık Ticaret A.Ş.","seamark:harbour:category":"marina","seamark:type":"harbour"}},{"type":"Feature","geometry":{"type":"Point","coordinates":[28.30774,36.81945]},"properties":{"stype":"harbour","category":"marina","name":"Marmaris Yacht Marina A.Ş","osm":"node/1002217357"}},{"type":"Feature","geometry":{"type":"Point","coordinates":[28.30835,36.82038]},"properties":{"stype":"harbour","category":"marina","osm":"node/1158196569","seamark:harbour:category":"marina","seamark:type":"harbour"}},{"type":"Feature","geometry":{"type":"Point","coordinates":[28.17005,36.91759]},"properties":{"stype":"harbour","category":"marina","osm":"node/2422064808"}},{"type":"Feature","geometry":{"type":"Point","coordinates":[28.28466,36.84454]},"properties":{"stype":"harbour","name":"Marmaris Albatros Marina","category":"marina","osm":"node/1367538191","harbour":"yes","seamark:harbour:category":"marina","seamark:type":"harbour"}},{"type":"Feature","geometry":{"type":"Point","coordinates":[28.2782,36.85255]},"properties":{"stype":"small_craft_facility","category":"fuel_station","osm":"node/416874837","seamark:small_craft_facility:category":"fuel_station","seamark:type":"small_craft_facility"}},{"type":"Feature","geometry":{"type":"Point","coordinates":[28.27345,36.85064]},"properties":{"stype":"ferry","name":"Ferry Administration Office, Ticket Sales","osm":"node/1666205239"}},{"type":"Feature","geometry":{"type":"Point","coordinates":[28.28165,36.84856]},"properties":{"stype":"ferry","name":"Marmaris-Rhodes","osm":"node/27662647"}},{"type":"Feature","geometry":{"type":"Point","coordinates":[28.27905,36.85144]},"properties":{"stype":"harbour","name":"Netsel Marina Marmaris","category":"marina","osm":"node/270976932","harbour":"yes","operator":"Setur","phone":"+90 252 412 27 08","seamark:harbour:category":"marina","seamark:type":"harbour","vhf":"VHF 72","website":"https://www.seturmarinas.com/"}},{"type":"Feature","geometry":{"type":"Point","coordinates":[28.281,36.84997]},"properties":{"stype":"small_craft_facility","name":"Netsel Marina Toilets & Showers","category":"toilets","osm":"node/1421841480","seamark:small_craft_facility:category":"toilets","seamark:type":"small_craft_facility"}},{"type":"Feature","geometry":{"type":"Point","coordinates":[28.28051,36.84912]},"properties":{"stype":"ferry","name":"Marmaris Ferry and Cruise Ship Port","osm":"node/1650422646"}},{"type":"Feature","geometry":{"type":"Point","coordinates":[27.79319,37.0053]},"properties":{"stype":"harbour","category":"marina","osm":"node/2422073265"}},{"type":"Feature","geometry":{"type":"Point","coordinates":[27.79148,37.00528]},"properties":{"stype":"harbour","category":"marina","osm":"node/2422073269"}},{"type":"Feature","geometry":{"type":"Point","coordinates":[27.79214,37.00533]},"properties":{"stype":"harbour","category":"marina","osm":"node/2422073270"}},{"type":"Feature","geometry":{"type":"Point","coordinates":[27.79402,37.00502]},"properties":{"stype":"harbour","category":"marina","osm":"node/2422073264"}},{"type":"Feature","geometry":{"type":"Point","coordinates":[27.98398,37.02981]},"properties":{"stype":"harbour","name":"Gökova Ören Marina","category":"marina","osm":"node/11446362429","phone":"+90 252 532 33 61","seamark:harbour:category":"marina","seamark:type":"harbour","vhf":"VHF 72","website":"http://www.gokovaorenmarina.com.tr/"}},{"type":"Feature","geometry":{"type":"Point","coordinates":[28.09978,37.02825]},"properties":{"stype":"harbour","category":"marina","osm":"node/2422073267"}},{"type":"Feature","geometry":{"type":"Point","coordinates":[28.09763,37.02941]},"properties":{"stype":"harbour","category":"marina","osm":"node/2422073268"}},{"type":"Feature","geometry":{"type":"Point","coordinates":[28.18664,36.94176]},"properties":{"stype":"harbour","name":"Karacasöğüt","category":"marina_no_facilities","osm":"node/11299755471","seamark:harbour:category":"marina_no_facilities","seamark:type":"harbour"}},{"type":"Feature","geometry":{"type":"Point","coordinates":[28.18858,36.94023]},"properties":{"stype":"harbour","category":"marina","name":"Marti Marina Jetty","osm":"node/335728199"}},{"type":"Feature","geometry":{"type":"Point","coordinates":[28.31002,37.05073]},"properties":{"stype":"harbour","category":"marina","osm":"node/8151886357"}},{"type":"Feature","geometry":{"type":"Point","coordinates":[28.60733,36.80137]},"properties":{"stype":"ferry","osm":"node/3693737136"}},{"type":"Feature","geometry":{"type":"Point","coordinates":[28.54871,36.8287]},"properties":{"stype":"harbour","category":"marina","osm":"node/417746556"}},{"type":"Feature","geometry":{"type":"Point","coordinates":[28.56565,36.82401]},"properties":{"stype":"harbour","category":"marina","name":"My Marina Yacht Club","osm":"node/416863897"}},{"type":"Feature","geometry":{"type":"Point","coordinates":[28.63098,36.82625]},"properties":{"stype":"ferry","osm":"node/1281282838"}},{"type":"Feature","geometry":{"type":"Point","coordinates":[28.63444,36.82513]},"properties":{"stype":"ferry","osm":"node/1277972694"}},{"type":"Feature","geometry":{"type":"Point","coordinates":[28.63683,36.8328]},"properties":{"stype":"ferry","osm":"node/386145620"}},{"type":"Feature","geometry":{"type":"Point","coordinates":[28.63846,36.83254]},"properties":{"stype":"ferry","osm":"node/1277997117"}},{"type":"Feature","geometry":{"type":"Point","coordinates":[28.64069,36.83384]},"properties":{"stype":"ferry","osm":"node/9281276762"}},{"type":"Feature","geometry":{"type":"Point","coordinates":[28.63245,36.84623]},"properties":{"stype":"ferry","osm":"node/299841570"}},{"type":"Feature","geometry":{"type":"Point","coordinates":[28.6313,36.84609]},"properties":{"stype":"ferry","osm":"node/920486705"}},{"type":"Feature","geometry":{"type":"Point","coordinates":[28.64146,36.83584]},"properties":{"stype":"harbour","category":"marina","osm":"node/2292435702","seamark:harbour:category":"marina","seamark:type":"harbour"}},{"type":"Feature","geometry":{"type":"Point","coordinates":[28.22612,36.44961]},"properties":{"stype":"harbour","name":"λιμάνι Μανδράκι","category":"marina","osm":"way/844205995","seamark:harbour:category":"marina","seamark:type":"harbour"}},{"type":"Feature","geometry":{"type":"Point","coordinates":[27.61741,36.76978]},"properties":{"stype":"harbour","name":"Kairos Marina","category":"marina","osm":"way/1474280309","seamark:harbour:category":"marina","seamark:type":"harbour"}},{"type":"Feature","geometry":{"type":"Point","coordinates":[28.06396,36.67504]},"properties":{"stype":"small_craft_facility","category":"boatyard","osm":"way/511738799","seamark:small_craft_facility:category":"boatyard","seamark:type":"small_craft_facility"}},{"type":"Feature","geometry":{"type":"Point","coordinates":[28.06298,36.67442]},"properties":{"stype":"small_craft_facility","category":"slipway","osm":"way/806337161","seamark:small_craft_facility:category":"slipway","seamark:type":"small_craft_facility"}},{"type":"Feature","geometry":{"type":"Point","coordinates":[28.0642,36.6739]},"properties":{"stype":"small_craft_facility","category":"slipway","osm":"way/806337164","seamark:small_craft_facility:category":"slipway","seamark:type":"small_craft_facility"}},{"type":"Feature","geometry":{"type":"Point","coordinates":[28.23369,36.80359]},"properties":{"stype":"ferry","osm":"way/733898773"}},{"type":"Feature","geometry":{"type":"Point","coordinates":[28.28654,36.845]},"properties":{"stype":"harbour","name":"Albatros Marina","category":"marina","osm":"way/293945819","seamark:harbour:category":"marina","seamark:type":"harbour"}},{"type":"Feature","geometry":{"type":"Point","coordinates":[28.27238,36.85124]},"properties":{"stype":"landmark","osm":"way/1119541752"}},{"type":"Feature","geometry":{"type":"Point","coordinates":[28.27503,36.8499]},"properties":{"stype":"landmark","osm":"way/1119541753"}},{"type":"Feature","geometry":{"type":"Point","coordinates":[28.27664,36.85137]},"properties":{"stype":"landmark","osm":"way/1119541755"}},{"type":"Feature","geometry":{"type":"Point","coordinates":[28.43867,36.77272]},"properties":{"stype":"landmark","osm":"way/239240801"}},{"type":"Feature","geometry":{"type":"Point","coordinates":[28.20552,36.99876]},"properties":{"stype":"landmark","name":"Фар","osm":"way/239173054"}}]}