{"type":"FeatureCollection","features":[{"type":"Feature","geometry":{"type":"Point","coordinates":[28.24752,36.38693]},"properties":{"stype":"rock","source_tag":"rock","osm":"node/5157284101"}},{"type":"Feature","geometry":{"type":"Point","coordinates":[28.02422,36.56099]},"properties":{"stype":"rock","depth":"covers","osm":"node/7540368977","seamark:rock:water_level":"covers","seamark:type":"rock"}},{"type":"Feature","geometry":{"type":"Point","coordinates":[28.05053,36.64832]},"properties":{"stype":"rock","depth":"covers","osm":"node/7540368318","seamark:rock:water_level":"covers","seamark:type":"rock"}},{"type":"Feature","geometry":{"type":"Point","coordinates":[28.30833,36.825]},"properties":{"stype":"wreck","category":"non-dangerous","osm":"node/9915159737","seamark:type":"wreck","seamark:wreck:category":"non-dangerous"}},{"type":"Feature","geometry":{"type":"Point","coordinates":[28.29448,36.83572]},"properties":{"stype":"rock","name":"Aktaş","source_tag":"bare_rock","osm":"node/2967129034"}},{"type":"Feature","geometry":{"type":"Point","coordinates":[29.07715,34.01979]},"properties":{"stype":"cable_submarine","name":"SEA ME WE2-S7","category":"fiber_optic","osm":"way/761201725","seamark:cable_submarine:category":"fiber_optic","seamark:cable_submarine:name":"SEA ME WE2-S7","seamark:type":"cable_submarine","wikidata":"Q31840082"}},{"type":"Feature","geometry":{"type":"Point","coordinates":[28.01271,36.37768]},"properties":{"stype":"rock","source_tag":"bare_rock","osm":"way/1312013850"}},{"type":"Feature","geometry":{"type":"Point","coordinates":[28.24146,36.38469]},"properties":{"stype":"rock","source_tag":"rock","osm":"way/1393274328"}},{"type":"Feature","geometry":{"type":"Point","coordinates":[28.23337,36.40103]},"properties":{"stype":"rock","source_tag":"bare_rock","osm":"way/660066749"}},{"type":"Feature","geometry":{"type":"Point","coordinates":[28.2313,36.40631]},"properties":{"stype":"rock","source_tag":"bare_rock","osm":"way/660066748"}},{"type":"Feature","geometry":{"type":"Point","coordinates":[27.57975,36.97772]},"properties":{"stype":"rock","source_tag":"bare_rock","osm":"way/1395752696"}},{"type":"Feature","geometry":{"type":"Point","coordinates":[27.58029,36.97882]},"properties":{"stype":"rock","source_tag":"bare_rock","osm":"way/1395752699"}},{"type":"Feature","geometry":{"type":"Point","coordinates":[27.57822,36.97833]},"properties":{"stype":"rock","source_tag":"bare_rock","osm":"way/1395752697"}},{"type":"Feature","geometry":{"type":"Point","coordinates":[27.6424,36.98494]},"properties":{"stype":"rock","source_tag":"bare_rock","osm":"way/709229966"}},{"type":"Feature","geometry":{"type":"Point","coordinates":[27.76058,36.57966]},"properties":{"stype":"rock","source_tag":"bare_rock","osm":"way/659908743"}},{"type":"Feature","geometry":{"type":"Point","coordinates":[27.86488,36.5195]},"properties":{"stype":"rock","source_tag":"bare_rock","osm":"way/1312015414"}},{"type":"Feature","geometry":{"type":"Point","coordinates":[27.87241,36.52182]},"properties":{"stype":"rock","source_tag":"bare_rock","osm":"way/1312014578"}},{"type":"Feature","geometry":{"type":"Point","coordinates":[27.87347,36.52208]},"properties":{"stype":"rock","source_tag":"bare_rock","osm":"way/1312014570"}},{"type":"Feature","geometry":{"type":"Point","coordinates":[27.87355,36.52208]},"properties":{"stype":"rock","source_tag":"bare_rock","osm":"way/1312014572"}},{"type":"Feature","geometry":{"type":"Point","coordinates":[27.87355,36.52203]},"properties":{"stype":"rock","source_tag":"bare_rock","osm":"way/1312014574"}},{"type":"Feature","geometry":{"type":"Point","coordinates":[27.87275,36.52187]},"properties":{"stype":"rock","source_tag":"bare_rock","osm":"way/1312014576"}},{"type":"Feature","geometry":{"type":"Point","coordinates":[27.87492,36.52272]},"properties":{"stype":"rock","source_tag":"bare_rock","osm":"way/1312015416"}},{"type":"Feature","geometry":{"type":"Point","coordinates":[27.87492,36.52289]},"properties":{"stype":"rock","source_tag":"bare_rock","osm":"way/1312015418"}},{"type":"Feature","geometry":{"type":"Point","coordinates":[27.78964,36.5848]},"properties":{"stype":"rock","source_tag":"bare_rock","osm":"way/659910248"}},{"type":"Feature","geometry":{"type":"Point","coordinates":[27.87377,36.57807]},"properties":{"stype":"rock","source_tag":"bare_rock","osm":"way/1312019873"}},{"type":"Feature","geometry":{"type":"Point","coordinates":[27.79348,36.62252]},"properties":{"stype":"rock","source_tag":"bare_rock","osm":"way/701846906"}},{"type":"Feature","geometry":{"type":"Point","coordinates":[27.79597,36.62323]},"properties":{"stype":"rock","source_tag":"bare_rock","osm":"way/701846905"}},{"type":"Feature","geometry":{"type":"Point","coordinates":[27.82981,36.64295]},"properties":{"stype":"rock","source_tag":"bare_rock","osm":"way/659910250"}},{"type":"Feature","geometry":{"type":"Point","coordinates":[27.81743,36.65195]},"properties":{"stype":"rock","source_tag":"bare_rock","osm":"way/1124713060"}},{"type":"Feature","geometry":{"type":"Point","coordinates":[28.00159,36.56401]},"properties":{"stype":"rock","source_tag":"bare_rock","osm":"way/711108171"}},{"type":"Feature","geometry":{"type":"Point","coordinates":[28.00167,36.56382]},"properties":{"stype":"rock","source_tag":"bare_rock","osm":"way/711108172"}},{"type":"Feature","geometry":{"type":"Point","coordinates":[28.00445,36.56567]},"properties":{"stype":"rock","source_tag":"bare_rock","osm":"way/711108021"}},{"type":"Feature","geometry":{"type":"Point","coordinates":[28.00427,36.56565]},"properties":{"stype":"rock","source_tag":"bare_rock","osm":"way/711108022"}},{"type":"Feature","geometry":{"type":"Point","coordinates":[28.00407,36.56559]},"properties":{"stype":"rock","source_tag":"bare_rock","osm":"way/711108023"}},{"type":"Feature","geometry":{"type":"Point","coordinates":[28.00412,36.56488]},"properties":{"stype":"rock","source_tag":"bare_rock","osm":"way/711108024"}},{"type":"Feature","geometry":{"type":"Point","coordinates":[28.00384,36.56484]},"properties":{"stype":"rock","source_tag":"bare_rock","osm":"way/711108025"}},{"type":"Feature","geometry":{"type":"Point","coordinates":[28.00381,36.56496]},"properties":{"stype":"rock","source_tag":"bare_rock","osm":"way/711108026"}},{"type":"Feature","geometry":{"type":"Point","coordinates":[28.00396,36.56538]},"properties":{"stype":"rock","source_tag":"bare_rock","osm":"way/711108027"}},{"type":"Feature","geometry":{"type":"Point","coordinates":[27.99967,36.56718]},"properties":{"stype":"rock","source_tag":"bare_rock","osm":"way/711108173"}},{"type":"Feature","geometry":{"type":"Point","coordinates":[27.99956,36.56707]},"properties":{"stype":"rock","source_tag":"bare_rock","osm":"way/711108174"}},{"type":"Feature","geometry":{"type":"Point","coordinates":[27.99832,36.56808]},"properties":{"stype":"rock","source_tag":"bare_rock","osm":"way/711108175"}},{"type":"Feature","geometry":{"type":"Point","coordinates":[27.99715,36.56697]},"properties":{"stype":"rock","source_tag":"bare_rock","osm":"way/711108827"}},{"type":"Feature","geometry":{"type":"Point","coordinates":[27.99839,36.56811]},"properties":{"stype":"rock","source_tag":"bare_rock","osm":"way/711108828"}},{"type":"Feature","geometry":{"type":"Point","coordinates":[28.01211,36.5649]},"properties":{"stype":"rock","source_tag":"bare_rock","osm":"way/711108020"}},{"type":"Feature","geometry":{"type":"Point","coordinates":[28.0185,36.56597]},"properties":{"stype":"rock","source_tag":"bare_rock","osm":"way/711108019"}},{"type":"Feature","geometry":{"type":"Point","coordinates":[28.04107,36.56711]},"properties":{"stype":"rock","source_tag":"bare_rock","osm":"way/591388788"}},{"type":"Feature","geometry":{"type":"Point","coordinates":[28.04561,36.60604]},"properties":{"stype":"rock","source_tag":"bare_rock","osm":"way/701865560"}},{"type":"Feature","geometry":{"type":"Point","coordinates":[28.05017,36.5738]},"properties":{"stype":"rock","source_tag":"bare_rock","osm":"way/701867242"}},{"type":"Feature","geometry":{"type":"Point","coordinates":[28.05535,36.58145]},"properties":{"stype":"rock","source_tag":"bare_rock","osm":"way/1190566240"}},{"type":"Feature","geometry":{"type":"Point","coordinates":[28.0751,36.5953]},"properties":{"stype":"rock","source_tag":"bare_rock","osm":"way/711106381"}},{"type":"Feature","geometry":{"type":"Point","coordinates":[28.06436,36.60553]},"properties":{"stype":"rock","source_tag":"bare_rock","osm":"way/711109318"}},{"type":"Feature","geometry":{"type":"Point","coordinates":[27.96792,36.67498]},"properties":{"stype":"rock","source_tag":"bare_rock","osm":"way/701850564"}},{"type":"Feature","geometry":{"type":"Point","coordinates":[28.06555,36.63993]},"properties":{"stype":"rock","source_tag":"bare_rock","osm":"way/701865558"}},{"type":"Feature","geometry":{"type":"Point","coordinates":[28.0004,36.67444]},"properties":{"stype":"rock","source_tag":"bare_rock","osm":"way/701851714"}},{"type":"Feature","geometry":{"type":"Point","coordinates":[28.0004,36.67454]},"properties":{"stype":"rock","source_tag":"bare_rock","osm":"way/701851715"}},{"type":"Feature","geometry":{"type":"Point","coordinates":[28.01161,36.66845]},"properties":{"stype":"rock","source_tag":"bare_rock","osm":"way/701853866"}},{"type":"Feature","geometry":{"type":"Point","coordinates":[28.03107,36.67325]},"properties":{"stype":"rock","source_tag":"bare_rock","osm":"way/701863270"}},{"type":"Feature","geometry":{"type":"Point","coordinates":[28.03781,36.68858]},"properties":{"stype":"rock","source_tag":"bare_rock","osm":"way/701863650"}},{"type":"Feature","geometry":{"type":"Point","coordinates":[28.03794,36.68866]},"properties":{"stype":"rock","source_tag":"bare_rock","osm":"way/701863651"}},{"type":"Feature","geometry":{"type":"Point","coordinates":[28.0381,36.68867]},"properties":{"stype":"rock","source_tag":"bare_rock","osm":"way/701863652"}},{"type":"Feature","geometry":{"type":"Point","coordinates":[27.78786,36.75752]},"properties":{"stype":"rock","source_tag":"bare_rock","osm":"way/659911914"}},{"type":"Feature","geometry":{"type":"Point","coordinates":[28.44166,36.77839]},"properties":{"stype":"rock","source_tag":"bare_rock","osm":"way/1518244658"}},{"type":"Feature","geometry":{"type":"Point","coordinates":[27.7319,36.99277]},"properties":{"stype":"rock","source_tag":"bare_rock","osm":"way/709229967"}},{"type":"Feature","geometry":{"type":"Point","coordinates":[27.73198,36.99293]},"properties":{"stype":"rock","source_tag":"bare_rock","osm":"way/709229968"}},{"type":"Feature","geometry":{"type":"Point","coordinates":[27.73207,36.99303]},"properties":{"stype":"rock","source_tag":"bare_rock","osm":"way/709229969"}},{"type":"Feature","geometry":{"type":"Point","coordinates":[27.73225,36.99317]},"properties":{"stype":"rock","source_tag":"bare_rock","osm":"way/709229970"}},{"type":"Feature","geometry":{"type":"Point","coordinates":[27.73858,36.99143]},"properties":{"stype":"rock","source_tag":"bare_rock","osm":"way/709229972"}},{"type":"Feature","geometry":{"type":"Point","coordinates":[27.73881,36.99192]},"properties":{"stype":"rock","source_tag":"bare_rock","osm":"way/709229971"}},{"type":"Feature","geometry":{"type":"Point","coordinates":[27.73893,36.99222]},"properties":{"stype":"rock","source_tag":"bare_rock","osm":"way/709229973"}},{"type":"Feature","geometry":{"type":"Point","coordinates":[27.74014,36.99351]},"properties":{"stype":"rock","source_tag":"bare_rock","osm":"way/709229974"}},{"type":"Feature","geometry":{"type":"Point","coordinates":[27.73816,36.99369]},"properties":{"stype":"rock","source_tag":"bare_rock","osm":"way/709229975"}},{"type":"Feature","geometry":{"type":"Point","coordinates":[27.74223,36.99674]},"properties":{"stype":"rock","source_tag":"bare_rock","osm":"way/709230433"}},{"type":"Feature","geometry":{"type":"Point","coordinates":[27.7418,36.99648]},"properties":{"stype":"rock","source_tag":"bare_rock","osm":"way/709230434"}},{"type":"Feature","geometry":{"type":"Point","coordinates":[27.74185,36.9965]},"properties":{"stype":"rock","source_tag":"bare_rock","osm":"way/709230435"}}]}