{"type":"FeatureCollection","features":[{"type":"Feature","geometry":{"type":"Point","coordinates":[27.98269,36.35042]},"properties":{"kind":"village","name":"Φάνες","rank":2}},{"type":"Feature","geometry":{"type":"Point","coordinates":[28.00233,36.36241]},"properties":{"kind":"village","name":"Σορωνή","rank":2}},{"type":"Feature","geometry":{"type":"Point","coordinates":[28.04452,36.35787]},"properties":{"kind":"peak","name":"Αζήγονα","rank":5}},{"type":"Feature","geometry":{"type":"Point","coordinates":[28.03598,36.37393]},"properties":{"kind":"village","name":"Θεολόγος","rank":2}},{"type":"Feature","geometry":{"type":"Point","coordinates":[28.07458,36.36821]},"properties":{"kind":"peak","name":"Βαρδάρι","rank":5}},{"type":"Feature","geometry":{"type":"Point","coordinates":[28.06178,36.38227]},"properties":{"kind":"hamlet","name":"Κάτω Καλαμώνας","rank":4}},{"type":"Feature","geometry":{"type":"Point","coordinates":[28.08357,36.3803]},"properties":{"kind":"village","name":"Δαματρία","rank":2}},{"type":"Feature","geometry":{"type":"Point","coordinates":[28.08374,36.39976]},"properties":{"kind":"town","name":"Παραδείσι","rank":1}},{"type":"Feature","geometry":{"type":"Point","coordinates":[28.09532,36.39405]},"properties":{"kind":"peak","name":"Παραδείσι","rank":5}},{"type":"Feature","geometry":{"type":"Point","coordinates":[28.12643,36.35222]},"properties":{"kind":"peak","name":"Κουμούλι","rank":5}},{"type":"Feature","geometry":{"type":"Point","coordinates":[28.11728,36.36077]},"properties":{"kind":"village","name":"Μαριτσά","rank":2}},{"type":"Feature","geometry":{"type":"Point","coordinates":[28.1461,36.35674]},"properties":{"kind":"peak","name":"Γηπαδιά","rank":5}},{"type":"Feature","geometry":{"type":"Point","coordinates":[28.13583,36.38783]},"properties":{"kind":"village","name":"Παστίδα","rank":2}},{"type":"Feature","geometry":{"type":"Point","coordinates":[28.13996,36.40017]},"properties":{"kind":"peak","name":"Φιλέρημος","rank":5}},{"type":"Feature","geometry":{"type":"Point","coordinates":[28.14485,36.39934]},"properties":{"kind":"peak","name":"Φιλέρημος","rank":5}},{"type":"Feature","geometry":{"type":"Point","coordinates":[28.16912,36.3649]},"properties":{"kind":"peak","name":"Λούκα","rank":5}},{"type":"Feature","geometry":{"type":"Point","coordinates":[28.19333,36.37262]},"properties":{"kind":"locality","name":"Βρυσιά","rank":5}},{"type":"Feature","geometry":{"type":"Point","coordinates":[28.19627,36.38223]},"properties":{"kind":"hamlet","name":"Τσαΐρι","rank":4}},{"type":"Feature","geometry":{"type":"Point","coordinates":[28.21212,36.35996]},"properties":{"kind":"locality","name":"Αμμούδες","rank":5}},{"type":"Feature","geometry":{"type":"Point","coordinates":[28.23515,36.37467]},"properties":{"kind":"bay","name":"Oasis Beach","rank":3}},{"type":"Feature","geometry":{"type":"Point","coordinates":[28.21431,36.38675]},"properties":{"kind":"town","name":"Κοσκινού","rank":1}},{"type":"Feature","geometry":{"type":"Point","coordinates":[28.22356,36.38154]},"properties":{"kind":"peak","name":"Χάρακας","rank":5}},{"type":"Feature","geometry":{"type":"Point","coordinates":[28.23724,36.37761]},"properties":{"kind":"suburb","name":"Καλλιθέα","rank":2}},{"type":"Feature","geometry":{"type":"Point","coordinates":[28.24763,36.38684]},"properties":{"kind":"cape","name":"Βόδι","rank":3}},{"type":"Feature","geometry":{"type":"Point","coordinates":[28.12066,36.4116]},"properties":{"kind":"village","name":"Κρεμαστή","rank":2}},{"type":"Feature","geometry":{"type":"Point","coordinates":[28.16548,36.40317]},"properties":{"kind":"peak","name":"Κατάρτι","rank":5}},{"type":"Feature","geometry":{"type":"Point","coordinates":[28.1789,36.41323]},"properties":{"kind":"peak","name":"Κοκιάτας","rank":5}},{"type":"Feature","geometry":{"type":"Point","coordinates":[28.15823,36.41559]},"properties":{"kind":"town","name":"Ιαλυσός","rank":1}},{"type":"Feature","geometry":{"type":"Point","coordinates":[28.20209,36.40395]},"properties":{"kind":"village","name":"Σγουρού","rank":2}},{"type":"Feature","geometry":{"type":"Point","coordinates":[28.20325,36.43442]},"properties":{"kind":"village","name":"Κρητικά","rank":2}},{"type":"Feature","geometry":{"type":"Point","coordinates":[28.22599,36.40504]},"properties":{"kind":"locality","name":"Helios","rank":5}},{"type":"Feature","geometry":{"type":"Point","coordinates":[28.22764,36.40519]},"properties":{"kind":"locality","name":"Triton","rank":5}},{"type":"Feature","geometry":{"type":"Point","coordinates":[28.22804,36.40664]},"properties":{"kind":"locality","name":"Athena","rank":5}},{"type":"Feature","geometry":{"type":"Point","coordinates":[28.2295,36.40706]},"properties":{"kind":"locality","name":"Ariadne","rank":5}},{"type":"Feature","geometry":{"type":"Point","coordinates":[28.23007,36.40668]},"properties":{"kind":"locality","name":"Poseidon","rank":5}},{"type":"Feature","geometry":{"type":"Point","coordinates":[28.22737,36.44372]},"properties":{"kind":"city","name":"Ρόδος","rank":0}},{"type":"Feature","geometry":{"type":"Point","coordinates":[28.23215,36.4469]},"properties":{"kind":"locality","name":"Ακτή Κονίτσης","rank":5}},{"type":"Feature","geometry":{"type":"Point","coordinates":[28.22153,36.44996]},"properties":{"kind":"neighbourhood","name":"Νεοχώρι","rank":4}},{"type":"Feature","geometry":{"type":"Point","coordinates":[28.23345,36.43511]},"properties":{"kind":"neighbourhood","name":"Άγιος Νικόλαος","rank":4}},{"type":"Feature","geometry":{"type":"Point","coordinates":[27.5575,36.68529]},"properties":{"kind":"neighbourhood","name":"Ovabükü","rank":4}},{"type":"Feature","geometry":{"type":"Point","coordinates":[27.56994,36.70104]},"properties":{"kind":"village","name":"Mesudiye","rank":2}},{"type":"Feature","geometry":{"type":"Point","coordinates":[27.55245,36.70749]},"properties":{"kind":"locality","name":"Datça Yarımadası","rank":5}},{"type":"Feature","geometry":{"type":"Point","coordinates":[27.61576,36.68012]},"properties":{"kind":"locality","name":"Kızılbük","rank":5}},{"type":"Feature","geometry":{"type":"Point","coordinates":[27.63692,36.71354]},"properties":{"kind":"peak","name":"Kara Dağ","rank":5}},{"type":"Feature","geometry":{"type":"Point","coordinates":[27.67544,36.69928]},"properties":{"kind":"beach","name":"Nirva","rank":4}},{"type":"Feature","geometry":{"type":"Point","coordinates":[27.67555,36.7006]},"properties":{"kind":"beach","name":"Kargı Plajı","rank":4}},{"type":"Feature","geometry":{"type":"Point","coordinates":[27.58167,36.73083]},"properties":{"kind":"peak","name":"Kocadağ","rank":5}},{"type":"Feature","geometry":{"type":"Point","coordinates":[27.64976,36.73915]},"properties":{"kind":"village","name":"Hızırşah","rank":2}},{"type":"Feature","geometry":{"type":"Point","coordinates":[27.66497,36.73912]},"properties":{"kind":"suburb","name":"Eski Datça","rank":2}},{"type":"Feature","geometry":{"type":"Point","coordinates":[27.632,36.75284]},"properties":{"kind":"village","name":"Karaköy","rank":2}},{"type":"Feature","geometry":{"type":"Point","coordinates":[27.66604,36.75501]},"properties":{"kind":"village","name":"Reşadiye","rank":2}},{"type":"Feature","geometry":{"type":"Point","coordinates":[27.56659,36.97677]},"properties":{"kind":"bay","name":"Pabucburnu","rank":3}},{"type":"Feature","geometry":{"type":"Point","coordinates":[27.5756,36.9842]},"properties":{"kind":"cape","name":"Koca Burun","rank":3}},{"type":"Feature","geometry":{"type":"Point","coordinates":[27.55382,36.99257]},"properties":{"kind":"peak","name":"Yalı Dağı","rank":5}},{"type":"Feature","geometry":{"type":"Point","coordinates":[27.59714,37.0069]},"properties":{"kind":"neighbourhood","name":"Çukurgöl","rank":4}},{"type":"Feature","geometry":{"type":"Point","coordinates":[27.6489,36.9972]},"properties":{"kind":"bay","name":"Kissebükü","rank":3}},{"type":"Feature","geometry":{"type":"Point","coordinates":[27.66008,37.01507]},"properties":{"kind":"neighbourhood","name":"Çocuk Mezarlığı","rank":4}},{"type":"Feature","geometry":{"type":"Point","coordinates":[27.57504,37.03217]},"properties":{"kind":"village","name":"Çiftlik","rank":2}},{"type":"Feature","geometry":{"type":"Point","coordinates":[27.5543,37.09057]},"properties":{"kind":"neighbourhood","name":"İrmene","rank":4}},{"type":"Feature","geometry":{"type":"Point","coordinates":[27.60335,37.04126]},"properties":{"kind":"peak","name":"Kuşça Dağı","rank":5}},{"type":"Feature","geometry":{"type":"Point","coordinates":[27.5906,37.05558]},"properties":{"kind":"neighbourhood","name":"Etrim","rank":4}},{"type":"Feature","geometry":{"type":"Point","coordinates":[27.59971,37.07747]},"properties":{"kind":"village","name":"Pınarlıbelen","rank":2}},{"type":"Feature","geometry":{"type":"Point","coordinates":[27.64292,37.04844]},"properties":{"kind":"peak","name":"Gavur Dağı","rank":5}},{"type":"Feature","geometry":{"type":"Point","coordinates":[27.58309,37.08509]},"properties":{"kind":"village","name":"Kumköy","rank":2}},{"type":"Feature","geometry":{"type":"Point","coordinates":[27.60959,37.09814]},"properties":{"kind":"village","name":"Sazköy","rank":2}},{"type":"Feature","geometry":{"type":"Point","coordinates":[27.63635,37.09234]},"properties":{"kind":"village","name":"Çamarası","rank":2}},{"type":"Feature","geometry":{"type":"Point","coordinates":[27.67916,37.08731]},"properties":{"kind":"village","name":"Yeniköy","rank":2}},{"type":"Feature","geometry":{"type":"Point","coordinates":[27.85705,36.52638]},"properties":{"kind":"peak","name":"Πάνο Βάρδια","rank":5}},{"type":"Feature","geometry":{"type":"Point","coordinates":[27.8447,36.55024]},"properties":{"kind":"bay","name":"Όρμος Πανορμίτης","rank":3}},{"type":"Feature","geometry":{"type":"Point","coordinates":[27.84671,36.54837]},"properties":{"kind":"locality","name":"Πανορμίτης","rank":5}},{"type":"Feature","geometry":{"type":"Point","coordinates":[27.81621,36.6104]},"properties":{"kind":"hamlet","name":"Ρουκουνιώτης","rank":4}},{"type":"Feature","geometry":{"type":"Point","coordinates":[27.82323,36.60535]},"properties":{"kind":"hamlet","name":"Ξίσος","rank":4}},{"type":"Feature","geometry":{"type":"Point","coordinates":[27.83313,36.60234]},"properties":{"kind":"peak","name":"Βίγλα","rank":5}},{"type":"Feature","geometry":{"type":"Point","coordinates":[27.86544,36.56701]},"properties":{"kind":"bay","name":"Μαραθούντας","rank":3}},{"type":"Feature","geometry":{"type":"Point","coordinates":[27.86137,36.56669]},"properties":{"kind":"locality","name":"Μαραθούντα","rank":5}},{"type":"Feature","geometry":{"type":"Point","coordinates":[27.86201,36.58193]},"properties":{"kind":"bay","name":"Νανού","rank":3}},{"type":"Feature","geometry":{"type":"Point","coordinates":[27.87354,36.59784]},"properties":{"kind":"bay","name":"Όρμος Αγίου Γεωργίου","rank":3}},{"type":"Feature","geometry":{"type":"Point","coordinates":[27.79702,36.62167]},"properties":{"kind":"bay","name":"Όρμος Τολιού","rank":3}},{"type":"Feature","geometry":{"type":"Point","coordinates":[27.81823,36.62398]},"properties":{"kind":"bay","name":"Εμπορειού","rank":3}},{"type":"Feature","geometry":{"type":"Point","coordinates":[27.81865,36.62165]},"properties":{"kind":"hamlet","name":"Εμπορειός","rank":4}},{"type":"Feature","geometry":{"type":"Point","coordinates":[27.83803,36.61329]},"properties":{"kind":"town","name":"Σύμη","rank":1}},{"type":"Feature","geometry":{"type":"Point","coordinates":[27.83843,36.61185]},"properties":{"kind":"suburb","name":"Χωριό","rank":2}},{"type":"Feature","geometry":{"type":"Point","coordinates":[27.8349,36.61668]},"properties":{"kind":"suburb","name":"Γυαλός","rank":2}},{"type":"Feature","geometry":{"type":"Point","coordinates":[27.83147,36.62402]},"properties":{"kind":"hamlet","name":"Συκίδι","rank":4}},{"type":"Feature","geometry":{"type":"Point","coordinates":[27.83633,36.62269]},"properties":{"kind":"beach","name":"Παραλία της Σάρα","rank":4}},{"type":"Feature","geometry":{"type":"Point","coordinates":[27.85539,36.6138]},"properties":{"kind":"village","name":"Πέδι","rank":2}},{"type":"Feature","geometry":{"type":"Point","coordinates":[27.85836,36.61497]},"properties":{"kind":"bay","name":"Πέδιου","rank":3}},{"type":"Feature","geometry":{"type":"Point","coordinates":[27.87128,36.62376]},"properties":{"kind":"bay","name":"Αγία Μαρίνα","rank":3}},{"type":"Feature","geometry":{"type":"Point","coordinates":[27.85622,36.65814]},"properties":{"kind":"beach","name":"nimos beach","rank":4}},{"type":"Feature","geometry":{"type":"Point","coordinates":[27.97874,36.5536]},"properties":{"kind":"cape","name":"Karaburun","rank":3}},{"type":"Feature","geometry":{"type":"Point","coordinates":[27.95652,36.60104]},"properties":{"kind":"cape","name":"Kızıl Burun","rank":3}},{"type":"Feature","geometry":{"type":"Point","coordinates":[27.95647,36.60087]},"properties":{"kind":"cape","name":"Kızıl Burun","rank":3}},{"type":"Feature","geometry":{"type":"Point","coordinates":[28.01922,36.56819]},"properties":{"kind":"locality","name":"Bozukkale","rank":5}},{"type":"Feature","geometry":{"type":"Point","coordinates":[28.04795,36.57104]},"properties":{"kind":"cape","name":"Dişli Burnu","rank":3}},{"type":"Feature","geometry":{"type":"Point","coordinates":[28.04729,36.57905]},"properties":{"kind":"bay","name":"Serçe","rank":3}},{"type":"Feature","geometry":{"type":"Point","coordinates":[28.01786,36.58968]},"properties":{"kind":"locality","name":"Bozburun Yarımadası","rank":5}},{"type":"Feature","geometry":{"type":"Point","coordinates":[28.08869,36.58242]},"properties":{"kind":"cape","name":"Gökçe Burnu","rank":3}},{"type":"Feature","geometry":{"type":"Point","coordinates":[28.09367,36.60631]},"properties":{"kind":"peak","name":"Karayüksek Dağ","rank":5}},{"type":"Feature","geometry":{"type":"Point","coordinates":[27.96421,36.67562]},"properties":{"kind":"cape","name":"Atabol Burnu","rank":3}},{"type":"Feature","geometry":{"type":"Point","coordinates":[27.96388,36.6781]},"properties":{"kind":"cape","name":"Atabol Burnu","rank":3}},{"type":"Feature","geometry":{"type":"Point","coordinates":[27.97754,36.68323]},"properties":{"kind":"hamlet","name":"Dirsek","rank":4}},{"type":"Feature","geometry":{"type":"Point","coordinates":[28.00619,36.63534]},"properties":{"kind":"bay","name":"Yeşilova Körfezi","rank":3}},{"type":"Feature","geometry":{"type":"Point","coordinates":[28.04428,36.69278]},"properties":{"kind":"village","name":"Bozburun","rank":2}},{"type":"Feature","geometry":{"type":"Point","coordinates":[28.04947,36.68406]},"properties":{"kind":"bay","name":"Bozburnu Liman","rank":3}},{"type":"Feature","geometry":{"type":"Point","coordinates":[28.0631,36.68371]},"properties":{"kind":"village","name":"Yeşilova","rank":2}},{"type":"Feature","geometry":{"type":"Point","coordinates":[28.09399,36.70593]},"properties":{"kind":"village","name":"Selimiye","rank":2}},{"type":"Feature","geometry":{"type":"Point","coordinates":[27.68723,36.71966]},"properties":{"kind":"beach","name":"Taşlık Plajı","rank":4}},{"type":"Feature","geometry":{"type":"Point","coordinates":[27.68739,36.72634]},"properties":{"kind":"town","name":"Datça","rank":1}},{"type":"Feature","geometry":{"type":"Point","coordinates":[27.68435,36.72936]},"properties":{"kind":"suburb","name":"İskele","rank":2}},{"type":"Feature","geometry":{"type":"Point","coordinates":[27.73513,36.72767]},"properties":{"kind":"bay","name":"Datça Körfezi","rank":3}},{"type":"Feature","geometry":{"type":"Point","coordinates":[27.69273,36.77326]},"properties":{"kind":"village","name":"Kızlan","rank":2}},{"type":"Feature","geometry":{"type":"Point","coordinates":[27.79205,36.76049]},"properties":{"kind":"beach","name":"Karaincir plaji","rank":4}},{"type":"Feature","geometry":{"type":"Point","coordinates":[27.7973,36.76364]},"properties":{"kind":"neighbourhood","name":"Karaincir","rank":4}},{"type":"Feature","geometry":{"type":"Point","coordinates":[27.81824,36.76254]},"properties":{"kind":"beach","name":"Wild stone beach","rank":4}},{"type":"Feature","geometry":{"type":"Point","coordinates":[27.88487,36.75889]},"properties":{"kind":"locality","name":"Aktur","rank":5}},{"type":"Feature","geometry":{"type":"Point","coordinates":[27.79624,36.79353]},"properties":{"kind":"peak","name":"Emecik Dağı","rank":5}},{"type":"Feature","geometry":{"type":"Point","coordinates":[27.81445,36.77814]},"properties":{"kind":"village","name":"Emecik","rank":2}},{"type":"Feature","geometry":{"type":"Point","coordinates":[27.87983,36.77449]},"properties":{"kind":"peak","name":"Yağlıdağar Dağı","rank":5}},{"type":"Feature","geometry":{"type":"Point","coordinates":[27.8501,36.80483]},"properties":{"kind":"locality","name":"Kızılağaç","rank":5}},{"type":"Feature","geometry":{"type":"Point","coordinates":[27.92151,36.74215]},"properties":{"kind":"cape","name":"Bozan Burnu","rank":3}},{"type":"Feature","geometry":{"type":"Point","coordinates":[27.89668,36.78923]},"properties":{"kind":"locality","name":"Alayar","rank":5}},{"type":"Feature","geometry":{"type":"Point","coordinates":[27.96014,36.77523]},"properties":{"kind":"peak","name":"Kovalıca Tepesi","rank":5}},{"type":"Feature","geometry":{"type":"Point","coordinates":[27.96016,36.77169]},"properties":{"kind":"peak","name":"Kovanlık Tepesi","rank":5}},{"type":"Feature","geometry":{"type":"Point","coordinates":[27.99436,36.79862]},"properties":{"kind":"bay","name":"Merdimek","rank":3}},{"type":"Feature","geometry":{"type":"Point","coordinates":[28.04251,36.78073]},"properties":{"kind":"bay","name":"Bencik Koyu","rank":3}},{"type":"Feature","geometry":{"type":"Point","coordinates":[28.04359,36.79599]},"properties":{"kind":"bay","name":"Çido Koyu","rank":3}},{"type":"Feature","geometry":{"type":"Point","coordinates":[28.0494,36.86694]},"properties":{"kind":"bay","name":"Long Harbor","rank":3}},{"type":"Feature","geometry":{"type":"Point","coordinates":[28.1088,36.63264]},"properties":{"kind":"village","name":"Taşlıca","rank":2}},{"type":"Feature","geometry":{"type":"Point","coordinates":[28.10336,36.66147]},"properties":{"kind":"village","name":"Söğüt","rank":2}},{"type":"Feature","geometry":{"type":"Point","coordinates":[28.12596,36.65244]},"properties":{"kind":"peak","name":"Göktepe","rank":5}},{"type":"Feature","geometry":{"type":"Point","coordinates":[28.1229,36.67068]},"properties":{"kind":"peak","name":"Heybecik Tepesi","rank":5}},{"type":"Feature","geometry":{"type":"Point","coordinates":[28.13626,36.68017]},"properties":{"kind":"peak","name":"Karapinar Tepe","rank":5}},{"type":"Feature","geometry":{"type":"Point","coordinates":[28.12633,36.69039]},"properties":{"kind":"peak","name":"395","rank":5}},{"type":"Feature","geometry":{"type":"Point","coordinates":[28.17924,36.71439]},"properties":{"kind":"village","name":"Bayır","rank":2}},{"type":"Feature","geometry":{"type":"Point","coordinates":[28.19191,36.7065]},"properties":{"kind":"peak","name":"Güvenç Dağı","rank":5}},{"type":"Feature","geometry":{"type":"Point","coordinates":[28.10354,36.72111]},"properties":{"kind":"bay","name":"Selimiye Koyu","rank":3}},{"type":"Feature","geometry":{"type":"Point","coordinates":[28.1189,36.74743]},"properties":{"kind":"village","name":"Turgut","rank":2}},{"type":"Feature","geometry":{"type":"Point","coordinates":[28.15076,36.75348]},"properties":{"kind":"village","name":"Orhaniye","rank":2}},{"type":"Feature","geometry":{"type":"Point","coordinates":[28.12707,36.78672]},"properties":{"kind":"bay","name":"Hisarönü Koyu","rank":3}},{"type":"Feature","geometry":{"type":"Point","coordinates":[28.14523,36.80009]},"properties":{"kind":"village","name":"Hisarönü","rank":2}},{"type":"Feature","geometry":{"type":"Point","coordinates":[28.23698,36.71691]},"properties":{"kind":"locality","name":"Çiftlik","rank":5}},{"type":"Feature","geometry":{"type":"Point","coordinates":[28.24158,36.71906]},"properties":{"kind":"neighbourhood","name":"Ilgin","rank":4}},{"type":"Feature","geometry":{"type":"Point","coordinates":[28.22014,36.74391]},"properties":{"kind":"neighbourhood","name":"mahalle","rank":4}},{"type":"Feature","geometry":{"type":"Point","coordinates":[28.20679,36.75933]},"properties":{"kind":"village","name":"Osmaniye","rank":2}},{"type":"Feature","geometry":{"type":"Point","coordinates":[28.21662,36.75628]},"properties":{"kind":"peak","name":"Palamut Tepesi","rank":5}},{"type":"Feature","geometry":{"type":"Point","coordinates":[28.29655,36.7335]},"properties":{"kind":"bay","name":"Çaycağız Koyu","rank":3}},{"type":"Feature","geometry":{"type":"Point","coordinates":[28.2961,36.73949]},"properties":{"kind":"bay","name":"Kadırga Koyu","rank":3}},{"type":"Feature","geometry":{"type":"Point","coordinates":[28.30349,36.73041]},"properties":{"kind":"cape","name":"Kadirga Burnu","rank":3}},{"type":"Feature","geometry":{"type":"Point","coordinates":[28.27093,36.74461]},"properties":{"kind":"locality","name":"Kumlubük","rank":5}},{"type":"Feature","geometry":{"type":"Point","coordinates":[28.28907,36.74942]},"properties":{"kind":"bay","name":"Baklabükü Koyu","rank":3}},{"type":"Feature","geometry":{"type":"Point","coordinates":[28.21576,36.76961]},"properties":{"kind":"neighbourhood","name":"Dereözü","rank":4}},{"type":"Feature","geometry":{"type":"Point","coordinates":[28.22597,36.79494]},"properties":{"kind":"suburb","name":"Gölenye","rank":2}},{"type":"Feature","geometry":{"type":"Point","coordinates":[28.24673,36.77288]},"properties":{"kind":"village","name":"Turunç","rank":2}},{"type":"Feature","geometry":{"type":"Point","coordinates":[28.23136,36.80133]},"properties":{"kind":"suburb","name":"İçmeler","rank":2}},{"type":"Feature","geometry":{"type":"Point","coordinates":[28.24079,36.81234]},"properties":{"kind":"beach","name":"Pamucak Plajıı","rank":4}},{"type":"Feature","geometry":{"type":"Point","coordinates":[28.283,36.79393]},"properties":{"kind":"bay","name":"Akvaryum koyu","rank":3}},{"type":"Feature","geometry":{"type":"Point","coordinates":[28.26688,36.81372]},"properties":{"kind":"cape","name":"İnce Burun","rank":3}},{"type":"Feature","geometry":{"type":"Point","coordinates":[28.30093,36.81727]},"properties":{"kind":"suburb","name":"Adaköy","rank":2}},{"type":"Feature","geometry":{"type":"Point","coordinates":[28.10373,36.82977]},"properties":{"kind":"peak","name":"Honozbaşı Tepesi","rank":5}},{"type":"Feature","geometry":{"type":"Point","coordinates":[28.14194,36.83192]},"properties":{"kind":"neighbourhood","name":"Değirmenyanı","rank":4}},{"type":"Feature","geometry":{"type":"Point","coordinates":[28.19472,36.84724]},"properties":{"kind":"peak","name":"Akçaalan Tepe","rank":5}},{"type":"Feature","geometry":{"type":"Point","coordinates":[28.19774,36.84175]},"properties":{"kind":"peak","name":"Karataş Tepe","rank":5}},{"type":"Feature","geometry":{"type":"Point","coordinates":[28.19477,36.85276]},"properties":{"kind":"locality","name":"Akçaalan","rank":5}},{"type":"Feature","geometry":{"type":"Point","coordinates":[28.14652,36.92251]},"properties":{"kind":"bay","name":"Ayın Koyu","rank":3}},{"type":"Feature","geometry":{"type":"Point","coordinates":[28.16491,36.91542]},"properties":{"kind":"bay","name":"Okluk Koyu","rank":3}},{"type":"Feature","geometry":{"type":"Point","coordinates":[28.22289,36.82813]},"properties":{"kind":"peak","name":"Köle Dağı","rank":5}},{"type":"Feature","geometry":{"type":"Point","coordinates":[28.226,36.82886]},"properties":{"kind":"peak","name":"340","rank":5}},{"type":"Feature","geometry":{"type":"Point","coordinates":[28.21679,36.83675]},"properties":{"kind":"peak","name":"Yanık Tepe","rank":5}},{"type":"Feature","geometry":{"type":"Point","coordinates":[28.23135,36.83513]},"properties":{"kind":"peak","name":"Çağıl Tepe","rank":5}},{"type":"Feature","geometry":{"type":"Point","coordinates":[28.22662,36.84467]},"properties":{"kind":"peak","name":"Soğukbelen Tepe","rank":5}},{"type":"Feature","geometry":{"type":"Point","coordinates":[28.243,36.8267]},"properties":{"kind":"beach","name":"Grand Yazıcı Club Turban Otel Plajı","rank":4}},{"type":"Feature","geometry":{"type":"Point","coordinates":[28.23811,36.8336]},"properties":{"kind":"peak","name":"Gök Tepe","rank":5}},{"type":"Feature","geometry":{"type":"Point","coordinates":[28.24378,36.8308]},"properties":{"kind":"beach","name":"Free public beach","rank":4}},{"type":"Feature","geometry":{"type":"Point","coordinates":[28.23562,36.83824]},"properties":{"kind":"locality","name":"Armutalan","rank":5}},{"type":"Feature","geometry":{"type":"Point","coordinates":[28.23599,36.83497]},"properties":{"kind":"locality","name":"Boncukpınar","rank":5}},{"type":"Feature","geometry":{"type":"Point","coordinates":[28.2374,36.84292]},"properties":{"kind":"peak","name":"Arapsivri Tepe","rank":5}},{"type":"Feature","geometry":{"type":"Point","coordinates":[28.24212,36.84623]},"properties":{"kind":"peak","name":"Çavdarboynu Tepe","rank":5}},{"type":"Feature","geometry":{"type":"Point","coordinates":[28.24732,36.8441]},"properties":{"kind":"peak","name":"Topkonan Tepesi","rank":5}},{"type":"Feature","geometry":{"type":"Point","coordinates":[28.25442,36.84477]},"properties":{"kind":"suburb","name":"Siteler","rank":2}},{"type":"Feature","geometry":{"type":"Point","coordinates":[28.21689,36.84888]},"properties":{"kind":"peak","name":"Ören Tepe","rank":5}},{"type":"Feature","geometry":{"type":"Point","coordinates":[28.23105,36.85177]},"properties":{"kind":"locality","name":"Uydukent 3 Sitesi","rank":5}},{"type":"Feature","geometry":{"type":"Point","coordinates":[28.22294,36.85668]},"properties":{"kind":"locality","name":"Musa Taşı","rank":5}},{"type":"Feature","geometry":{"type":"Point","coordinates":[28.23038,36.85899]},"properties":{"kind":"locality","name":"Sivri Tepe","rank":5}},{"type":"Feature","geometry":{"type":"Point","coordinates":[28.23604,36.85653]},"properties":{"kind":"suburb","name":"Sinan","rank":2}},{"type":"Feature","geometry":{"type":"Point","coordinates":[28.24131,36.86034]},"properties":{"kind":"peak","name":"Aktaş Tepe","rank":5}},{"type":"Feature","geometry":{"type":"Point","coordinates":[28.24349,36.85899]},"properties":{"kind":"locality","name":"Milli Egemenlik Ormanı","rank":5}},{"type":"Feature","geometry":{"type":"Point","coordinates":[28.2484,36.85569]},"properties":{"kind":"suburb","name":"Armutalan","rank":2}},{"type":"Feature","geometry":{"type":"Point","coordinates":[28.25035,36.86065]},"properties":{"kind":"suburb","name":"Camiavlu","rank":2}},{"type":"Feature","geometry":{"type":"Point","coordinates":[28.2554,36.85508]},"properties":{"kind":"suburb","name":"Hatipirimi","rank":2}},{"type":"Feature","geometry":{"type":"Point","coordinates":[28.23296,36.86593]},"properties":{"kind":"peak","name":"Ketencik Tepe","rank":5}},{"type":"Feature","geometry":{"type":"Point","coordinates":[28.24385,36.8672]},"properties":{"kind":"peak","name":"Berber Tepe","rank":5}},{"type":"Feature","geometry":{"type":"Point","coordinates":[28.2366,36.87006]},"properties":{"kind":"locality","name":"Katır Gediği","rank":5}},{"type":"Feature","geometry":{"type":"Point","coordinates":[28.23742,36.86912]},"properties":{"kind":"locality","name":"Ramazançeşmesi","rank":5}},{"type":"Feature","geometry":{"type":"Point","coordinates":[28.29589,36.83618]},"properties":{"kind":"locality","name":"Aktaş Mevkii","rank":5}},{"type":"Feature","geometry":{"type":"Point","coordinates":[28.29488,36.83663]},"properties":{"kind":"beach","name":"Plaj - Beach","rank":4}},{"type":"Feature","geometry":{"type":"Point","coordinates":[28.29468,36.83593]},"properties":{"kind":"beach","name":"Uçurtma Plajı","rank":4}},{"type":"Feature","geometry":{"type":"Point","coordinates":[28.26449,36.85032]},"properties":{"kind":"beach","name":"Halk Plajı","rank":4}},{"type":"Feature","geometry":{"type":"Point","coordinates":[28.261,36.85099]},"properties":{"kind":"suburb","name":"Çıldır","rank":2}},{"type":"Feature","geometry":{"type":"Point","coordinates":[28.26799,36.85551]},"properties":{"kind":"suburb","name":"Kemeraltı","rank":2}},{"type":"Feature","geometry":{"type":"Point","coordinates":[28.27427,36.85225]},"properties":{"kind":"town","name":"Marmaris","rank":1}},{"type":"Feature","geometry":{"type":"Point","coordinates":[28.27339,36.85415]},"properties":{"kind":"suburb","name":"Tepe","rank":2}},{"type":"Feature","geometry":{"type":"Point","coordinates":[28.27708,36.8572]},"properties":{"kind":"suburb","name":"Sarıana","rank":2}},{"type":"Feature","geometry":{"type":"Point","coordinates":[28.27147,36.86226]},"properties":{"kind":"suburb","name":"Çamdibi","rank":2}},{"type":"Feature","geometry":{"type":"Point","coordinates":[28.26622,36.87248]},"properties":{"kind":"suburb","name":"Beldibi","rank":2}},{"type":"Feature","geometry":{"type":"Point","coordinates":[28.21661,36.87586]},"properties":{"kind":"locality","name":"Çaltıcık Sırtı","rank":5}},{"type":"Feature","geometry":{"type":"Point","coordinates":[28.22405,36.87404]},"properties":{"kind":"locality","name":"Ormançeşmesi","rank":5}},{"type":"Feature","geometry":{"type":"Point","coordinates":[28.23055,36.88014]},"properties":{"kind":"peak","name":"Madenbaşı Tepe","rank":5}},{"type":"Feature","geometry":{"type":"Point","coordinates":[28.22297,36.88601]},"properties":{"kind":"village","name":"Yeşilbelde","rank":2}},{"type":"Feature","geometry":{"type":"Point","coordinates":[28.2372,36.87554]},"properties":{"kind":"peak","name":"Kocakır Tepe","rank":5}},{"type":"Feature","geometry":{"type":"Point","coordinates":[28.23875,36.87864]},"properties":{"kind":"peak","name":"Yanık Tepe","rank":5}},{"type":"Feature","geometry":{"type":"Point","coordinates":[28.24589,36.87612]},"properties":{"kind":"peak","name":"Kızılağaç Tepe","rank":5}},{"type":"Feature","geometry":{"type":"Point","coordinates":[28.24581,36.88566]},"properties":{"kind":"peak","name":"Atalan Tepe","rank":5}},{"type":"Feature","geometry":{"type":"Point","coordinates":[28.25065,36.87752]},"properties":{"kind":"peak","name":"Yörük Tepe","rank":5}},{"type":"Feature","geometry":{"type":"Point","coordinates":[28.25845,36.88003]},"properties":{"kind":"peak","name":"Aygır Tepe","rank":5}},{"type":"Feature","geometry":{"type":"Point","coordinates":[28.24787,36.88101]},"properties":{"kind":"peak","name":"Nergiz Tepe","rank":5}},{"type":"Feature","geometry":{"type":"Point","coordinates":[28.2563,36.88371]},"properties":{"kind":"peak","name":"Havis Tepe","rank":5}},{"type":"Feature","geometry":{"type":"Point","coordinates":[28.23647,36.88738]},"properties":{"kind":"peak","name":"Gelintaşı Tepe","rank":5}},{"type":"Feature","geometry":{"type":"Point","coordinates":[28.24264,36.88895]},"properties":{"kind":"peak","name":"Kara Dağ","rank":5}},{"type":"Feature","geometry":{"type":"Point","coordinates":[28.25842,36.8923]},"properties":{"kind":"peak","name":"Suuçan Tepe","rank":5}},{"type":"Feature","geometry":{"type":"Point","coordinates":[28.25169,36.89706]},"properties":{"kind":"peak","name":"Eley Tepe","rank":5}},{"type":"Feature","geometry":{"type":"Point","coordinates":[28.2634,36.8739]},"properties":{"kind":"suburb","name":"Karşıyaka","rank":2}},{"type":"Feature","geometry":{"type":"Point","coordinates":[28.26179,36.87732]},"properties":{"kind":"peak","name":"Sabantaşı Tepe","rank":5}},{"type":"Feature","geometry":{"type":"Point","coordinates":[28.26027,36.89723]},"properties":{"kind":"peak","name":"Asar Tepe","rank":5}},{"type":"Feature","geometry":{"type":"Point","coordinates":[28.26353,36.89767]},"properties":{"kind":"peak","name":"Kenger Tepe","rank":5}},{"type":"Feature","geometry":{"type":"Point","coordinates":[28.26265,36.90104]},"properties":{"kind":"peak","name":"Dikmen Tepe","rank":5}},{"type":"Feature","geometry":{"type":"Point","coordinates":[28.26851,36.90111]},"properties":{"kind":"peak","name":"Kale Tepe","rank":5}},{"type":"Feature","geometry":{"type":"Point","coordinates":[28.26714,36.91265]},"properties":{"kind":"peak","name":"Kırbaşı Tepe","rank":5}},{"type":"Feature","geometry":{"type":"Point","coordinates":[28.27855,36.90062]},"properties":{"kind":"peak","name":"İslam Tepe","rank":5}},{"type":"Feature","geometry":{"type":"Point","coordinates":[28.27428,36.91916]},"properties":{"kind":"peak","name":"Domuzburnu Tepe","rank":5}},{"type":"Feature","geometry":{"type":"Point","coordinates":[28.27987,36.92582]},"properties":{"kind":"locality","name":"Akçaalan Gediği","rank":5}},{"type":"Feature","geometry":{"type":"Point","coordinates":[28.31391,36.79546]},"properties":{"kind":"cape","name":"Kütük Burnu","rank":3}},{"type":"Feature","geometry":{"type":"Point","coordinates":[28.39831,36.78516]},"properties":{"kind":"cape","name":"Turanlı Burun","rank":3}},{"type":"Feature","geometry":{"type":"Point","coordinates":[28.38136,36.8103]},"properties":{"kind":"peak","name":"Dağardı Tepesi","rank":5}},{"type":"Feature","geometry":{"type":"Point","coordinates":[28.44276,36.77935]},"properties":{"kind":"locality","name":"Turnak Burnu","rank":5}},{"type":"Feature","geometry":{"type":"Point","coordinates":[28.48958,36.80102]},"properties":{"kind":"locality","name":"İncecik Burun","rank":5}},{"type":"Feature","geometry":{"type":"Point","coordinates":[28.33718,36.85923]},"properties":{"kind":"peak","name":"Kırzeytin Dağı","rank":5}},{"type":"Feature","geometry":{"type":"Point","coordinates":[28.40856,36.85506]},"properties":{"kind":"locality","name":"Boz Burun","rank":5}},{"type":"Feature","geometry":{"type":"Point","coordinates":[28.32679,36.8895]},"properties":{"kind":"peak","name":"Balan Dağı","rank":5}},{"type":"Feature","geometry":{"type":"Point","coordinates":[28.36992,36.90532]},"properties":{"kind":"peak","name":"Balan Dağı","rank":5}},{"type":"Feature","geometry":{"type":"Point","coordinates":[28.43786,36.83355]},"properties":{"kind":"locality","name":"Karaağaç Körfezi","rank":5}},{"type":"Feature","geometry":{"type":"Point","coordinates":[28.42451,36.83849]},"properties":{"kind":"cape","name":"Gaca Burnu","rank":3}},{"type":"Feature","geometry":{"type":"Point","coordinates":[28.47294,36.87384]},"properties":{"kind":"neighbourhood","name":"Büyük Karaağaç","rank":4}},{"type":"Feature","geometry":{"type":"Point","coordinates":[28.48935,36.91843]},"properties":{"kind":"peak","name":"Ardıç Tepe","rank":5}},{"type":"Feature","geometry":{"type":"Point","coordinates":[27.73335,37.00205]},"properties":{"kind":"neighbourhood","name":"İnceyalı","rank":4}},{"type":"Feature","geometry":{"type":"Point","coordinates":[27.70136,37.01916]},"properties":{"kind":"neighbourhood","name":"Armutçuk","rank":4}},{"type":"Feature","geometry":{"type":"Point","coordinates":[27.77664,36.99788]},"properties":{"kind":"bay","name":"Molla İbrahim Bay","rank":3}},{"type":"Feature","geometry":{"type":"Point","coordinates":[27.77627,36.99919]},"properties":{"kind":"bay","name":"Molla İbrahim","rank":3}},{"type":"Feature","geometry":{"type":"Point","coordinates":[27.73973,37.01389]},"properties":{"kind":"village","name":"Mazıköy","rank":2}},{"type":"Feature","geometry":{"type":"Point","coordinates":[27.77482,37.02286]},"properties":{"kind":"village","name":"Gökbel","rank":2}},{"type":"Feature","geometry":{"type":"Point","coordinates":[27.81471,37.01932]},"properties":{"kind":"village","name":"Çökertme","rank":2}},{"type":"Feature","geometry":{"type":"Point","coordinates":[27.88946,37.02973]},"properties":{"kind":"village","name":"Türkevleri","rank":2}},{"type":"Feature","geometry":{"type":"Point","coordinates":[27.71375,37.06402]},"properties":{"kind":"peak","name":"Bulgar Dağı","rank":5}},{"type":"Feature","geometry":{"type":"Point","coordinates":[27.73704,37.03294]},"properties":{"kind":"neighbourhood","name":"Yukarı Mazı","rank":4}},{"type":"Feature","geometry":{"type":"Point","coordinates":[27.77443,37.06714]},"properties":{"kind":"peak","name":"Kabalak Dağları","rank":5}},{"type":"Feature","geometry":{"type":"Point","coordinates":[27.73001,37.09562]},"properties":{"kind":"village","name":"Gökpınar","rank":2}},{"type":"Feature","geometry":{"type":"Point","coordinates":[27.82223,37.03662]},"properties":{"kind":"village","name":"Bozalan","rank":2}},{"type":"Feature","geometry":{"type":"Point","coordinates":[27.81107,37.08249]},"properties":{"kind":"village","name":"Fesleğen","rank":2}},{"type":"Feature","geometry":{"type":"Point","coordinates":[27.85309,37.07265]},"properties":{"kind":"village","name":"Akçakaya","rank":2}},{"type":"Feature","geometry":{"type":"Point","coordinates":[27.88374,37.07219]},"properties":{"kind":"village","name":"Gürceğiz","rank":2}},{"type":"Feature","geometry":{"type":"Point","coordinates":[27.88597,37.08972]},"properties":{"kind":"village","name":"Bayır","rank":2}},{"type":"Feature","geometry":{"type":"Point","coordinates":[28.06373,36.93066]},"properties":{"kind":"bay","name":"Tuzla Koyu","rank":3}},{"type":"Feature","geometry":{"type":"Point","coordinates":[28.09723,36.93603]},"properties":{"kind":"bay","name":"Löngöz","rank":3}},{"type":"Feature","geometry":{"type":"Point","coordinates":[27.94383,37.05624]},"properties":{"kind":"village","name":"Çamlıca","rank":2}},{"type":"Feature","geometry":{"type":"Point","coordinates":[27.92997,37.06635]},"properties":{"kind":"locality","name":"Hüsamlar","rank":5}},{"type":"Feature","geometry":{"type":"Point","coordinates":[27.95749,37.04105]},"properties":{"kind":"village","name":"Ören","rank":2}},{"type":"Feature","geometry":{"type":"Point","coordinates":[27.9678,37.07016]},"properties":{"kind":"neighbourhood","name":"Kumluca","rank":4}},{"type":"Feature","geometry":{"type":"Point","coordinates":[27.94414,37.0987]},"properties":{"kind":"village","name":"Dere","rank":2}},{"type":"Feature","geometry":{"type":"Point","coordinates":[27.96725,37.09159]},"properties":{"kind":"village","name":"Pınar","rank":2}},{"type":"Feature","geometry":{"type":"Point","coordinates":[28.0088,37.03742]},"properties":{"kind":"village","name":"Alatepe","rank":2}},{"type":"Feature","geometry":{"type":"Point","coordinates":[28.04147,37.04021]},"properties":{"kind":"village","name":"Kultak","rank":2}},{"type":"Feature","geometry":{"type":"Point","coordinates":[28.10014,37.03522]},"properties":{"kind":"neighbourhood","name":"Akbük","rank":4}},{"type":"Feature","geometry":{"type":"Point","coordinates":[27.99899,37.08916]},"properties":{"kind":"village","name":"Kalem","rank":2}},{"type":"Feature","geometry":{"type":"Point","coordinates":[28.05949,37.09259]},"properties":{"kind":"village","name":"Dağpınar","rank":2}},{"type":"Feature","geometry":{"type":"Point","coordinates":[28.07629,37.08636]},"properties":{"kind":"village","name":"Zeytin","rank":2}},{"type":"Feature","geometry":{"type":"Point","coordinates":[28.18909,36.93694]},"properties":{"kind":"neighbourhood","name":"Karacasögüt","rank":4}},{"type":"Feature","geometry":{"type":"Point","coordinates":[28.19677,36.93029]},"properties":{"kind":"village","name":"Karaca","rank":2}},{"type":"Feature","geometry":{"type":"Point","coordinates":[28.19577,36.9605]},"properties":{"kind":"island","name":"Karaca Island","rank":2}},{"type":"Feature","geometry":{"type":"Point","coordinates":[28.23068,36.93422]},"properties":{"kind":"peak","name":"Gökkaya Tepesi","rank":5}},{"type":"Feature","geometry":{"type":"Point","coordinates":[28.25504,36.93106]},"properties":{"kind":"peak","name":"Altınsivri Tepesi","rank":5}},{"type":"Feature","geometry":{"type":"Point","coordinates":[28.26656,36.98708]},"properties":{"kind":"village","name":"Çamlı","rank":2}},{"type":"Feature","geometry":{"type":"Point","coordinates":[28.30081,36.99645]},"properties":{"kind":"village","name":"Çetibeli","rank":2}},{"type":"Feature","geometry":{"type":"Point","coordinates":[28.13083,37.075]},"properties":{"kind":"village","name":"Sarnıç","rank":2}},{"type":"Feature","geometry":{"type":"Point","coordinates":[28.19971,37.06507]},"properties":{"kind":"village","name":"Kıran","rank":2}},{"type":"Feature","geometry":{"type":"Point","coordinates":[28.18664,37.09947]},"properties":{"kind":"village","name":"Denizova","rank":2}},{"type":"Feature","geometry":{"type":"Point","coordinates":[28.27623,37.04948]},"properties":{"kind":"beach","name":"Beach","rank":4}},{"type":"Feature","geometry":{"type":"Point","coordinates":[28.28871,37.07442]},"properties":{"kind":"village","name":"Kuyucak","rank":2}},{"type":"Feature","geometry":{"type":"Point","coordinates":[28.22223,37.08897]},"properties":{"kind":"village","name":"Derinkuyu","rank":2}},{"type":"Feature","geometry":{"type":"Point","coordinates":[28.34943,37.0149]},"properties":{"kind":"village","name":"Gökçe","rank":2}},{"type":"Feature","geometry":{"type":"Point","coordinates":[28.35786,37.02576]},"properties":{"kind":"village","name":"Akçapınar","rank":2}},{"type":"Feature","geometry":{"type":"Point","coordinates":[28.38593,37.02703]},"properties":{"kind":"village","name":"Şirinköy","rank":2}},{"type":"Feature","geometry":{"type":"Point","coordinates":[28.47564,36.9446]},"properties":{"kind":"peak","name":"Muslu Dağı","rank":5}},{"type":"Feature","geometry":{"type":"Point","coordinates":[28.427,37.01582]},"properties":{"kind":"village","name":"Esentepe","rank":2}},{"type":"Feature","geometry":{"type":"Point","coordinates":[28.43461,37.00697]},"properties":{"kind":"village","name":"Yeşilçam","rank":2}},{"type":"Feature","geometry":{"type":"Point","coordinates":[28.46164,37.01701]},"properties":{"kind":"village","name":"Kızılyaka","rank":2}},{"type":"Feature","geometry":{"type":"Point","coordinates":[28.48485,36.99616]},"properties":{"kind":"village","name":"Çörüş","rank":2}},{"type":"Feature","geometry":{"type":"Point","coordinates":[28.48184,37.02113]},"properties":{"kind":"village","name":"Sarayyanı","rank":2}},{"type":"Feature","geometry":{"type":"Point","coordinates":[28.49561,37.02228]},"properties":{"kind":"village","name":"Örnekköy","rank":2}},{"type":"Feature","geometry":{"type":"Point","coordinates":[28.34368,37.05483]},"properties":{"kind":"neighbourhood","name":"İnişdibi","rank":4}},{"type":"Feature","geometry":{"type":"Point","coordinates":[28.32711,37.05803]},"properties":{"kind":"village","name":"Akyaka","rank":2}},{"type":"Feature","geometry":{"type":"Point","coordinates":[28.37361,37.0506]},"properties":{"kind":"neighbourhood","name":"Yazılıtaş","rank":4}},{"type":"Feature","geometry":{"type":"Point","coordinates":[28.36512,37.05563]},"properties":{"kind":"village","name":"Gökova","rank":2}},{"type":"Feature","geometry":{"type":"Point","coordinates":[28.39449,37.04233]},"properties":{"kind":"village","name":"Ataköy","rank":2}},{"type":"Feature","geometry":{"type":"Point","coordinates":[28.4111,37.03332]},"properties":{"kind":"village","name":"Çıtlık","rank":2}},{"type":"Feature","geometry":{"type":"Point","coordinates":[28.40691,37.04142]},"properties":{"kind":"neighbourhood","name":"Zeytinbelen","rank":4}},{"type":"Feature","geometry":{"type":"Point","coordinates":[28.36442,37.0892]},"properties":{"kind":"village","name":"Kızılağaç","rank":2}},{"type":"Feature","geometry":{"type":"Point","coordinates":[28.41622,37.09322]},"properties":{"kind":"suburb","name":"Demirtaş","rank":2}},{"type":"Feature","geometry":{"type":"Point","coordinates":[28.42215,37.03127]},"properties":{"kind":"neighbourhood","name":"Taşkesiği","rank":4}},{"type":"Feature","geometry":{"type":"Point","coordinates":[28.43442,37.04756]},"properties":{"kind":"neighbourhood","name":"Yılanlı","rank":4}},{"type":"Feature","geometry":{"type":"Point","coordinates":[28.46255,37.05328]},"properties":{"kind":"village","name":"Elmalı","rank":2}},{"type":"Feature","geometry":{"type":"Point","coordinates":[28.42454,37.06759]},"properties":{"kind":"village","name":"Yeşilova","rank":2}},{"type":"Feature","geometry":{"type":"Point","coordinates":[28.46983,37.03574]},"properties":{"kind":"neighbourhood","name":"Ağaköy","rank":4}},{"type":"Feature","geometry":{"type":"Point","coordinates":[28.47895,37.04915]},"properties":{"kind":"village","name":"Portakallık","rank":2}},{"type":"Feature","geometry":{"type":"Point","coordinates":[28.47978,37.04622]},"properties":{"kind":"neighbourhood","name":"Şabankuyusu","rank":4}},{"type":"Feature","geometry":{"type":"Point","coordinates":[28.48484,37.0545]},"properties":{"kind":"neighbourhood","name":"Dereözü","rank":4}},{"type":"Feature","geometry":{"type":"Point","coordinates":[28.50543,37.04056]},"properties":{"kind":"village","name":"Karabörtlen","rank":2}},{"type":"Feature","geometry":{"type":"Point","coordinates":[28.49398,37.08974]},"properties":{"kind":"village","name":"Çiçekli","rank":2}},{"type":"Feature","geometry":{"type":"Point","coordinates":[28.53745,36.78663]},"properties":{"kind":"locality","name":"Kızıl Burun","rank":5}},{"type":"Feature","geometry":{"type":"Point","coordinates":[28.55059,36.83261]},"properties":{"kind":"village","name":"Ekincik","rank":2}},{"type":"Feature","geometry":{"type":"Point","coordinates":[28.6082,36.82751]},"properties":{"kind":"village","name":"Çandır","rank":2}},{"type":"Feature","geometry":{"type":"Point","coordinates":[28.58038,36.88116]},"properties":{"kind":"village","name":"Sultaniye","rank":2}},{"type":"Feature","geometry":{"type":"Point","coordinates":[28.64239,36.83502]},"properties":{"kind":"village","name":"Dalyan","rank":2}},{"type":"Feature","geometry":{"type":"Point","coordinates":[28.59592,36.97433]},"properties":{"kind":"village","name":"Döğüşbelen","rank":2}},{"type":"Feature","geometry":{"type":"Point","coordinates":[28.61692,36.96086]},"properties":{"kind":"village","name":"Zaferler","rank":2}},{"type":"Feature","geometry":{"type":"Point","coordinates":[28.56669,36.99821]},"properties":{"kind":"locality","name":"Prof. Yaşar Sevim Hatıra Ormanı","rank":5}},{"type":"Feature","geometry":{"type":"Point","coordinates":[28.63164,36.94949]},"properties":{"kind":"village","name":"Hamitköy","rank":2}},{"type":"Feature","geometry":{"type":"Point","coordinates":[28.64393,36.97585]},"properties":{"kind":"hamlet","name":"Özbaşı","rank":4}},{"type":"Feature","geometry":{"type":"Point","coordinates":[28.63072,36.98515]},"properties":{"kind":"hamlet","name":"Ahlatburnu","rank":4}},{"type":"Feature","geometry":{"type":"Point","coordinates":[28.63641,36.98507]},"properties":{"kind":"hamlet","name":"Ambarlık","rank":4}},{"type":"Feature","geometry":{"type":"Point","coordinates":[28.63822,36.98818]},"properties":{"kind":"locality","name":"Çamlı Tarla","rank":5}},{"type":"Feature","geometry":{"type":"Point","coordinates":[28.64855,36.98594]},"properties":{"kind":"hamlet","name":"Gölyeri","rank":4}},{"type":"Feature","geometry":{"type":"Point","coordinates":[28.64696,36.9902]},"properties":{"kind":"locality","name":"Kazancı","rank":5}},{"type":"Feature","geometry":{"type":"Point","coordinates":[28.56219,37.04435]},"properties":{"kind":"neighbourhood","name":"Karaağaç","rank":4}},{"type":"Feature","geometry":{"type":"Point","coordinates":[28.55114,37.06527]},"properties":{"kind":"neighbourhood","name":"Oyru","rank":4}},{"type":"Feature","geometry":{"type":"Point","coordinates":[28.58073,37.07548]},"properties":{"kind":"village","name":"Balcılar","rank":2}},{"type":"Feature","geometry":{"type":"Point","coordinates":[27.5952,36.97253]},"properties":{"kind":"island","name":"Orak Adası","rank":2}},{"type":"Feature","geometry":{"type":"Point","coordinates":[27.649,36.99716]},"properties":{"kind":"bay","name":"Kisebükü","rank":3}},{"type":"Feature","geometry":{"type":"Point","coordinates":[28.0381,36.56248]},"properties":{"kind":"islet","name":"Çatal Adaları","rank":4}},{"type":"Feature","geometry":{"type":"Point","coordinates":[28.04107,36.56711]},"properties":{"kind":"islet","name":"Çatal Adaları","rank":4}},{"type":"Feature","geometry":{"type":"Point","coordinates":[27.9971,36.61253]},"properties":{"kind":"islet","name":"İncirli Ada","rank":4}},{"type":"Feature","geometry":{"type":"Point","coordinates":[27.98878,36.7031]},"properties":{"kind":"islet","name":"Kargı Adası","rank":4}},{"type":"Feature","geometry":{"type":"Point","coordinates":[27.99657,36.70893]},"properties":{"kind":"islet","name":"Topan Adası","rank":4}},{"type":"Feature","geometry":{"type":"Point","coordinates":[28.03676,36.65969]},"properties":{"kind":"island","name":"Kızılada","rank":2}},{"type":"Feature","geometry":{"type":"Point","coordinates":[28.02648,36.61376]},"properties":{"kind":"islet","name":"Tüysüzce Adası","rank":4}},{"type":"Feature","geometry":{"type":"Point","coordinates":[28.05005,36.62113]},"properties":{"kind":"islet","name":"Suluca Adası","rank":4}},{"type":"Feature","geometry":{"type":"Point","coordinates":[28.05519,36.61613]},"properties":{"kind":"island","name":"Taşlıca Adası","rank":2}},{"type":"Feature","geometry":{"type":"Point","coordinates":[28.05254,36.6253]},"properties":{"kind":"island","name":"Değirmen Adası","rank":2}},{"type":"Feature","geometry":{"type":"Point","coordinates":[28.06173,36.64279]},"properties":{"kind":"island","name":"Söğüt Adası","rank":2}},{"type":"Feature","geometry":{"type":"Point","coordinates":[28.05445,36.64836]},"properties":{"kind":"island","name":"Zeytin Adası","rank":2}},{"type":"Feature","geometry":{"type":"Point","coordinates":[28.01288,36.66898]},"properties":{"kind":"island","name":"Tavşanbükü Adası","rank":2}},{"type":"Feature","geometry":{"type":"Point","coordinates":[28.04085,36.67111]},"properties":{"kind":"island","name":"Kiseli Adası","rank":2}},{"type":"Feature","geometry":{"type":"Point","coordinates":[28.04389,36.68301]},"properties":{"kind":"island","name":"Yeşil Adası","rank":2}},{"type":"Feature","geometry":{"type":"Point","coordinates":[28.00301,36.71658]},"properties":{"kind":"islet","name":"Uzun Ada","rank":4}},{"type":"Feature","geometry":{"type":"Point","coordinates":[28.02236,36.71935]},"properties":{"kind":"island","name":"Koca Ada","rank":2}},{"type":"Feature","geometry":{"type":"Point","coordinates":[27.69624,36.71828]},"properties":{"kind":"islet","name":"Topanca Adası","rank":4}},{"type":"Feature","geometry":{"type":"Point","coordinates":[27.71381,36.72573]},"properties":{"kind":"islet","name":"Uzunce Adası","rank":4}},{"type":"Feature","geometry":{"type":"Point","coordinates":[27.76178,36.75262]},"properties":{"kind":"islet","name":"Yassı Ada","rank":4}},{"type":"Feature","geometry":{"type":"Point","coordinates":[27.80612,36.7595]},"properties":{"kind":"islet","name":"Sarıliman Adası","rank":4}},{"type":"Feature","geometry":{"type":"Point","coordinates":[27.99103,36.79852]},"properties":{"kind":"bay","name":"Gerence (Armonika)","rank":3}},{"type":"Feature","geometry":{"type":"Point","coordinates":[28.05437,36.73028]},"properties":{"kind":"islet","name":"Kameriye Adası","rank":4}},{"type":"Feature","geometry":{"type":"Point","coordinates":[28.0351,36.76087]},"properties":{"kind":"islet","name":"Dişlice Adası","rank":4}},{"type":"Feature","geometry":{"type":"Point","coordinates":[28.05796,36.76075]},"properties":{"kind":"islet","name":"Tavşan Adası","rank":4}},{"type":"Feature","geometry":{"type":"Point","coordinates":[28.01381,36.79189]},"properties":{"kind":"bay","name":"Büyük Çatı","rank":3}},{"type":"Feature","geometry":{"type":"Point","coordinates":[28.02205,36.79056]},"properties":{"kind":"bay","name":"Küçük Çatı","rank":3}},{"type":"Feature","geometry":{"type":"Point","coordinates":[28.0533,36.83184]},"properties":{"kind":"bay","name":"Maden","rank":3}},{"type":"Feature","geometry":{"type":"Point","coordinates":[28.1257,36.59788]},"properties":{"kind":"island","name":"Kızılada","rank":2}},{"type":"Feature","geometry":{"type":"Point","coordinates":[28.14666,36.65123]},"properties":{"kind":"island","name":"Arap Adası","rank":2}},{"type":"Feature","geometry":{"type":"Point","coordinates":[28.24576,36.71342]},"properties":{"kind":"island","name":"Çiftlik Adası","rank":2}},{"type":"Feature","geometry":{"type":"Point","coordinates":[28.25368,36.80574]},"properties":{"kind":"island","name":"Keçi Adası","rank":2}},{"type":"Feature","geometry":{"type":"Point","coordinates":[28.25034,36.79932]},"properties":{"kind":"islet","name":"Karga Adası","rank":4}},{"type":"Feature","geometry":{"type":"Point","coordinates":[28.15918,36.923]},"properties":{"kind":"bay","name":"Hırsız","rank":3}},{"type":"Feature","geometry":{"type":"Point","coordinates":[28.15677,36.92276]},"properties":{"kind":"bay","name":"Çanak Koyu (İngiliz Limanı)","rank":3}},{"type":"Feature","geometry":{"type":"Point","coordinates":[28.44505,36.86367]},"properties":{"kind":"islet","name":"Horoz Adası","rank":4}},{"type":"Feature","geometry":{"type":"Point","coordinates":[27.73265,37.00063]},"properties":{"kind":"bay","name":"İnceyalı","rank":3}},{"type":"Feature","geometry":{"type":"Point","coordinates":[27.74696,36.99755]},"properties":{"kind":"bay","name":"Hurma","rank":3}},{"type":"Feature","geometry":{"type":"Point","coordinates":[27.75638,36.99939]},"properties":{"kind":"bay","name":"Ilgın","rank":3}},{"type":"Feature","geometry":{"type":"Point","coordinates":[28.09549,36.93476]},"properties":{"kind":"bay","name":"Löngöz","rank":3}},{"type":"Feature","geometry":{"type":"Point","coordinates":[28.13463,36.93079]},"properties":{"kind":"bay","name":"Çiçekli","rank":3}},{"type":"Feature","geometry":{"type":"Point","coordinates":[28.20517,36.99303]},"properties":{"kind":"islet","name":"Sedir Adası","rank":4}},{"type":"Feature","geometry":{"type":"Point","coordinates":[28.21294,36.97578]},"properties":{"kind":"bay","name":"Boncuk","rank":3}},{"type":"Feature","geometry":{"type":"Point","coordinates":[28.23994,37.00232]},"properties":{"kind":"islet","name":"Gelibolu Adası","rank":4}}]}