{"type":"FeatureCollection","features":[{"type":"Feature","geometry":{"type":"Point","coordinates":[27.97667,36.36475]},"properties":{"stype":"light_minor","colour":"red","light":"Fl R 3s 3M","osm":"node/1579306963","seamark:light:character":"Fl","seamark:light:colour":"red","seamark:light:height":"6","seamark:light:period":"3","seamark:light:range":"3","seamark:light:reference":"E 4741.6","seamark:light:sequence":"0.3+(2.7)","seamark:type":"light_minor"}},{"type":"Feature","geometry":{"type":"Point","coordinates":[27.97708,36.36535]},"properties":{"stype":"light_minor","name":"Fanai","colour":"green","light":"Fl G 3s 3M","osm":"node/1579306980","seamark:light:character":"Fl","seamark:light:colour":"green","seamark:light:height":"6","seamark:light:period":"3","seamark:light:range":"3","seamark:light:reference":"E 4741.5","seamark:light:sequence":"0.3+(2.7)","seamark:name":"Fanai","seamark:type":"light_minor"}},{"type":"Feature","geometry":{"type":"Point","coordinates":[28.23397,36.41971]},"properties":{"stype":"light_minor","colour":"red","light":"Fl R 3s 3M","osm":"node/1579304957","seamark:light:character":"Fl","seamark:light:colour":"red","seamark:light:height":"11","seamark:light:period":"3","seamark:light:range":"3","seamark:light:reference":"E 4751.7","seamark:type":"light_minor"}},{"type":"Feature","geometry":{"type":"Point","coordinates":[28.23397,36.41971]},"properties":{"stype":"light_minor","name":"Kanamati","colour":"green","light":"Fl G 3s 3M","osm":"node/1579304972","seamark:light:character":"Fl","seamark:light:colour":"green","seamark:light:height":"8","seamark:light:period":"3","seamark:light:range":"3","seamark:light:reference":"E 4751.5","seamark:light:sequence":"0.3+(2.7)","seamark:name":"Kanamati","seamark:type":"light_minor"}},{"type":"Feature","geometry":{"type":"Point","coordinates":[28.22586,36.45101]},"properties":{"stype":"light_minor","name":"Έλαφος","colour":"green","light":"F G 2M","osm":"node/1691633988","seamark:light:character":"F","seamark:light:colour":"green","seamark:light:height":"6","seamark:light:range":"2","seamark:light:reference":"N 4747","seamark:type":"light_minor"}},{"type":"Feature","geometry":{"type":"Point","coordinates":[28.22802,36.45117]},"properties":{"stype":"light_minor","name":"Limin Mandhraki","light":"F G 2M","osm":"node/872722213","seamark:light:1:character":"F","seamark:light:1:colour":"green","seamark:light:1:height":"6","seamark:light:1:range":"2","seamark:light:1:sector_end":"40","seamark:light:1:sector_start":"133","seamark:light:reference":"E 4747","seamark:name":"Limin Mandhraki","seamark:type":"light_minor"}},{"type":"Feature","geometry":{"type":"Point","coordinates":[28.22817,36.45]},"properties":{"stype":"light_minor","name":"Ayios Nikolaos","colour":"white","light":"Fl(2) W 12s 11M","osm":"node/1579306881","seamark:light:character":"Fl","seamark:light:colour":"white","seamark:light:group":"2","seamark:light:height":"24","seamark:light:period":"12","seamark:light:range":"11","seamark:light:reference":"E 4744","seamark:light:sequence":"1.2+(3)+1.2+(6.6)","seamark:name":"Ayios Nikolaos","seamark:type":"light_minor"}},{"type":"Feature","geometry":{"type":"Point","coordinates":[28.22705,36.45285]},"properties":{"stype":"light_minor","name":"Akra Aoimbakadhartiriou","light":"Fl G 3s 3M","osm":"node/1579306960","seamark:light:1:character":"Fl","seamark:light:1:colour":"green","seamark:light:1:height":"8","seamark:light:1:period":"3","seamark:light:1:range":"3","seamark:light:1:sector_end":"111","seamark:light:1:sector_start":"206","seamark:light:1:sequence":"0.3+(2.7)","seamark:light:2:character":"Fl","seamark:light:2:colour":"red","seamark:light:2:height":"8","seamark:light:2:period":"3","seamark:light:2:range":"3","seamark:light:2:sector_end":"206","seamark:light:2:sector_start":"111","seamark:light:2:sequence":"0.3+(2.7)","seamark:light:reference":"E 4745","seamark:name":"Akra Aoimbakadhartiriou","seamark:type":"light_minor"}},{"type":"Feature","geometry":{"type":"Point","coordinates":[28.22653,36.45114]},"properties":{"stype":"light_minor","name":"Ελαφίνα","colour":"red","light":"F R 2M","osm":"node/1691633985","seamark:light:character":"F","seamark:light:colour":"red","seamark:light:height":"6","seamark:light:range":"2","seamark:light:reference":"N 4746","seamark:type":"light_minor"}},{"type":"Feature","geometry":{"type":"Point","coordinates":[28.23713,36.44882]},"properties":{"stype":"light_minor","name":"Akantia","colour":"red","light":"Fl R 5s 3M","osm":"node/1579305480","seamark:light:character":"Fl","seamark:light:colour":"red","seamark:light:height":"6","seamark:light:period":"5","seamark:light:range":"3","seamark:light:reference":"N 4752","seamark:light:sequence":"0.8+(4.2)","seamark:name":"Akantia","seamark:type":"light_minor"}},{"type":"Feature","geometry":{"type":"Point","coordinates":[28.2208,36.45767]},"properties":{"stype":"light_minor","light":"F R 2M","osm":"node/793101252","seamark:light:1:character":"F","seamark:light:1:colour":"red","seamark:light:1:height":"6","seamark:light:1:range":"2","seamark:light:1:sector_end":"244","seamark:light:1:sector_start":"335","seamark:light:reference":"E 4746","seamark:type":"light_minor"}},{"type":"Feature","geometry":{"type":"Point","coordinates":[28.22073,36.45723]},"properties":{"stype":"light_minor","name":"Akra Milon","light":"Fl W 4s 6M","osm":"node/1579306961","seamark:light:1:character":"Fl","seamark:light:1:colour":"white","seamark:light:1:height":"10","seamark:light:1:period":"4","seamark:light:1:range":"6","seamark:light:1:sector_end":"286","seamark:light:1:sector_start":"37","seamark:light:1:sequence":"0.4+(3.6)","seamark:light:2:character":"Fl","seamark:light:2:colour":"red","seamark:light:2:height":"10","seamark:light:2:period":"4","seamark:light:2:range":"4","seamark:light:2:sector_end":"314","seamark:light:2:sector_start":"286","seamark:light:2:sequence":"0.4+(3.6)","seamark:light:reference":"E 4743","seamark:name":"Akra Milon","seamark:type":"light_minor"}},{"type":"Feature","geometry":{"type":"Point","coordinates":[27.67878,36.65813]},"properties":{"stype":"light_minor","name":"Ince Burun","colour":"white","light":"Fl(3) W 15s 8M","osm":"node/4534491898","seamark:light:character":"Fl","seamark:light:colour":"white","seamark:light:group":"3","seamark:light:height":"14","seamark:light:period":"15","seamark:light:range":"8","seamark:light:reference":"E 4732.5","seamark:light:sequence":"0.5+(2)+0.5+(2)+0.5+(9.5)","seamark:name":"Ince Burun","seamark:type":"light_minor"}},{"type":"Feature","geometry":{"type":"Point","coordinates":[27.64082,36.8103]},"properties":{"stype":"light_minor","name":"Ince Burnu","colour":"white","light":"Fl(2) W 5s 7M","osm":"node/1579311469","seamark:light:character":"Fl","seamark:light:colour":"white","seamark:light:group":"2","seamark:light:height":"56","seamark:light:period":"5","seamark:light:range":"7","seamark:light:reference":"E 4731.7","seamark:name":"Ince Burnu","seamark:type":"light_minor"}},{"type":"Feature","geometry":{"type":"Point","coordinates":[27.60067,36.96791]},"properties":{"stype":"light_minor","name":"Orak Adasi","colour":"white","light":"Fl W 10s 7M","osm":"node/1579311475","seamark:light:character":"Fl","seamark:light:colour":"white","seamark:light:height":"17","seamark:light:period":"10","seamark:light:range":"7","seamark:light:sequence":"1+(9)","seamark:name":"Orak Adasi","seamark:type":"light_minor"}},{"type":"Feature","geometry":{"type":"Point","coordinates":[27.74623,36.56108]},"properties":{"stype":"light_minor","name":"Marmara","light":"Fl W 3s 6M","osm":"node/1579301712","seamark:light:1:character":"Fl","seamark:light:1:colour":"white","seamark:light:1:height":"38","seamark:light:1:period":"3","seamark:light:1:range":"6","seamark:light:1:sector_end":"168","seamark:light:1:sector_start":"218","seamark:light:1:sequence":"0.3+(2.7)","seamark:light:reference":"E 4736","seamark:name":"Marmara","seamark:type":"light_minor"}},{"type":"Feature","geometry":{"type":"Point","coordinates":[27.86912,36.5146]},"properties":{"stype":"light_major","name":"Nisis Koulohdros","light":"Fl(3) W 15s 15M","osm":"node/1579301734","seamark:light:1:character":"Fl","seamark:light:1:colour":"white","seamark:light:1:group":"3","seamark:light:1:height":"30","seamark:light:1:period":"15","seamark:light:1:range":"15","seamark:light:1:sector_end":"102","seamark:light:1:sector_start":"218","seamark:light:1:sequence":"0.7+(2.4),0.7+(2.4),0.7+(8.1)","seamark:light:reference":"E 4735.5","seamark:name":"Nisis Koulohdros","seamark:type":"light_major"}},{"type":"Feature","geometry":{"type":"Point","coordinates":[27.84328,36.55202]},"properties":{"stype":"light_minor","name":"Limin Panormitou","light":"Fl R 2s 3M","osm":"node/1579301773","seamark:light:1:character":"Fl","seamark:light:1:colour":"red","seamark:light:1:height":"14","seamark:light:1:period":"2","seamark:light:1:range":"3","seamark:light:1:sector_end":"173","seamark:light:1:sector_start":"308","seamark:light:1:sequence":"0.2+(1.8)","seamark:light:reference":"E 4735.2","seamark:name":"Limin Panormitou","seamark:type":"light_minor"}},{"type":"Feature","geometry":{"type":"Point","coordinates":[27.81992,36.65572]},"properties":{"stype":"light_minor","name":"Vrakhonisis Khondros","colour":"white","light":"Fl W 3s 5M","osm":"node/1579301907","seamark:light:character":"Fl","seamark:light:colour":"white","seamark:light:height":"25","seamark:light:period":"3","seamark:light:range":"5","seamark:light:reference":"E 4734","seamark:light:sequence":"0.3+(2.7)","seamark:name":"Vrakhonisis Khondros","seamark:type":"light_minor"}},{"type":"Feature","geometry":{"type":"Point","coordinates":[27.8785,36.61738]},"properties":{"stype":"light_minor","name":"Akra Pedhi","colour":"white","light":"Fl W 6s 4M","osm":"node/1579301905","seamark:light:character":"Fl","seamark:light:colour":"white","seamark:light:height":"20","seamark:light:period":"6","seamark:light:range":"4","seamark:light:reference":"E 4735.1","seamark:light:sequence":"0.4+(5.6)","seamark:name":"Akra Pedhi","seamark:type":"light_minor"}},{"type":"Feature","geometry":{"type":"Point","coordinates":[27.8725,36.63138]},"properties":{"stype":"light_minor","name":"Akra Koutsoumba","light":"Fl W 3s 5M","osm":"node/1579301867","seamark:light:1:character":"Fl","seamark:light:1:colour":"white","seamark:light:1:height":"21","seamark:light:1:period":"3","seamark:light:1:range":"5","seamark:light:1:sector_end":"338","seamark:light:1:sector_start":"69","seamark:light:1:sequence":"0.5+(2.5)","seamark:light:reference":"E 4735","seamark:name":"Akra Koutsoumba","seamark:type":"light_minor"}},{"type":"Feature","geometry":{"type":"Point","coordinates":[27.85932,36.66727]},"properties":{"stype":"light_minor","name":"Akra Makria","colour":"white","light":"Fl W 4s 6M","osm":"node/1579301906","seamark:light:character":"Fl","seamark:light:colour":"white","seamark:light:height":"16","seamark:light:period":"4","seamark:light:range":"6","seamark:light:reference":"E 4734.2","seamark:light:sequence":"0.5+(3.5)","seamark:name":"Akra Makria","seamark:type":"light_minor"}},{"type":"Feature","geometry":{"type":"Point","coordinates":[27.9791,36.55417]},"properties":{"stype":"light_minor","name":"Karaburun","colour":"white","light":"Fl(2) W 10s 10M","osm":"node/1579301709","seamark:light:character":"Fl","seamark:light:colour":"white","seamark:light:group":"2","seamark:light:height":"36","seamark:light:period":"10","seamark:light:range":"10","seamark:light:reference":"E 4737","seamark:light:sequence":"0.5+(2)+0.5+(7)","seamark:name":"Karaburun","seamark:type":"light_minor"}},{"type":"Feature","geometry":{"type":"Point","coordinates":[28.01224,36.57434]},"properties":{"stype":"anchorage","osm":"node/7540368946","seamark:type":"anchorage"}},{"type":"Feature","geometry":{"type":"Point","coordinates":[28.04636,36.5765]},"properties":{"stype":"anchorage","osm":"node/11054570662","seamark:type":"anchorage"}},{"type":"Feature","geometry":{"type":"Point","coordinates":[28.0486,36.58387]},"properties":{"stype":"anchorage","category":"small_craft_mooring","osm":"node/7540369019","seamark:anchorage:category":"small_craft_mooring","seamark:type":"anchorage"}},{"type":"Feature","geometry":{"type":"Point","coordinates":[28.04655,36.58065]},"properties":{"stype":"anchorage","osm":"node/11054570663","seamark:type":"anchorage"}},{"type":"Feature","geometry":{"type":"Point","coordinates":[27.95827,36.67176]},"properties":{"stype":"buoy_isolated_danger","name":"Atabol","colour":"black","shape":"spar","osm":"node/1398648014","seamark:buoy_isolated_danger:colour":"black;red;black","seamark:buoy_isolated_danger:shape":"spar","seamark:name":"Atabol","seamark:topmark:colour":"black","seamark:topmark:shape":"2 spheres","seamark:type":"buoy_isolated_danger"}},{"type":"Feature","geometry":{"type":"Point","coordinates":[27.95844,36.67104]},"properties":{"stype":"buoy_isolated_danger","colour":"black","shape":"pillar","light":"Fl(2) W 5s 6M","osm":"node/1579301710","seamark:buoy_isolated_danger:colour":"black;red;black","seamark:buoy_isolated_danger:colour_pattern":"horizontal","seamark:buoy_isolated_danger:shape":"pillar","seamark:light:character":"Fl","seamark:light:colour":"white","seamark:light:group":"2","seamark:light:height":"5","seamark:light:period":"5","seamark:light:range":"6","seamark:light:reference":"E 4733.4","seamark:topmark:colour":"black","seamark:topmark:shape":"2 spheres","seamark:type":"buoy_isolated_danger"}},{"type":"Feature","geometry":{"type":"Point","coordinates":[27.71384,36.72571]},"properties":{"stype":"light_minor","name":"Uzunca Adasi","colour":"white","light":"Fl W 3s 3M","osm":"node/1579301908","seamark:light:character":"Fl","seamark:light:colour":"white","seamark:light:height":"10","seamark:light:period":"3","seamark:light:range":"3","seamark:light:reference":"E 4733","seamark:light:sequence":"0.3+(2.7)","seamark:name":"Uzunca Adasi","seamark:type":"light_minor"}},{"type":"Feature","geometry":{"type":"Point","coordinates":[28.04897,36.75575]},"properties":{"stype":"buoy_isolated_danger","osm":"node/1424956412","seamark:type":"buoy_isolated_danger"}},{"type":"Feature","geometry":{"type":"Point","coordinates":[28.00353,36.83583]},"properties":{"stype":"light_minor","name":"Mersincik Burnu","light":"Fl W 3s 7M","osm":"node/1579311470","seamark:light:1:character":"Fl","seamark:light:1:colour":"white","seamark:light:1:height":"30","seamark:light:1:period":"3","seamark:light:1:range":"7","seamark:light:1:sector_end":"154","seamark:light:1:sector_start":"270","seamark:light:1:sequence":"0.3+(2.7)","seamark:light:2:character":"Fl","seamark:light:2:colour":"red","seamark:light:2:height":"30","seamark:light:2:period":"3","seamark:light:2:range":"5","seamark:light:2:sector_end":"270","seamark:light:2:sector_start":"154","seamark:light:2:sequence":"0.3+(2.7)","seamark:name":"Mersincik Burnu","seamark:type":"light_minor"}},{"type":"Feature","geometry":{"type":"Point","coordinates":[28.0214,36.92505]},"properties":{"stype":"light_minor","name":"Koyun Burnu","colour":"white","light":"Fl(3) W 10s 7M","osm":"node/1579311472","seamark:light:character":"Fl","seamark:light:colour":"white","seamark:light:group":"3","seamark:light:height":"13","seamark:light:period":"10","seamark:light:range":"7","seamark:light:reference":"E 4731.6","seamark:light:sequence":"0.5+(1.5)+0.5+(1.5)+0.5+(5.5)","seamark:name":"Koyun Burnu","seamark:type":"light_minor"}},{"type":"Feature","geometry":{"type":"Point","coordinates":[28.12566,36.76992]},"properties":{"stype":"buoy_lateral","name":"Правый огонь","category":"starboard","colour":"green","shape":"pillar","osm":"node/1417100370","seamark:buoy_lateral:category":"starboard","seamark:buoy_lateral:colour":"green","seamark:buoy_lateral:shape":"pillar","seamark:light:colour":"green","seamark:name":"Правый огонь","seamark:type":"buoy_lateral"}},{"type":"Feature","geometry":{"type":"Point","coordinates":[28.12471,36.77008]},"properties":{"stype":"beacon_lateral","name":"Левый огонь","category":"port","colour":"red","osm":"node/1417104028","seamark:beacon_lateral:category":"port","seamark:beacon_lateral:colour":"red","seamark:beacon_lateral:system":"iala-a","seamark:light:colour":"red","seamark:name":"Левый огонь","seamark:type":"beacon_lateral"}},{"type":"Feature","geometry":{"type":"Point","coordinates":[28.3027,36.73042]},"properties":{"stype":"light_minor","name":"Kadirga Burnu","colour":"white","light":"Fl(3) W 15s 12M","osm":"node/1579301708","seamark:light:character":"Fl","seamark:light:colour":"white","seamark:light:group":"3","seamark:light:height":"39","seamark:light:period":"15","seamark:light:range":"12","seamark:light:reference":"E 5836","seamark:light:sequence":"0.5+(1.5)+0.5+(1.5)+0.5+(10.5)","seamark:name":"Kadirga Burnu","seamark:type":"light_minor"}},{"type":"Feature","geometry":{"type":"Point","coordinates":[28.2736,36.76408]},"properties":{"stype":"beacon_isolated_danger","name":"Kargatasi Adasi","colour":"white","shape":"tower","light":"Fl(2) W 5s 2M","osm":"node/1579301707","seamark:beacon_isolated_danger:colour":"black;red;black","seamark:beacon_isolated_danger:colour_pattern":"horizontal","seamark:beacon_isolated_danger:shape":"tower","seamark:light:character":"Fl","seamark:light:colour":"white","seamark:light:group":"2","seamark:light:height":"20","seamark:light:period":"5","seamark:light:range":"2","seamark:light:sequence":"0.5+(1)+0.5+(3)","seamark:name":"Kargatasi Adasi","seamark:type":"beacon_isolated_danger"}},{"type":"Feature","geometry":{"type":"Point","coordinates":[28.23934,36.8023]},"properties":{"stype":"light_minor","name":"Icmeler.","colour":"yellow","light":"Fl Y 5s 3M","osm":"node/1579301643","seamark:light:character":"Fl","seamark:light:colour":"yellow","seamark:light:height":"8","seamark:light:period":"5","seamark:light:range":"3","seamark:name":"Icmeler.","seamark:type":"light_minor"}},{"type":"Feature","geometry":{"type":"Point","coordinates":[28.25943,36.79824]},"properties":{"stype":"light_minor","name":"Kec Adasi","colour":"red","light":"Fl R 2s 7M","osm":"node/1579301700","seamark:light:character":"Fl","seamark:light:colour":"red","seamark:light:height":"30","seamark:light:period":"2","seamark:light:range":"7","seamark:light:reference":"E 5838","seamark:light:sequence":"0.2+(1.8)","seamark:name":"Kec Adasi","seamark:type":"light_minor"}},{"type":"Feature","geometry":{"type":"Point","coordinates":[28.26593,36.81392]},"properties":{"stype":"landmark","category":"tower","colour":"white","light":"Fl W 3s 5M","osm":"node/1579301630","seamark:landmark:category":"tower","seamark:landmark:colour":"white;white","seamark:landmark:colour_pattern":"vertical","seamark:light:character":"Fl","seamark:light:colour":"white","seamark:light:height":"9","seamark:light:period":"3","seamark:light:range":"5","seamark:light:reference":"E 5838.2","seamark:light:sequence":"0.3+(2.7)","seamark:type":"landmark"}},{"type":"Feature","geometry":{"type":"Point","coordinates":[28.31022,36.82108]},"properties":{"stype":"light_minor","name":"Karayar","colour":"green","light":"Fl G","osm":"node/1579301370","seamark:light:character":"Fl","seamark:light:colour":"green","seamark:name":"Karayar","seamark:type":"light_minor"}},{"type":"Feature","geometry":{"type":"Point","coordinates":[28.2824,36.84734]},"properties":{"stype":"light_minor","colour":"red","light":"Fl R","osm":"node/1579301494","seamark:light:character":"Fl","seamark:light:colour":"red","seamark:type":"light_minor"}},{"type":"Feature","geometry":{"type":"Point","coordinates":[28.28568,36.84416]},"properties":{"stype":"light_minor","colour":"red","light":"Fl(2) R","osm":"node/1579301409","seamark:light:character":"Fl","seamark:light:colour":"red","seamark:light:group":"2","seamark:type":"light_minor"}},{"type":"Feature","geometry":{"type":"Point","coordinates":[28.28541,36.844]},"properties":{"stype":"light_minor","name":"Delihurma","colour":"green","light":"Fl(2) G","osm":"node/1579301444","seamark:light:character":"Fl","seamark:light:colour":"green","seamark:light:group":"2","seamark:name":"Delihurma","seamark:type":"light_minor"}},{"type":"Feature","geometry":{"type":"Point","coordinates":[28.2679,36.84997]},"properties":{"stype":"anchorage","osm":"node/7540526986","seamark:type":"anchorage"}},{"type":"Feature","geometry":{"type":"Point","coordinates":[28.27843,36.85126]},"properties":{"stype":"light_minor","colour":"red","light":"Fl(2) R 6s 5M","osm":"node/1579301572","seamark:light:character":"Fl","seamark:light:colour":"red","seamark:light:group":"2","seamark:light:height":"8","seamark:light:period":"6","seamark:light:range":"5","seamark:light:reference":"E 5838.35","seamark:type":"light_minor"}},{"type":"Feature","geometry":{"type":"Point","coordinates":[28.2773,36.85072]},"properties":{"stype":"light_minor","colour":"green","light":"Fl G 3M","osm":"node/1579301629","seamark:light:character":"Fl","seamark:light:colour":"green","seamark:light:range":"3","seamark:light:reference":"E 5838.3","seamark:type":"light_minor"}},{"type":"Feature","geometry":{"type":"Point","coordinates":[28.43867,36.77271]},"properties":{"stype":"light_minor","name":"Yilancik Adasi","light":"Fl W 5s 10M","osm":"node/1579301355","seamark:light:1:character":"Fl","seamark:light:1:colour":"white","seamark:light:1:height":"102","seamark:light:1:period":"5","seamark:light:1:range":"10","seamark:light:1:sector_end":"86","seamark:light:1:sector_start":"98","seamark:light:1:sequence":"0.5+(4.5)","seamark:light:2:character":"Fl","seamark:light:2:colour":"red","seamark:light:2:height":"102","seamark:light:2:period":"5","seamark:light:2:range":"7","seamark:light:2:sector_end":"98","seamark:light:2:sector_start":"86","seamark:light:2:sequence":"0.5+(4.5)","seamark:light:reference":"E 5838.4","seamark:name":"Yilancik Adasi","seamark:type":"light_minor"}},{"type":"Feature","geometry":{"type":"Point","coordinates":[28.38583,36.84173]},"properties":{"stype":"light_minor","name":"Aksaz","colour":"red","light":"Fl R 5s 3M","osm":"node/1579301286","seamark:light:character":"Fl","seamark:light:colour":"red","seamark:light:height":"25","seamark:light:period":"5","seamark:light:range":"3","seamark:light:reference":"E 5838.65","seamark:light:sequence":"0.5+(4.5)","seamark:name":"Aksaz","seamark:type":"light_minor"}},{"type":"Feature","geometry":{"type":"Point","coordinates":[28.39508,36.85322]},"properties":{"stype":"light_minor","name":"Canakci","colour":"red","light":"Fl(2) R 5s 5M","osm":"node/1579301242","seamark:light:character":"Fl","seamark:light:colour":"red","seamark:light:group":"2","seamark:light:height":"10","seamark:light:period":"5","seamark:light:range":"5","seamark:light:reference":"E 5838.67","seamark:light:sequence":"0.5+(1)+0.5+(3)","seamark:name":"Canakci","seamark:type":"light_minor"}},{"type":"Feature","geometry":{"type":"Point","coordinates":[28.40858,36.85507]},"properties":{"stype":"light_minor","name":"Akburun","colour":"green","light":"Fl(2) G 5s 5M","osm":"node/1579301241","seamark:light:character":"Fl","seamark:light:colour":"green","seamark:light:group":"2","seamark:light:height":"10","seamark:light:period":"5","seamark:light:range":"5","seamark:light:reference":"E 5838.68","seamark:light:sequence":"0.5+(1)+0.5+(3)","seamark:name":"Akburun","seamark:type":"light_minor"}},{"type":"Feature","geometry":{"type":"Point","coordinates":[28.42317,36.82933]},"properties":{"stype":"light_minor","name":"Delikkaya Burnu","colour":"red","light":"Fl R 3s 8M","osm":"node/1579301342","seamark:light:character":"Fl","seamark:light:colour":"red","seamark:light:height":"100","seamark:light:period":"3","seamark:light:range":"8","seamark:light:reference":"E 5838.5","seamark:light:sequence":"0.5+(2.5)","seamark:name":"Delikkaya Burnu","seamark:type":"light_minor"}},{"type":"Feature","geometry":{"type":"Point","coordinates":[28.45087,36.83681]},"properties":{"stype":"light_minor","name":"Bugluca","colour":"green","light":"Fl G 3s 6M","osm":"node/1579301316","seamark:light:character":"Fl","seamark:light:colour":"green","seamark:light:height":"67","seamark:light:period":"3","seamark:light:range":"6","seamark:light:reference":"E 5838.6","seamark:light:sequence":"0.5+(2.5)","seamark:name":"Bugluca","seamark:type":"light_minor"}},{"type":"Feature","geometry":{"type":"Point","coordinates":[28.4325,36.86005]},"properties":{"stype":"light_minor","name":"Kargili Burnu","colour":"white","light":"Q W 10M","osm":"node/1579301240","seamark:light:character":"Q","seamark:light:colour":"white","seamark:light:height":"60","seamark:light:range":"10","seamark:light:reference":"E 5838.7","seamark:name":"Kargili Burnu","seamark:type":"light_minor"}},{"type":"Feature","geometry":{"type":"Point","coordinates":[27.96798,37.0217]},"properties":{"stype":"light_minor","name":"Sanacak Burnu","colour":"white","light":"Fl W 3s 8M","osm":"node/1579311473","seamark:light:character":"Fl","seamark:light:colour":"white","seamark:light:height":"6","seamark:light:period":"3","seamark:light:range":"8","seamark:light:reference":"E 4731","seamark:light:sequence":"0.3+(2.7)","seamark:name":"Sanacak Burnu","seamark:type":"light_minor"}},{"type":"Feature","geometry":{"type":"Point","coordinates":[28.15512,36.94285]},"properties":{"stype":"light_minor","name":"Kara Adasi","colour":"white","light":"Fl W 6s 10M","osm":"node/1579311471","seamark:light:character":"Fl","seamark:light:colour":"white","seamark:light:height":"31","seamark:light:period":"6","seamark:light:range":"10","seamark:light:reference":"E 4731.5","seamark:light:sequence":"1+(5)","seamark:name":"Kara Adasi","seamark:type":"light_minor"}},{"type":"Feature","geometry":{"type":"Point","coordinates":[28.20553,36.99888]},"properties":{"stype":"light_minor","name":"Sehir Adalari","light":"Fl R 10s 6M","osm":"node/1579311474","seamark:light:1:character":"Fl","seamark:light:1:colour":"red","seamark:light:1:height":"15","seamark:light:1:period":"10","seamark:light:1:range":"6","seamark:light:1:sector_end":"56","seamark:light:1:sector_start":"24","seamark:light:1:sequence":"0.5+(9.5)","seamark:light:2:character":"Fl","seamark:light:2:colour":"white","seamark:light:2:height":"15","seamark:light:2:period":"10","seamark:light:2:range":"9","seamark:light:2:sector_end":"24","seamark:light:2:sector_start":"56","seamark:light:2:sequence":"0.5+(9.5)","seamark:light:reference":"E 4731.4","seamark:name":"Sehir Adalari","seamark:type":"light_minor"}},{"type":"Feature","geometry":{"type":"Point","coordinates":[28.59702,36.79619]},"properties":{"stype":"light_minor","name":"Dalyan","colour":"white","light":"Fl(2) W 5s 8M","osm":"node/1579301234","seamark:light:character":"Fl","seamark:light:colour":"white","seamark:light:group":"2","seamark:light:height":"35","seamark:light:period":"5","seamark:light:range":"8","seamark:light:reference":"E 5839","seamark:light:sequence":"0.3+(1)+0.3+(3.4)","seamark:name":"Dalyan","seamark:type":"light_minor"}},{"type":"Feature","geometry":{"type":"Point","coordinates":[28.54942,36.8224]},"properties":{"stype":"light_minor","name":"Karacay","colour":"white","light":"Fl W 5s 5M","osm":"node/1579301237","seamark:light:character":"Fl","seamark:light:colour":"white","seamark:light:height":"40","seamark:light:period":"5","seamark:light:range":"5","seamark:light:reference":"E 5839.4","seamark:light:sequence":"0.5+(4.5)","seamark:name":"Karacay","seamark:type":"light_minor"}}]}