{"type":"FeatureCollection","features":[{"type":"Feature","geometry":{"type":"Polygon","coordinates":[[[28.21416,36.35872],[28.21441,36.35861],[28.21444,36.35866],[28.2142,36.35878],[28.21416,36.35872]]]},"properties":{"kind":"pier"}},{"type":"Feature","geometry":{"type":"Polygon","coordinates":[[[28.21571,36.36062],[28.2159,36.36051],[28.21594,36.36054],[28.21574,36.36066],[28.21571,36.36062]]]},"properties":{"kind":"pier"}},{"type":"Feature","geometry":{"type":"LineString","coordinates":[[28.20999,36.36389],[28.20992,36.36394]]},"properties":{"kind":"pier"}},{"type":"Feature","geometry":{"type":"Polygon","coordinates":[[[28.21959,36.36402],[28.2198,36.36389],[28.21977,36.36385],[28.21954,36.364],[28.21959,36.36402]]]},"properties":{"kind":"pier"}},{"type":"Feature","geometry":{"type":"LineString","coordinates":[[28.23828,36.37881],[28.23835,36.37877]]},"properties":{"kind":"pier"}},{"type":"Feature","geometry":{"type":"Polygon","coordinates":[[[28.23242,36.41433],[28.23221,36.41431],[28.23205,36.41428],[28.23205,36.41435],[28.23233,36.41444],[28.2329,36.41457],[28.23303,36.41471],[28.23313,36.41485],[28.23319,36.41501],[28.23318,36.41617],[28.23349,36.41637],[28.23395,36.41676],[28.23399,36.41686],[28.23398,36.41805],[28.23382,36.41805],[28.23384,36.4181],[28.23384,36.41973],[28.23394,36.41982],[28.23404,36.41979],[28.23409,36.4197],[28.23409,36.41865],[28.23417,36.41697],[28.23413,36.41686],[28.23411,36.41678],[28.23403,36.41669],[28.2334,36.41617],[28.23334,36.4161],[28.23333,36.41595],[28.23332,36.41508],[28.23328,36.41487],[28.23322,36.41473],[28.23312,36.4146],[28.23301,36.4145],[28.23281,36.41443],[28.23242,36.41433]]]},"properties":{"kind":"breakwater"}},{"type":"Feature","geometry":{"type":"Polygon","coordinates":[[[28.21554,36.44995],[28.21538,36.45004],[28.21515,36.45018],[28.2152,36.45023],[28.21543,36.45009],[28.21558,36.45],[28.21557,36.44999],[28.21554,36.44995]]]},"properties":{"kind":"pier"}},{"type":"Feature","geometry":{"type":"Polygon","coordinates":[[[28.21856,36.45394],[28.21854,36.45391],[28.2184,36.45398],[28.21834,36.45401],[28.21832,36.45402],[28.21834,36.45405],[28.21843,36.454],[28.21856,36.45394]]]},"properties":{"kind":"pier"}},{"type":"Feature","geometry":{"type":"LineString","coordinates":[[28.22842,36.44619],[28.22837,36.44626]]},"properties":{"kind":"pier"}},{"type":"Feature","geometry":{"type":"Polygon","coordinates":[[[28.23269,36.44715],[28.23212,36.4477],[28.23199,36.44758],[28.23201,36.445],[28.23204,36.44442],[28.23146,36.44441],[28.23126,36.4442],[28.23119,36.44396],[28.23126,36.44395],[28.23132,36.44394],[28.23146,36.44407],[28.23151,36.4441],[28.23203,36.44415],[28.23206,36.44418],[28.23212,36.44419],[28.23218,36.44419],[28.23222,36.44416],[28.23223,36.44416],[28.23276,36.44423],[28.23284,36.44426],[28.23294,36.44418],[28.233,36.44412],[28.23303,36.44401],[28.233,36.44341],[28.23305,36.44336],[28.2331,36.44332],[28.23318,36.44339],[28.23341,36.44343],[28.23346,36.44341],[28.23359,36.44342],[28.23324,36.44684],[28.23269,36.44715]]]},"properties":{"kind":"pier"}},{"type":"Feature","geometry":{"type":"LineString","coordinates":[[28.22522,36.45029],[28.22528,36.45029]]},"properties":{"kind":"pier"}},{"type":"Feature","geometry":{"type":"Polygon","coordinates":[[[28.2258,36.44873],[28.22576,36.44883],[28.22575,36.44888],[28.22571,36.44899],[28.22588,36.44903],[28.22592,36.4489],[28.22597,36.44877],[28.2258,36.44873]]]},"properties":{"kind":"pier"}},{"type":"Feature","geometry":{"type":"Polygon","coordinates":[[[28.22553,36.44969],[28.2255,36.44979],[28.22548,36.44986],[28.22545,36.44997],[28.22571,36.45001],[28.22579,36.44973],[28.22553,36.44969]]]},"properties":{"kind":"pier"}},{"type":"Feature","geometry":{"type":"LineString","coordinates":[[28.22688,36.45326],[28.22711,36.45388]]},"properties":{"kind":"breakwater"}},{"type":"Feature","geometry":{"type":"Polygon","coordinates":[[[28.22753,36.448],[28.22749,36.44802],[28.22747,36.44799],[28.22728,36.44808],[28.22737,36.44819],[28.22755,36.44809],[28.22752,36.44805],[28.22755,36.44803],[28.22754,36.44802],[28.22753,36.448]]]},"properties":{"kind":"pier"}},{"type":"Feature","geometry":{"type":"LineString","coordinates":[[28.2391,36.43298],[28.2391,36.43347]]},"properties":{"kind":"pier","name":"H"}},{"type":"Feature","geometry":{"type":"LineString","coordinates":[[28.23916,36.43413],[28.23915,36.43352]]},"properties":{"kind":"pier","name":"F"}},{"type":"Feature","geometry":{"type":"Polygon","coordinates":[[[28.2385,36.43256],[28.23924,36.43256],[28.23924,36.43243],[28.23928,36.43243],[28.23928,36.43271],[28.23924,36.43271],[28.23924,36.43259],[28.2385,36.4326],[28.2385,36.43256]]]},"properties":{"kind":"pier","name":"I"}},{"type":"Feature","geometry":{"type":"LineString","coordinates":[[28.23968,36.43298],[28.23968,36.43347]]},"properties":{"kind":"pier","name":"G"}},{"type":"Feature","geometry":{"type":"LineString","coordinates":[[28.23965,36.43412],[28.23965,36.43352]]},"properties":{"kind":"pier","name":"E"}},{"type":"Feature","geometry":{"type":"LineString","coordinates":[[28.23915,36.43437],[28.23916,36.43503]]},"properties":{"kind":"pier","name":"D"}},{"type":"Feature","geometry":{"type":"LineString","coordinates":[[28.23966,36.43438],[28.23966,36.43502]]},"properties":{"kind":"pier","name":"C"}},{"type":"Feature","geometry":{"type":"Polygon","coordinates":[[[28.23999,36.43762],[28.23994,36.4376],[28.24002,36.43755],[28.24036,36.43745],[28.24045,36.43734],[28.24056,36.43734],[28.24056,36.43738],[28.24068,36.43738],[28.24068,36.43735],[28.24067,36.43634],[28.24073,36.43623],[28.24072,36.43608],[28.24067,36.43598],[28.24067,36.43463],[28.24066,36.43271],[28.23937,36.43116],[28.23837,36.42997],[28.23839,36.42974],[28.23839,36.42967],[28.23849,36.42963],[28.23853,36.42985],[28.23898,36.4304],[28.23932,36.43083],[28.2401,36.43173],[28.24084,36.43264],[28.24089,36.43282],[28.24089,36.43415],[28.24089,36.43556],[28.24098,36.43608],[28.24087,36.43748],[28.24081,36.43752],[28.2405,36.43753],[28.23999,36.43762]]]},"properties":{"kind":"breakwater"}},{"type":"Feature","geometry":{"type":"Polygon","coordinates":[[[28.23888,36.44747],[28.23898,36.44734],[28.23903,36.44722],[28.23903,36.44715],[28.23899,36.44704],[28.23896,36.447],[28.23894,36.44695],[28.23896,36.44463],[28.23903,36.4446],[28.23909,36.44242],[28.23915,36.44025],[28.23918,36.43984],[28.23918,36.43951],[28.23921,36.43947],[28.23929,36.43944],[28.23936,36.43941],[28.23939,36.43939],[28.23939,36.43936],[28.23936,36.43936],[28.23925,36.43939],[28.23918,36.43942],[28.23908,36.43938],[28.23898,36.43936],[28.23875,36.43944],[28.23867,36.43941],[28.23851,36.43953],[28.23894,36.43953],[28.23892,36.4405],[28.2389,36.44184],[28.23888,36.44315],[28.23886,36.44441],[28.23884,36.44623],[28.23883,36.44709],[28.23893,36.4471],[28.23893,36.4472],[28.23888,36.4472],[28.23888,36.44747]]]},"properties":{"kind":"breakwater"}},{"type":"Feature","geometry":{"type":"LineString","coordinates":[[28.23916,36.43569],[28.23917,36.43507]]},"properties":{"kind":"pier","name":"B"}},{"type":"Feature","geometry":{"type":"LineString","coordinates":[[28.23966,36.43569],[28.23966,36.43507]]},"properties":{"kind":"pier","name":"A"}},{"type":"Feature","geometry":{"type":"LineString","coordinates":[[28.23339,36.44302],[28.2333,36.44299]]},"properties":{"kind":"pier"}},{"type":"Feature","geometry":{"type":"Polygon","coordinates":[[[27.57266,36.68342],[27.57285,36.68331],[27.5729,36.68349],[27.57296,36.68362],[27.57294,36.68365],[27.57298,36.68375],[27.57296,36.68378],[27.57293,36.68379],[27.57289,36.68378],[27.57272,36.68347],[27.57266,36.68342]]]},"properties":{"kind":"breakwater"}},{"type":"Feature","geometry":{"type":"LineString","coordinates":[[27.61599,36.76969],[27.61666,36.7702],[27.61671,36.77015],[27.61701,36.7699],[27.61717,36.76976],[27.61748,36.76953]]},"properties":{"kind":"pier"}},{"type":"Feature","geometry":{"type":"LineString","coordinates":[[27.61635,36.76938],[27.61701,36.7699]]},"properties":{"kind":"pier"}},{"type":"Feature","geometry":{"type":"LineString","coordinates":[[27.61737,36.77066],[27.6173,36.7706],[27.61671,36.77015]]},"properties":{"kind":"pier"}},{"type":"Feature","geometry":{"type":"LineString","coordinates":[[27.61829,36.77272],[27.6178,36.77271],[27.61747,36.7726],[27.6172,36.77241],[27.61605,36.77132],[27.61601,36.77122],[27.61604,36.77109],[27.61604,36.77099],[27.61596,36.7709],[27.61512,36.77014],[27.61497,36.76994],[27.61492,36.7698],[27.61491,36.76977],[27.61495,36.76959]]},"properties":{"kind":"breakwater"}},{"type":"Feature","geometry":{"type":"LineString","coordinates":[[27.61782,36.77029],[27.61717,36.76976]]},"properties":{"kind":"pier"}},{"type":"Feature","geometry":{"type":"LineString","coordinates":[[27.56173,36.98878],[27.56182,36.98866],[27.56186,36.98868]]},"properties":{"kind":"pier"}},{"type":"Feature","geometry":{"type":"LineString","coordinates":[[27.56259,36.98934],[27.56265,36.98926],[27.56258,36.98923]]},"properties":{"kind":"pier"}},{"type":"Feature","geometry":{"type":"LineString","coordinates":[[27.56265,36.98926],[27.56269,36.98929]]},"properties":{"kind":"pier"}},{"type":"Feature","geometry":{"type":"Polygon","coordinates":[[[27.56501,36.98192],[27.56502,36.98189],[27.56511,36.98192],[27.56515,36.98184],[27.56518,36.98185],[27.56512,36.98198],[27.56509,36.98197],[27.5651,36.98195],[27.56501,36.98192]]]},"properties":{"kind":"pier"}},{"type":"Feature","geometry":{"type":"Polygon","coordinates":[[[27.56628,36.98284],[27.56624,36.98261],[27.56626,36.98261],[27.5663,36.98284],[27.56628,36.98284]]]},"properties":{"kind":"pier"}},{"type":"Feature","geometry":{"type":"Polygon","coordinates":[[[27.57178,36.99299],[27.57188,36.99294],[27.57185,36.9929],[27.57186,36.99289],[27.57194,36.99297],[27.57192,36.99299],[27.5719,36.99295],[27.57179,36.99301],[27.57178,36.99299]]]},"properties":{"kind":"pier"}},{"type":"Feature","geometry":{"type":"LineString","coordinates":[[27.57985,36.97908],[27.57974,36.97908],[27.57975,36.97891],[27.57985,36.9789],[27.57985,36.97888]]},"properties":{"kind":"pier"}},{"type":"Feature","geometry":{"type":"Polygon","coordinates":[[[27.57973,36.97888],[27.57973,36.97893],[27.57974,36.97893],[27.57974,36.97896],[27.57973,36.97896],[27.57973,36.97909],[27.57987,36.97909],[27.57987,36.97906],[27.57976,36.97906],[27.57977,36.97893],[27.57988,36.97893],[27.57988,36.97888],[27.57985,36.97888],[27.57975,36.97888],[27.57973,36.97888]]]},"properties":{"kind":"pier"}},{"type":"Feature","geometry":{"type":"Polygon","coordinates":[[[27.77477,36.6042],[27.77489,36.60424],[27.7749,36.60422],[27.77482,36.60419],[27.77486,36.6041],[27.77481,36.60409],[27.77477,36.6042]]]},"properties":{"kind":"pier"}},{"type":"Feature","geometry":{"type":"Polygon","coordinates":[[[27.77561,36.60783],[27.77608,36.60792],[27.77608,36.60793],[27.77607,36.60794],[27.7756,36.60784],[27.77561,36.60783]]]},"properties":{"kind":"breakwater"}},{"type":"Feature","geometry":{"type":"Polygon","coordinates":[[[27.86809,36.52151],[27.86813,36.5215],[27.86813,36.52146],[27.86863,36.52144],[27.86864,36.52152],[27.86868,36.52152],[27.86868,36.5214],[27.86808,36.52143],[27.86808,36.52146],[27.86809,36.52151]]]},"properties":{"kind":"pier"}},{"type":"Feature","geometry":{"type":"Polygon","coordinates":[[[27.84558,36.54839],[27.84536,36.5488],[27.84561,36.54888],[27.84558,36.54894],[27.84528,36.54883],[27.84554,36.54833],[27.84558,36.54839]]]},"properties":{"kind":"pier"}},{"type":"Feature","geometry":{"type":"LineString","coordinates":[[27.84763,36.5502],[27.84749,36.55022]]},"properties":{"kind":"pier"}},{"type":"Feature","geometry":{"type":"Polygon","coordinates":[[[27.84684,36.54924],[27.84703,36.5494],[27.84698,36.54944],[27.84678,36.5493],[27.84684,36.54924]]]},"properties":{"kind":"pier"}},{"type":"Feature","geometry":{"type":"LineString","coordinates":[[27.84799,36.55136],[27.84784,36.5514]]},"properties":{"kind":"pier"}},{"type":"Feature","geometry":{"type":"Polygon","coordinates":[[[27.84628,36.54875],[27.84625,36.54876],[27.84616,36.54869],[27.84628,36.54875]]]},"properties":{"kind":"pier"}},{"type":"Feature","geometry":{"type":"Polygon","coordinates":[[[27.86201,36.56624],[27.86224,36.56632],[27.86225,36.5663],[27.86203,36.56621],[27.86201,36.56624]]]},"properties":{"kind":"pier"}},{"type":"Feature","geometry":{"type":"LineString","coordinates":[[27.81547,36.62341],[27.81535,36.62336]]},"properties":{"kind":"pier"}},{"type":"Feature","geometry":{"type":"LineString","coordinates":[[27.81578,36.62237],[27.81572,36.62234]]},"properties":{"kind":"pier"}},{"type":"Feature","geometry":{"type":"LineString","coordinates":[[27.82188,36.62142],[27.82189,36.62136]]},"properties":{"kind":"pier"}},{"type":"Feature","geometry":{"type":"LineString","coordinates":[[27.82273,36.6215],[27.82276,36.62143]]},"properties":{"kind":"pier"}},{"type":"Feature","geometry":{"type":"LineString","coordinates":[[27.83822,36.61751],[27.83823,36.61749],[27.83824,36.61746]]},"properties":{"kind":"pier"}},{"type":"Feature","geometry":{"type":"LineString","coordinates":[[27.83892,36.61782],[27.83901,36.61779],[27.83914,36.61779]]},"properties":{"kind":"pier"}},{"type":"Feature","geometry":{"type":"LineString","coordinates":[[27.81662,36.62525],[27.81669,36.62517]]},"properties":{"kind":"pier"}},{"type":"Feature","geometry":{"type":"Polygon","coordinates":[[[27.82112,36.63248],[27.82126,36.63249],[27.82126,36.63253],[27.82112,36.63253],[27.82112,36.63248]]]},"properties":{"kind":"pier"}},{"type":"Feature","geometry":{"type":"Polygon","coordinates":[[[27.84664,36.62131],[27.84671,36.62107],[27.84658,36.62088],[27.84643,36.62064],[27.84609,36.6205],[27.84572,36.62036],[27.84548,36.62025],[27.8456,36.62016],[27.84607,36.62031],[27.8464,36.62041],[27.84689,36.62059],[27.84697,36.62073],[27.84694,36.62109],[27.84705,36.62112],[27.84697,36.62138],[27.84664,36.62131]]]},"properties":{"kind":"pier"}},{"type":"Feature","geometry":{"type":"LineString","coordinates":[[27.85808,36.61241],[27.85798,36.6123]]},"properties":{"kind":"pier"}},{"type":"Feature","geometry":{"type":"LineString","coordinates":[[27.85819,36.61235],[27.85822,36.61232]]},"properties":{"kind":"pier"}},{"type":"Feature","geometry":{"type":"Polygon","coordinates":[[[27.85801,36.61673],[27.85852,36.61696],[27.85883,36.61701],[27.85884,36.61697],[27.85854,36.61693],[27.85803,36.61669],[27.85801,36.61673]]]},"properties":{"kind":"pier"}},{"type":"Feature","geometry":{"type":"Polygon","coordinates":[[[27.85575,36.61439],[27.85649,36.61456],[27.8565,36.61451],[27.85584,36.61415],[27.85577,36.61435],[27.85575,36.61439]]]},"properties":{"kind":"pier"}},{"type":"Feature","geometry":{"type":"LineString","coordinates":[[27.85641,36.61345],[27.85635,36.61341]]},"properties":{"kind":"pier"}},{"type":"Feature","geometry":{"type":"LineString","coordinates":[[27.85556,36.61534],[27.85552,36.61534]]},"properties":{"kind":"pier"}},{"type":"Feature","geometry":{"type":"LineString","coordinates":[[27.85961,36.61679],[27.85971,36.61707]]},"properties":{"kind":"groyne"}},{"type":"Feature","geometry":{"type":"Polygon","coordinates":[[[27.86909,36.61516],[27.86896,36.61523],[27.86898,36.61525],[27.86911,36.61518],[27.86909,36.61516]]]},"properties":{"kind":"pier"}},{"type":"Feature","geometry":{"type":"Polygon","coordinates":[[[27.84658,36.64671],[27.8466,36.64675],[27.84665,36.64673],[27.8466,36.64664],[27.84655,36.64666],[27.84658,36.64671]]]},"properties":{"kind":"pier"}},{"type":"Feature","geometry":{"type":"Polygon","coordinates":[[[27.85685,36.6579],[27.85688,36.65801],[27.85699,36.65799],[27.85696,36.65791],[27.85685,36.6579]]]},"properties":{"kind":"pier"}},{"type":"Feature","geometry":{"type":"Polygon","coordinates":[[[27.9897,36.60652],[27.98974,36.60662],[27.98977,36.60662],[27.98973,36.60651],[27.9897,36.60652]]]},"properties":{"kind":"pier"}},{"type":"Feature","geometry":{"type":"LineString","coordinates":[[28.01043,36.57098],[28.0107,36.57113],[28.01098,36.57117]]},"properties":{"kind":"pier"}},{"type":"Feature","geometry":{"type":"LineString","coordinates":[[28.01104,36.57145],[28.01098,36.57117],[28.01097,36.57099]]},"properties":{"kind":"pier"}},{"type":"Feature","geometry":{"type":"LineString","coordinates":[[28.01267,36.56761],[28.01281,36.56746],[28.01289,36.56738],[28.01294,36.5673],[28.01298,36.56722]]},"properties":{"kind":"pier"}},{"type":"Feature","geometry":{"type":"LineString","coordinates":[[28.01164,36.57621],[28.01152,36.57648]]},"properties":{"kind":"pier"}},{"type":"Feature","geometry":{"type":"LineString","coordinates":[[28.01156,36.57618],[28.01164,36.57621],[28.01185,36.57629]]},"properties":{"kind":"pier"}},{"type":"Feature","geometry":{"type":"LineString","coordinates":[[28.04393,36.57636],[28.04353,36.57612]]},"properties":{"kind":"pier"}},{"type":"Feature","geometry":{"type":"LineString","coordinates":[[28.04885,36.58504],[28.04905,36.58549]]},"properties":{"kind":"pier"}},{"type":"Feature","geometry":{"type":"LineString","coordinates":[[28.04808,36.58444],[28.04819,36.5844]]},"properties":{"kind":"pier"}},{"type":"Feature","geometry":{"type":"LineString","coordinates":[[28.0482,36.58492],[28.04834,36.58487]]},"properties":{"kind":"pier"}},{"type":"Feature","geometry":{"type":"LineString","coordinates":[[28.04743,36.58295],[28.04767,36.58282]]},"properties":{"kind":"pier"}},{"type":"Feature","geometry":{"type":"LineString","coordinates":[[28.04774,36.5829],[28.04767,36.58282],[28.0476,36.58273]]},"properties":{"kind":"pier"}},{"type":"Feature","geometry":{"type":"LineString","coordinates":[[28.04877,36.58507],[28.04885,36.58504],[28.04903,36.58498]]},"properties":{"kind":"pier"}},{"type":"Feature","geometry":{"type":"LineString","coordinates":[[28.09383,36.64803],[28.09374,36.64799]]},"properties":{"kind":"pier"}},{"type":"Feature","geometry":{"type":"Polygon","coordinates":[[[28.08368,36.65854],[28.08365,36.6585],[28.08351,36.65847],[28.08319,36.65842],[28.08312,36.65826],[28.083,36.65797],[28.08308,36.65784],[28.0831,36.65784],[28.08303,36.65797],[28.0832,36.65836],[28.08323,36.65837],[28.0837,36.65845],[28.08368,36.65854]]]},"properties":{"kind":"pier"}},{"type":"Feature","geometry":{"type":"Polygon","coordinates":[[[28.08372,36.65944],[28.08357,36.65942],[28.08339,36.65953],[28.08338,36.65951],[28.08356,36.65941],[28.08372,36.65942],[28.08372,36.65944]]]},"properties":{"kind":"pier"}},{"type":"Feature","geometry":{"type":"Polygon","coordinates":[[[28.03926,36.67522],[28.03925,36.67524],[28.03925,36.67528],[28.03925,36.6753],[28.03927,36.6753],[28.03929,36.67529],[28.03928,36.67525],[28.03928,36.67522],[28.03926,36.67522]]]},"properties":{"kind":"breakwater"}},{"type":"Feature","geometry":{"type":"Polygon","coordinates":[[[28.04817,36.67478],[28.04802,36.67481],[28.04801,36.67483],[28.04801,36.67486],[28.04805,36.67497],[28.04808,36.67502],[28.04812,36.67503],[28.04816,36.67503],[28.04817,36.67502],[28.04811,36.67501],[28.04806,36.67495],[28.04804,36.67484],[28.04809,36.67482],[28.0482,36.67479],[28.04817,36.67478]]]},"properties":{"kind":"pier"}},{"type":"Feature","geometry":{"type":"Polygon","coordinates":[[[28.04829,36.67508],[28.04823,36.67514],[28.04824,36.67516],[28.04845,36.67534],[28.04846,36.67533],[28.04827,36.67515],[28.04831,36.67513],[28.04829,36.67508]]]},"properties":{"kind":"pier"}},{"type":"Feature","geometry":{"type":"LineString","coordinates":[[28.04881,36.67567],[28.04884,36.67575],[28.0489,36.67575],[28.04896,36.67574]]},"properties":{"kind":"pier"}},{"type":"Feature","geometry":{"type":"LineString","coordinates":[[28.04873,36.67558],[28.04882,36.67556]]},"properties":{"kind":"pier"}},{"type":"Feature","geometry":{"type":"Polygon","coordinates":[[[28.03945,36.69081],[28.03949,36.6908],[28.03953,36.69082],[28.03955,36.69081],[28.0395,36.69079],[28.03944,36.69079],[28.03945,36.69081]]]},"properties":{"kind":"pier"}},{"type":"Feature","geometry":{"type":"Polygon","coordinates":[[[28.05126,36.67317],[28.05121,36.67317],[28.05119,36.67322],[28.0512,36.67323],[28.05122,36.67318],[28.05127,36.67318],[28.05126,36.67317]]]},"properties":{"kind":"pier"}},{"type":"Feature","geometry":{"type":"LineString","coordinates":[[28.05144,36.68131],[28.05154,36.68127]]},"properties":{"kind":"pier"}},{"type":"Feature","geometry":{"type":"LineString","coordinates":[[28.04979,36.67743],[28.04969,36.67748]]},"properties":{"kind":"pier"}},{"type":"Feature","geometry":{"type":"LineString","coordinates":[[28.05035,36.67872],[28.05042,36.67871],[28.05044,36.67876]]},"properties":{"kind":"pier"}},{"type":"Feature","geometry":{"type":"LineString","coordinates":[[28.05036,36.67878],[28.05035,36.67872],[28.05034,36.67867]]},"properties":{"kind":"pier"}},{"type":"Feature","geometry":{"type":"LineString","coordinates":[[28.0503,36.67865],[28.0504,36.67864]]},"properties":{"kind":"pier"}},{"type":"Feature","geometry":{"type":"Polygon","coordinates":[[[28.05025,36.67872],[28.05024,36.67865],[28.0503,36.67865],[28.05031,36.67871],[28.05025,36.67872]]]},"properties":{"kind":"pier"}},{"type":"Feature","geometry":{"type":"Polygon","coordinates":[[[28.09399,36.70791],[28.09386,36.70803],[28.09277,36.70835],[28.09278,36.70838],[28.09389,36.70805],[28.09402,36.70792],[28.09401,36.70792],[28.09399,36.70791]]]},"properties":{"kind":"pier"}},{"type":"Feature","geometry":{"type":"LineString","coordinates":[[28.10114,36.70652],[28.10122,36.70653],[28.10132,36.70654]]},"properties":{"kind":"pier"}},{"type":"Feature","geometry":{"type":"LineString","coordinates":[[28.10128,36.70606],[28.10122,36.70653],[28.10121,36.70659]]},"properties":{"kind":"pier"}},{"type":"Feature","geometry":{"type":"LineString","coordinates":[[27.68947,36.72183],[27.68955,36.72174],[27.68972,36.72174],[27.69056,36.72203],[27.6908,36.72206],[27.69082,36.72213],[27.69105,36.72226],[27.69117,36.72227],[27.69132,36.72235],[27.69135,36.72244]]},"properties":{"kind":"breakwater"}},{"type":"Feature","geometry":{"type":"LineString","coordinates":[[27.68944,36.72896],[27.68974,36.72888]]},"properties":{"kind":"pier"}},{"type":"Feature","geometry":{"type":"LineString","coordinates":[[27.69157,36.72967],[27.69133,36.73021],[27.69077,36.73073]]},"properties":{"kind":"pier"}},{"type":"Feature","geometry":{"type":"Polygon","coordinates":[[[27.75993,36.76228],[27.75987,36.76212],[27.75984,36.76213],[27.75982,36.7621],[27.75991,36.76207],[27.75993,36.7621],[27.7599,36.76211],[27.75997,36.76227],[27.75993,36.76228]]]},"properties":{"kind":"pier"}},{"type":"Feature","geometry":{"type":"LineString","coordinates":[[27.89275,36.7543],[27.89214,36.75465]]},"properties":{"kind":"pier"}},{"type":"Feature","geometry":{"type":"LineString","coordinates":[[27.89282,36.75437],[27.89275,36.7543],[27.89268,36.75422]]},"properties":{"kind":"pier"}},{"type":"Feature","geometry":{"type":"LineString","coordinates":[[27.90918,36.75541],[27.90933,36.75582]]},"properties":{"kind":"pier"}},{"type":"Feature","geometry":{"type":"LineString","coordinates":[[27.90913,36.75542],[27.90918,36.75541],[27.90922,36.7554]]},"properties":{"kind":"pier"}},{"type":"Feature","geometry":{"type":"LineString","coordinates":[[27.89422,36.75639],[27.89447,36.75618]]},"properties":{"kind":"pier"}},{"type":"Feature","geometry":{"type":"LineString","coordinates":[[28.04653,36.76581],[28.04606,36.76582]]},"properties":{"kind":"pier"}},{"type":"Feature","geometry":{"type":"Polygon","coordinates":[[[28.08717,36.71996],[28.08705,36.71983],[28.08702,36.71984],[28.08711,36.71994],[28.08701,36.71999],[28.08704,36.72002],[28.08713,36.71996],[28.08714,36.71998],[28.08717,36.71996]]]},"properties":{"kind":"pier"}},{"type":"Feature","geometry":{"type":"Polygon","coordinates":[[[28.08613,36.71904],[28.08611,36.71904],[28.08613,36.71906],[28.08615,36.71906],[28.08613,36.71904]]]},"properties":{"kind":"pier"}},{"type":"Feature","geometry":{"type":"Polygon","coordinates":[[[28.08728,36.72011],[28.08732,36.72016],[28.08722,36.72019],[28.08724,36.72022],[28.08734,36.72019],[28.08736,36.72023],[28.08739,36.72022],[28.0873,36.7201],[28.08728,36.72011]]]},"properties":{"kind":"pier"}},{"type":"Feature","geometry":{"type":"LineString","coordinates":[[28.08745,36.72375],[28.08738,36.72346]]},"properties":{"kind":"pier"}},{"type":"Feature","geometry":{"type":"LineString","coordinates":[[28.08264,36.79654],[28.08247,36.79682]]},"properties":{"kind":"pier"}},{"type":"Feature","geometry":{"type":"LineString","coordinates":[[28.08259,36.79652],[28.08264,36.79654],[28.08269,36.79655]]},"properties":{"kind":"pier"}},{"type":"Feature","geometry":{"type":"LineString","coordinates":[[28.0991,36.80162],[28.09927,36.80129]]},"properties":{"kind":"pier"}},{"type":"Feature","geometry":{"type":"LineString","coordinates":[[28.09922,36.80127],[28.09927,36.80129],[28.09934,36.80131]]},"properties":{"kind":"pier"}},{"type":"Feature","geometry":{"type":"LineString","coordinates":[[28.1024,36.70682],[28.10248,36.70647],[28.10267,36.70622]]},"properties":{"kind":"pier"}},{"type":"Feature","geometry":{"type":"LineString","coordinates":[[28.10208,36.70676],[28.10207,36.7068],[28.1024,36.70682],[28.10249,36.70684]]},"properties":{"kind":"pier"}},{"type":"Feature","geometry":{"type":"LineString","coordinates":[[28.23747,36.71656],[28.23796,36.71637],[28.23819,36.71628]]},"properties":{"kind":"pier"}},{"type":"Feature","geometry":{"type":"LineString","coordinates":[[28.23796,36.71637],[28.23813,36.71663]]},"properties":{"kind":"pier"}},{"type":"Feature","geometry":{"type":"LineString","coordinates":[[28.23793,36.71599],[28.23803,36.7162]]},"properties":{"kind":"pier"}},{"type":"Feature","geometry":{"type":"LineString","coordinates":[[28.23733,36.71621],[28.23793,36.71599],[28.23809,36.71594]]},"properties":{"kind":"pier"}},{"type":"Feature","geometry":{"type":"LineString","coordinates":[[28.23807,36.71544],[28.2379,36.71543],[28.23789,36.71525],[28.23793,36.7151]]},"properties":{"kind":"pier"}},{"type":"Feature","geometry":{"type":"LineString","coordinates":[[28.23789,36.71525],[28.23709,36.71517]]},"properties":{"kind":"pier"}},{"type":"Feature","geometry":{"type":"LineString","coordinates":[[28.23806,36.71492],[28.23807,36.71453]]},"properties":{"kind":"pier"}},{"type":"Feature","geometry":{"type":"LineString","coordinates":[[28.23868,36.71471],[28.23865,36.71453],[28.2384,36.71454],[28.23807,36.71453],[28.238,36.7145]]},"properties":{"kind":"pier"}},{"type":"Feature","geometry":{"type":"LineString","coordinates":[[28.23792,36.71559],[28.23796,36.71575],[28.23798,36.71582],[28.23816,36.71579]]},"properties":{"kind":"pier"}},{"type":"Feature","geometry":{"type":"LineString","coordinates":[[28.23723,36.7159],[28.23796,36.71575]]},"properties":{"kind":"pier"}},{"type":"Feature","geometry":{"type":"LineString","coordinates":[[28.12758,36.75432],[28.1276,36.75425],[28.12763,36.75418]]},"properties":{"kind":"pier"}},{"type":"Feature","geometry":{"type":"LineString","coordinates":[[28.1276,36.75425],[28.12703,36.75413]]},"properties":{"kind":"pier"}},{"type":"Feature","geometry":{"type":"LineString","coordinates":[[28.10774,36.76365],[28.10833,36.764]]},"properties":{"kind":"pier"}},{"type":"Feature","geometry":{"type":"LineString","coordinates":[[28.11075,36.76274],[28.11067,36.76284]]},"properties":{"kind":"pier"}},{"type":"Feature","geometry":{"type":"LineString","coordinates":[[28.11055,36.76278],[28.11067,36.76284],[28.11079,36.7629]]},"properties":{"kind":"pier"}},{"type":"Feature","geometry":{"type":"LineString","coordinates":[[28.11171,36.76358],[28.11176,36.76362],[28.11182,36.76367]]},"properties":{"kind":"pier"}},{"type":"Feature","geometry":{"type":"LineString","coordinates":[[28.10946,36.76253],[28.10932,36.76252],[28.10925,36.76249]]},"properties":{"kind":"pier"}},{"type":"Feature","geometry":{"type":"LineString","coordinates":[[28.11176,36.76362],[28.11188,36.7635]]},"properties":{"kind":"pier"}},{"type":"Feature","geometry":{"type":"LineString","coordinates":[[28.10894,36.7628],[28.10893,36.76285],[28.10886,36.76294],[28.10985,36.76345]]},"properties":{"kind":"pier"}},{"type":"Feature","geometry":{"type":"LineString","coordinates":[[28.13019,36.75542],[28.13005,36.75577],[28.12996,36.75627],[28.12997,36.75689],[28.13,36.75744],[28.13016,36.75799],[28.13023,36.75844],[28.13045,36.75889]]},"properties":{"kind":"breakwater"}},{"type":"Feature","geometry":{"type":"LineString","coordinates":[[28.13091,36.75409],[28.13209,36.75358]]},"properties":{"kind":"pier"}},{"type":"Feature","geometry":{"type":"LineString","coordinates":[[28.13095,36.75425],[28.13091,36.75409],[28.13081,36.75386]]},"properties":{"kind":"pier"}},{"type":"Feature","geometry":{"type":"LineString","coordinates":[[28.13044,36.75314],[28.13076,36.75317]]},"properties":{"kind":"pier"}},{"type":"Feature","geometry":{"type":"LineString","coordinates":[[28.12955,36.75301],[28.1295,36.75302],[28.12933,36.75317],[28.12942,36.75325],[28.12938,36.7533]]},"properties":{"kind":"pier"}},{"type":"Feature","geometry":{"type":"LineString","coordinates":[[28.13076,36.75317],[28.13091,36.75289]]},"properties":{"kind":"pier"}},{"type":"Feature","geometry":{"type":"LineString","coordinates":[[28.12965,36.75295],[28.12988,36.75296],[28.13005,36.75299]]},"properties":{"kind":"pier"}},{"type":"Feature","geometry":{"type":"LineString","coordinates":[[28.1295,36.75302],[28.12944,36.75294]]},"properties":{"kind":"pier"}},{"type":"Feature","geometry":{"type":"LineString","coordinates":[[28.12988,36.75296],[28.12989,36.75281]]},"properties":{"kind":"pier"}},{"type":"Feature","geometry":{"type":"LineString","coordinates":[[28.13033,36.75276],[28.13032,36.75259]]},"properties":{"kind":"pier"}},{"type":"Feature","geometry":{"type":"LineString","coordinates":[[28.12993,36.76066],[28.12993,36.7606],[28.12994,36.76048]]},"properties":{"kind":"pier"}},{"type":"Feature","geometry":{"type":"LineString","coordinates":[[28.12993,36.7606],[28.13006,36.7606]]},"properties":{"kind":"pier"}},{"type":"Feature","geometry":{"type":"LineString","coordinates":[[28.13016,36.75945],[28.13028,36.75943]]},"properties":{"kind":"pier"}},{"type":"Feature","geometry":{"type":"LineString","coordinates":[[28.13018,36.75959],[28.13016,36.75945],[28.13014,36.75933]]},"properties":{"kind":"pier"}},{"type":"Feature","geometry":{"type":"LineString","coordinates":[[28.1296,36.76901],[28.12957,36.76896],[28.12953,36.76892]]},"properties":{"kind":"pier"}},{"type":"Feature","geometry":{"type":"LineString","coordinates":[[28.12901,36.76377],[28.129,36.76374],[28.12899,36.76366]]},"properties":{"kind":"pier"}},{"type":"Feature","geometry":{"type":"LineString","coordinates":[[28.129,36.76374],[28.12926,36.76372]]},"properties":{"kind":"pier"}},{"type":"Feature","geometry":{"type":"LineString","coordinates":[[28.12957,36.76896],[28.13004,36.76872]]},"properties":{"kind":"pier"}},{"type":"Feature","geometry":{"type":"LineString","coordinates":[[28.12889,36.76742],[28.12923,36.76746]]},"properties":{"kind":"pier"}},{"type":"Feature","geometry":{"type":"Polygon","coordinates":[[[28.12792,36.77086],[28.12755,36.7705],[28.12754,36.77051],[28.12695,36.76993],[28.12692,36.76995],[28.12751,36.77053],[28.1275,36.77054],[28.12786,36.7709],[28.12792,36.77086]]]},"properties":{"kind":"pier"}},{"type":"Feature","geometry":{"type":"Polygon","coordinates":[[[28.12617,36.77199],[28.12568,36.77152],[28.12516,36.77101],[28.12506,36.77077],[28.12503,36.77078],[28.12472,36.77006],[28.12467,36.77007],[28.12509,36.77105],[28.1261,36.77204],[28.12617,36.77199]]]},"properties":{"kind":"pier"}},{"type":"Feature","geometry":{"type":"Polygon","coordinates":[[[28.12718,36.77135],[28.12621,36.77039],[28.12617,36.77042],[28.12713,36.77138],[28.12718,36.77135]]]},"properties":{"kind":"pier"}},{"type":"Feature","geometry":{"type":"Polygon","coordinates":[[[28.12664,36.77169],[28.12566,36.77078],[28.12561,36.77081],[28.12659,36.77173],[28.12664,36.77169]]]},"properties":{"kind":"pier"}},{"type":"Feature","geometry":{"type":"LineString","coordinates":[[28.12495,36.7723],[28.12505,36.77231],[28.12519,36.7723]]},"properties":{"kind":"pier"}},{"type":"Feature","geometry":{"type":"LineString","coordinates":[[28.12505,36.77231],[28.12505,36.77241]]},"properties":{"kind":"pier"}},{"type":"Feature","geometry":{"type":"Polygon","coordinates":[[[28.12854,36.77045],[28.12754,36.76942],[28.1269,36.76923],[28.12663,36.76941],[28.12664,36.76942],[28.12565,36.76992],[28.12567,36.76995],[28.12666,36.76944],[28.12667,36.76946],[28.12692,36.76933],[28.12748,36.76949],[28.12847,36.7705],[28.12854,36.77045]]]},"properties":{"kind":"pier"}},{"type":"Feature","geometry":{"type":"Polygon","coordinates":[[[28.12902,36.77033],[28.12915,36.77041],[28.12918,36.77038],[28.12906,36.7703],[28.12902,36.77033]]]},"properties":{"kind":"pier"}},{"type":"Feature","geometry":{"type":"Polygon","coordinates":[[[28.1149,36.80356],[28.11486,36.80356],[28.11485,36.80339],[28.11481,36.80337],[28.11476,36.80337],[28.11476,36.80333],[28.11481,36.80333],[28.11484,36.80329],[28.11488,36.80329],[28.11491,36.80332],[28.11497,36.80332],[28.11497,36.80336],[28.11492,36.80336],[28.11489,36.80339],[28.1149,36.80356]]]},"properties":{"kind":"pier"}},{"type":"Feature","geometry":{"type":"LineString","coordinates":[[28.11616,36.80337],[28.11614,36.80317],[28.11583,36.803]]},"properties":{"kind":"pier"}},{"type":"Feature","geometry":{"type":"LineString","coordinates":[[28.11739,36.80348],[28.11748,36.80348],[28.11758,36.80348]]},"properties":{"kind":"pier"}},{"type":"Feature","geometry":{"type":"LineString","coordinates":[[28.11746,36.80386],[28.11748,36.80348]]},"properties":{"kind":"pier"}},{"type":"Feature","geometry":{"type":"LineString","coordinates":[[28.11554,36.80368],[28.11549,36.80335]]},"properties":{"kind":"pier"}},{"type":"Feature","geometry":{"type":"LineString","coordinates":[[28.23837,36.71739],[28.23832,36.71735],[28.23864,36.7172],[28.23886,36.71727]]},"properties":{"kind":"pier"}},{"type":"Feature","geometry":{"type":"LineString","coordinates":[[28.27193,36.74584],[28.27208,36.74574],[28.27192,36.74552]]},"properties":{"kind":"pier"}},{"type":"Feature","geometry":{"type":"LineString","coordinates":[[28.27088,36.74642],[28.27069,36.74626]]},"properties":{"kind":"pier"}},{"type":"Feature","geometry":{"type":"LineString","coordinates":[[28.27075,36.74651],[28.27088,36.74642],[28.27099,36.74633]]},"properties":{"kind":"pier"}},{"type":"Feature","geometry":{"type":"LineString","coordinates":[[28.26734,36.75271],[28.26776,36.75272]]},"properties":{"kind":"pier"}},{"type":"Feature","geometry":{"type":"LineString","coordinates":[[28.27475,36.74492],[28.27508,36.7449]]},"properties":{"kind":"pier"}},{"type":"Feature","geometry":{"type":"LineString","coordinates":[[28.27466,36.74452],[28.27475,36.74492],[28.27443,36.74494]]},"properties":{"kind":"pier"}},{"type":"Feature","geometry":{"type":"LineString","coordinates":[[28.27326,36.74489],[28.2734,36.74521],[28.27356,36.74515]]},"properties":{"kind":"pier"}},{"type":"Feature","geometry":{"type":"LineString","coordinates":[[28.26757,36.75919],[28.26715,36.75893]]},"properties":{"kind":"pier"}},{"type":"Feature","geometry":{"type":"LineString","coordinates":[[28.26746,36.75929],[28.26757,36.75919],[28.26766,36.75911]]},"properties":{"kind":"pier"}},{"type":"Feature","geometry":{"type":"LineString","coordinates":[[28.23775,36.79988],[28.23784,36.80003]]},"properties":{"kind":"pier"}},{"type":"Feature","geometry":{"type":"LineString","coordinates":[[28.23535,36.80129],[28.23557,36.80138]]},"properties":{"kind":"pier"}},{"type":"Feature","geometry":{"type":"LineString","coordinates":[[28.23522,36.80138],[28.2354,36.8014],[28.23543,36.80146]]},"properties":{"kind":"pier"}},{"type":"Feature","geometry":{"type":"LineString","coordinates":[[28.23934,36.8023],[28.23993,36.80176],[28.24002,36.80104]]},"properties":{"kind":"pier"}},{"type":"Feature","geometry":{"type":"LineString","coordinates":[[28.23305,36.80494],[28.2336,36.80506]]},"properties":{"kind":"pier"}},{"type":"Feature","geometry":{"type":"LineString","coordinates":[[28.23378,36.80711],[28.2335,36.80719]]},"properties":{"kind":"pier"}},{"type":"Feature","geometry":{"type":"LineString","coordinates":[[28.24085,36.81174],[28.24058,36.8119]]},"properties":{"kind":"pier"}},{"type":"Feature","geometry":{"type":"LineString","coordinates":[[28.2409,36.81179],[28.24085,36.81174],[28.24081,36.8117]]},"properties":{"kind":"pier"}},{"type":"Feature","geometry":{"type":"LineString","coordinates":[[28.24124,36.81308],[28.24174,36.81288]]},"properties":{"kind":"pier"}},{"type":"Feature","geometry":{"type":"LineString","coordinates":[[28.24348,36.81681],[28.24354,36.8169],[28.2436,36.81698]]},"properties":{"kind":"pier"}},{"type":"Feature","geometry":{"type":"LineString","coordinates":[[28.2432,36.81704],[28.24354,36.8169]]},"properties":{"kind":"pier"}},{"type":"Feature","geometry":{"type":"LineString","coordinates":[[28.24296,36.81584],[28.2425,36.81599]]},"properties":{"kind":"pier"}},{"type":"Feature","geometry":{"type":"LineString","coordinates":[[28.243,36.81591],[28.24296,36.81584],[28.24286,36.81562]]},"properties":{"kind":"pier"}},{"type":"Feature","geometry":{"type":"LineString","coordinates":[[28.24434,36.81946],[28.24446,36.81933],[28.24449,36.81887],[28.24388,36.81842]]},"properties":{"kind":"pier"}},{"type":"Feature","geometry":{"type":"LineString","coordinates":[[28.24362,36.81976],[28.24397,36.82003]]},"properties":{"kind":"pier"}},{"type":"Feature","geometry":{"type":"LineString","coordinates":[[28.24281,36.81653],[28.24309,36.81643]]},"properties":{"kind":"pier"}},{"type":"Feature","geometry":{"type":"LineString","coordinates":[[28.24334,36.81754],[28.24344,36.81742],[28.24385,36.81724]]},"properties":{"kind":"pier"}},{"type":"Feature","geometry":{"type":"LineString","coordinates":[[28.29106,36.81878],[28.29202,36.81922],[28.29252,36.81944]]},"properties":{"kind":"pier"}},{"type":"Feature","geometry":{"type":"LineString","coordinates":[[28.28785,36.81626],[28.28739,36.81609],[28.28753,36.81586]]},"properties":{"kind":"pier"}},{"type":"Feature","geometry":{"type":"LineString","coordinates":[[28.28838,36.81639],[28.28854,36.81646],[28.2887,36.81652],[28.28928,36.81675]]},"properties":{"kind":"pier"}},{"type":"Feature","geometry":{"type":"LineString","coordinates":[[28.2887,36.81652],[28.28895,36.81619]]},"properties":{"kind":"pier"}},{"type":"Feature","geometry":{"type":"LineString","coordinates":[[28.29354,36.81942],[28.29391,36.81914]]},"properties":{"kind":"pier"}},{"type":"Feature","geometry":{"type":"LineString","coordinates":[[28.29371,36.81956],[28.29354,36.81942],[28.29337,36.81928]]},"properties":{"kind":"pier"}},{"type":"Feature","geometry":{"type":"LineString","coordinates":[[28.29202,36.81922],[28.29242,36.81866]]},"properties":{"kind":"pier"}},{"type":"Feature","geometry":{"type":"LineString","coordinates":[[28.30471,36.82067],[28.30672,36.82086],[28.30772,36.82095],[28.30988,36.82102],[28.31012,36.82094]]},"properties":{"kind":"pier","name":"Bravo"}},{"type":"Feature","geometry":{"type":"LineString","coordinates":[[28.30945,36.81812],[28.30981,36.8181],[28.31024,36.8181],[28.31077,36.81802],[28.31207,36.81786],[28.31213,36.81829]]},"properties":{"kind":"pier","name":"Lima"}},{"type":"Feature","geometry":{"type":"LineString","coordinates":[[28.30533,36.81932],[28.30471,36.82067],[28.30462,36.82085]]},"properties":{"kind":"pier","name":"Alfa"}},{"type":"Feature","geometry":{"type":"LineString","coordinates":[[28.302,36.81947],[28.30165,36.81916]]},"properties":{"kind":"pier"}},{"type":"Feature","geometry":{"type":"LineString","coordinates":[[28.29938,36.81705],[28.2995,36.81689]]},"properties":{"kind":"pier"}},{"type":"Feature","geometry":{"type":"LineString","coordinates":[[28.30019,36.81765],[28.30018,36.81757],[28.30031,36.81744]]},"properties":{"kind":"pier"}},{"type":"Feature","geometry":{"type":"LineString","coordinates":[[28.30068,36.81799],[28.3008,36.8181],[28.30097,36.81811],[28.30102,36.81808]]},"properties":{"kind":"pier"}},{"type":"Feature","geometry":{"type":"LineString","coordinates":[[28.30709,36.81881],[28.30697,36.81934]]},"properties":{"kind":"pier","name":"Foxtrot"}},{"type":"Feature","geometry":{"type":"LineString","coordinates":[[28.30888,36.81876],[28.31108,36.81929]]},"properties":{"kind":"pier","name":"Juliet"}},{"type":"Feature","geometry":{"type":"LineString","coordinates":[[28.30816,36.81968],[28.31032,36.82016]]},"properties":{"kind":"pier","name":"Hotel"}},{"type":"Feature","geometry":{"type":"LineString","coordinates":[[28.30854,36.81916],[28.30963,36.81942],[28.31075,36.81966]]},"properties":{"kind":"pier","name":"India"}},{"type":"Feature","geometry":{"type":"LineString","coordinates":[[28.30656,36.81873],[28.30646,36.81913]]},"properties":{"kind":"pier","name":"Echo"}},{"type":"Feature","geometry":{"type":"LineString","coordinates":[[28.3059,36.81959],[28.30562,36.8202]]},"properties":{"kind":"pier","name":"Mike"}},{"type":"Feature","geometry":{"type":"LineString","coordinates":[[28.30698,36.82014],[28.30692,36.82051]]},"properties":{"kind":"pier","name":"Oskar"}},{"type":"Feature","geometry":{"type":"LineString","coordinates":[[28.30645,36.81988],[28.30627,36.82033]]},"properties":{"kind":"pier","name":"November"}},{"type":"Feature","geometry":{"type":"LineString","coordinates":[[28.3075,36.81896],[28.30742,36.81934]]},"properties":{"kind":"pier","name":"Romeo"}},{"type":"Feature","geometry":{"type":"LineString","coordinates":[[28.30888,36.81876],[28.30899,36.81856],[28.30945,36.81812]]},"properties":{"kind":"pier"}},{"type":"Feature","geometry":{"type":"LineString","coordinates":[[28.30888,36.81876],[28.30877,36.81898],[28.30854,36.81916]]},"properties":{"kind":"pier"}},{"type":"Feature","geometry":{"type":"LineString","coordinates":[[28.30795,36.81932],[28.30789,36.81951]]},"properties":{"kind":"pier","name":"Ferry"}},{"type":"Feature","geometry":{"type":"LineString","coordinates":[[28.30797,36.819],[28.3075,36.81896]]},"properties":{"kind":"pier","name":"Golf"}},{"type":"Feature","geometry":{"type":"LineString","coordinates":[[28.3057,36.81919],[28.30582,36.81862]]},"properties":{"kind":"pier","name":"Delta"}},{"type":"Feature","geometry":{"type":"LineString","coordinates":[[28.3057,36.81919],[28.30618,36.81948],[28.30672,36.81976],[28.30704,36.81983]]},"properties":{"kind":"pier","name":"Charlie"}},{"type":"Feature","geometry":{"type":"LineString","coordinates":[[28.30698,36.82014],[28.30645,36.81988],[28.3059,36.81959],[28.30533,36.81932]]},"properties":{"kind":"pier","name":"Papa"}},{"type":"Feature","geometry":{"type":"Polygon","coordinates":[[[28.14004,36.92521],[28.1401,36.92534],[28.14006,36.92536],[28.14008,36.92538],[28.14013,36.92535],[28.14023,36.92531],[28.14022,36.92529],[28.14012,36.92533],[28.14005,36.9252],[28.14004,36.92521]]]},"properties":{"kind":"pier"}},{"type":"Feature","geometry":{"type":"Polygon","coordinates":[[[28.16587,36.91257],[28.1657,36.91246],[28.16567,36.9125],[28.1657,36.91251],[28.16567,36.91255],[28.16564,36.91254],[28.16557,36.91262],[28.16547,36.91258],[28.16576,36.9122],[28.16586,36.91225],[28.1658,36.91234],[28.16583,36.91235],[28.16579,36.91239],[28.16577,36.91238],[28.16574,36.91242],[28.1659,36.9125],[28.16587,36.91257]]]},"properties":{"kind":"pier"}},{"type":"Feature","geometry":{"type":"LineString","coordinates":[[28.16664,36.91327],[28.16683,36.91348]]},"properties":{"kind":"pier"}},{"type":"Feature","geometry":{"type":"Polygon","coordinates":[[[28.16683,36.91348],[28.16673,36.91354],[28.16679,36.91361],[28.16689,36.91356],[28.16683,36.91348]]]},"properties":{"kind":"pier"}},{"type":"Feature","geometry":{"type":"LineString","coordinates":[[28.16689,36.91356],[28.16691,36.91359]]},"properties":{"kind":"pier"}},{"type":"Feature","geometry":{"type":"LineString","coordinates":[[28.16766,36.91345],[28.1678,36.9133]]},"properties":{"kind":"pier"}},{"type":"Feature","geometry":{"type":"Polygon","coordinates":[[[28.16766,36.91345],[28.16769,36.91347],[28.16767,36.91349],[28.16768,36.91354],[28.16764,36.91359],[28.16764,36.91365],[28.16759,36.91365],[28.16758,36.91364],[28.16751,36.91364],[28.16748,36.91362],[28.16746,36.91357],[28.16744,36.91357],[28.16744,36.91351],[28.1675,36.91351],[28.16755,36.91345],[28.16763,36.91345],[28.16765,36.91344],[28.16766,36.91345]]]},"properties":{"kind":"pier"}},{"type":"Feature","geometry":{"type":"Polygon","coordinates":[[[28.16774,36.91386],[28.16778,36.91384],[28.1678,36.91388],[28.16776,36.91389],[28.16774,36.91386]]]},"properties":{"kind":"pier"}},{"type":"Feature","geometry":{"type":"LineString","coordinates":[[28.16985,36.91672],[28.16967,36.9168]]},"properties":{"kind":"pier"}},{"type":"Feature","geometry":{"type":"LineString","coordinates":[[28.16959,36.91669],[28.16967,36.9168],[28.16969,36.91683]]},"properties":{"kind":"pier"}},{"type":"Feature","geometry":{"type":"LineString","coordinates":[[28.17145,36.91981],[28.17164,36.91971]]},"properties":{"kind":"pier"}},{"type":"Feature","geometry":{"type":"LineString","coordinates":[[28.1716,36.91998],[28.17145,36.91981],[28.17129,36.91961],[28.17128,36.91955],[28.17142,36.91954],[28.17161,36.91955]]},"properties":{"kind":"pier"}},{"type":"Feature","geometry":{"type":"LineString","coordinates":[[28.17275,36.92113],[28.17312,36.92142]]},"properties":{"kind":"pier"}},{"type":"Feature","geometry":{"type":"LineString","coordinates":[[28.17255,36.92124],[28.17275,36.92113],[28.17281,36.92109]]},"properties":{"kind":"pier"}},{"type":"Feature","geometry":{"type":"LineString","coordinates":[[28.24334,36.82164],[28.24377,36.82164],[28.24377,36.82185]]},"properties":{"kind":"pier"}},{"type":"Feature","geometry":{"type":"LineString","coordinates":[[28.24393,36.82725],[28.24364,36.82737],[28.24352,36.82737]]},"properties":{"kind":"pier"}},{"type":"Feature","geometry":{"type":"LineString","coordinates":[[28.24401,36.82737],[28.24393,36.82725],[28.24382,36.82709]]},"properties":{"kind":"pier"}},{"type":"Feature","geometry":{"type":"LineString","coordinates":[[28.24342,36.82639],[28.24303,36.82655]]},"properties":{"kind":"pier"}},{"type":"Feature","geometry":{"type":"LineString","coordinates":[[28.24363,36.82673],[28.24342,36.82639],[28.24337,36.82632]]},"properties":{"kind":"pier"}},{"type":"Feature","geometry":{"type":"LineString","coordinates":[[28.24357,36.82345],[28.24336,36.82343]]},"properties":{"kind":"pier"}},{"type":"Feature","geometry":{"type":"LineString","coordinates":[[28.24357,36.82352],[28.24357,36.82345],[28.24357,36.82337]]},"properties":{"kind":"pier"}},{"type":"Feature","geometry":{"type":"LineString","coordinates":[[28.24385,36.82367],[28.24385,36.82374],[28.24389,36.82423]]},"properties":{"kind":"pier"}},{"type":"Feature","geometry":{"type":"LineString","coordinates":[[28.24327,36.82373],[28.24385,36.82374]]},"properties":{"kind":"pier"}},{"type":"Feature","geometry":{"type":"LineString","coordinates":[[28.24297,36.82479],[28.24338,36.82476],[28.24358,36.82474],[28.2439,36.82472],[28.2439,36.82476],[28.24392,36.82497],[28.24388,36.825],[28.24364,36.82502],[28.24359,36.825],[28.24359,36.82485],[28.24358,36.82474]]},"properties":{"kind":"pier"}},{"type":"Feature","geometry":{"type":"LineString","coordinates":[[28.24359,36.82485],[28.24339,36.82486],[28.24338,36.82476]]},"properties":{"kind":"pier"}},{"type":"Feature","geometry":{"type":"LineString","coordinates":[[28.24388,36.825],[28.24425,36.82498],[28.24427,36.82496],[28.24431,36.82494]]},"properties":{"kind":"pier"}},{"type":"Feature","geometry":{"type":"LineString","coordinates":[[28.24427,36.82496],[28.24423,36.82489],[28.24418,36.82488],[28.24413,36.82487],[28.2441,36.82485],[28.2441,36.82481],[28.24413,36.82478],[28.24418,36.82478],[28.24419,36.82478],[28.24422,36.82478],[28.24425,36.82479],[28.24426,36.82481],[28.24425,36.82484],[28.24423,36.82489]]},"properties":{"kind":"pier"}},{"type":"Feature","geometry":{"type":"LineString","coordinates":[[28.2439,36.82476],[28.24419,36.82474],[28.24419,36.82478]]},"properties":{"kind":"pier"}},{"type":"Feature","geometry":{"type":"LineString","coordinates":[[28.24592,36.83307],[28.24564,36.83322]]},"properties":{"kind":"pier"}},{"type":"Feature","geometry":{"type":"LineString","coordinates":[[28.24588,36.83226],[28.24529,36.83278]]},"properties":{"kind":"pier"}},{"type":"Feature","geometry":{"type":"LineString","coordinates":[[28.24442,36.83084],[28.24439,36.83078],[28.24436,36.83074]]},"properties":{"kind":"pier"}},{"type":"Feature","geometry":{"type":"LineString","coordinates":[[28.24401,36.83094],[28.24439,36.83078]]},"properties":{"kind":"pier"}},{"type":"Feature","geometry":{"type":"LineString","coordinates":[[28.24396,36.83027],[28.24367,36.83037]]},"properties":{"kind":"pier"}},{"type":"Feature","geometry":{"type":"LineString","coordinates":[[28.24397,36.83029],[28.24396,36.83027],[28.24396,36.83025]]},"properties":{"kind":"pier"}},{"type":"Feature","geometry":{"type":"LineString","coordinates":[[28.24346,36.82908],[28.24389,36.82904]]},"properties":{"kind":"pier"}},{"type":"Feature","geometry":{"type":"LineString","coordinates":[[28.24696,36.83421],[28.24673,36.83433]]},"properties":{"kind":"pier"}},{"type":"Feature","geometry":{"type":"LineString","coordinates":[[28.24981,36.83758],[28.24996,36.83744]]},"properties":{"kind":"pier"}},{"type":"Feature","geometry":{"type":"LineString","coordinates":[[28.24765,36.83576],[28.24786,36.83564]]},"properties":{"kind":"pier"}},{"type":"Feature","geometry":{"type":"LineString","coordinates":[[28.24816,36.83497],[28.24735,36.83524]]},"properties":{"kind":"pier"}},{"type":"Feature","geometry":{"type":"LineString","coordinates":[[28.2494,36.83648],[28.24934,36.83641],[28.24924,36.83637]]},"properties":{"kind":"pier"}},{"type":"Feature","geometry":{"type":"LineString","coordinates":[[28.24886,36.83684],[28.24934,36.83641]]},"properties":{"kind":"pier"}},{"type":"Feature","geometry":{"type":"LineString","coordinates":[[28.24925,36.83609],[28.24878,36.83678]]},"properties":{"kind":"pier"}},{"type":"Feature","geometry":{"type":"Polygon","coordinates":[[[28.24857,36.83769],[28.24856,36.83769],[28.24855,36.8377],[28.24855,36.83771],[28.24855,36.83772],[28.24855,36.83773],[28.24856,36.83774],[28.24857,36.83774],[28.24858,36.83774],[28.24859,36.83774],[28.2486,36.83774],[28.24861,36.83773],[28.24862,36.83772],[28.24862,36.83771],[28.24862,36.83771],[28.24861,36.8377],[28.2486,36.83769],[28.24859,36.83769],[28.24858,36.83769],[28.24857,36.83769]]]},"properties":{"kind":"pier"}},{"type":"Feature","geometry":{"type":"LineString","coordinates":[[28.25205,36.83904],[28.25178,36.83922]]},"properties":{"kind":"pier"}},{"type":"Feature","geometry":{"type":"LineString","coordinates":[[28.25157,36.83889],[28.25146,36.83898]]},"properties":{"kind":"pier"}},{"type":"Feature","geometry":{"type":"LineString","coordinates":[[28.25129,36.8387],[28.25118,36.83878]]},"properties":{"kind":"pier"}},{"type":"Feature","geometry":{"type":"LineString","coordinates":[[28.25106,36.83853],[28.25096,36.8386]]},"properties":{"kind":"pier"}},{"type":"Feature","geometry":{"type":"Polygon","coordinates":[[[28.24914,36.83656],[28.24913,36.83653],[28.24917,36.8365],[28.24921,36.8365],[28.24929,36.83643],[28.24925,36.83643],[28.24921,36.83641],[28.2492,36.83637],[28.24923,36.83634],[28.24929,36.83633],[28.24932,36.83636],[28.24935,36.83634],[28.2494,36.83633],[28.24944,36.83636],[28.24944,36.8364],[28.24941,36.83642],[28.24944,36.83645],[28.24945,36.83649],[28.24942,36.83651],[28.24937,36.83651],[28.24933,36.83649],[28.24933,36.83645],[28.24925,36.83652],[28.24926,36.83656],[28.24922,36.83659],[28.24918,36.83659],[28.24888,36.83686],[28.24886,36.83684],[28.24884,36.83683],[28.24914,36.83656]]]},"properties":{"kind":"pier"}},{"type":"Feature","geometry":{"type":"LineString","coordinates":[[28.24934,36.83641],[28.2494,36.83637]]},"properties":{"kind":"pier"}},{"type":"Feature","geometry":{"type":"LineString","coordinates":[[28.25309,36.84036],[28.25356,36.84011]]},"properties":{"kind":"pier"}},{"type":"Feature","geometry":{"type":"LineString","coordinates":[[28.25474,36.84113],[28.25481,36.84124],[28.25451,36.84135],[28.25447,36.84129],[28.25398,36.84147]]},"properties":{"kind":"pier"}},{"type":"Feature","geometry":{"type":"LineString","coordinates":[[28.25772,36.84471],[28.25762,36.84482]]},"properties":{"kind":"pier"}},{"type":"Feature","geometry":{"type":"LineString","coordinates":[[28.25841,36.84545],[28.25858,36.84532]]},"properties":{"kind":"pier"}},{"type":"Feature","geometry":{"type":"LineString","coordinates":[[28.2561,36.84355],[28.25681,36.84306]]},"properties":{"kind":"pier"}},{"type":"Feature","geometry":{"type":"LineString","coordinates":[[28.25454,36.84213],[28.25477,36.84202]]},"properties":{"kind":"pier"}},{"type":"Feature","geometry":{"type":"LineString","coordinates":[[28.26152,36.84763],[28.26129,36.84784]]},"properties":{"kind":"pier"}},{"type":"Feature","geometry":{"type":"LineString","coordinates":[[28.25986,36.84664],[28.26007,36.84649]]},"properties":{"kind":"pier"}},{"type":"Feature","geometry":{"type":"LineString","coordinates":[[28.28297,36.84342],[28.28419,36.84237],[28.28474,36.84194],[28.28532,36.84204],[28.28618,36.84298],[28.2869,36.84352]]},"properties":{"kind":"pier"}},{"type":"Feature","geometry":{"type":"LineString","coordinates":[[28.28537,36.8445],[28.28391,36.8435]]},"properties":{"kind":"pier"}},{"type":"Feature","geometry":{"type":"Polygon","coordinates":[[[28.2824,36.84865],[28.28228,36.84732],[28.28242,36.8473],[28.28256,36.84865],[28.2824,36.84865]]]},"properties":{"kind":"pier"}},{"type":"Feature","geometry":{"type":"LineString","coordinates":[[28.28519,36.84732],[28.28477,36.84704]]},"properties":{"kind":"pier"}},{"type":"Feature","geometry":{"type":"LineString","coordinates":[[28.2846,36.84512],[28.28441,36.84508],[28.28308,36.84404]]},"properties":{"kind":"pier"}},{"type":"Feature","geometry":{"type":"LineString","coordinates":[[28.28457,36.84535],[28.28429,36.84542]]},"properties":{"kind":"pier"}},{"type":"Feature","geometry":{"type":"LineString","coordinates":[[28.3041,36.82898],[28.30402,36.8288]]},"properties":{"kind":"pier"}},{"type":"Feature","geometry":{"type":"LineString","coordinates":[[28.30277,36.82916],[28.30255,36.82897]]},"properties":{"kind":"pier"}},{"type":"Feature","geometry":{"type":"LineString","coordinates":[[28.31034,36.82966],[28.31033,36.82885],[28.31033,36.82836]]},"properties":{"kind":"pier"}},{"type":"Feature","geometry":{"type":"LineString","coordinates":[[28.31033,36.82885],[28.30963,36.82886]]},"properties":{"kind":"pier"}},{"type":"Feature","geometry":{"type":"LineString","coordinates":[[28.30939,36.82832],[28.31033,36.82836],[28.31058,36.82837]]},"properties":{"kind":"pier"}},{"type":"Feature","geometry":{"type":"LineString","coordinates":[[28.2856,36.84393],[28.2858,36.84378],[28.28651,36.84357],[28.28659,36.84399]]},"properties":{"kind":"pier"}},{"type":"Feature","geometry":{"type":"LineString","coordinates":[[28.26346,36.84924],[28.26321,36.84946]]},"properties":{"kind":"pier"}},{"type":"Feature","geometry":{"type":"LineString","coordinates":[[28.26254,36.84813],[28.26208,36.8486]]},"properties":{"kind":"pier"}},{"type":"Feature","geometry":{"type":"LineString","coordinates":[[28.26675,36.85095],[28.26631,36.85139]]},"properties":{"kind":"pier"}},{"type":"Feature","geometry":{"type":"Polygon","coordinates":[[[28.27827,36.8525],[28.27818,36.85252],[28.27798,36.85165],[28.2785,36.85112],[28.27867,36.85124],[28.2784,36.85151],[28.2783,36.85145],[28.27807,36.85167],[28.27827,36.8525]]]},"properties":{"kind":"pier","name":"B Dock"}},{"type":"Feature","geometry":{"type":"LineString","coordinates":[[28.27924,36.8516],[28.27961,36.85303]]},"properties":{"kind":"pier","name":"D Dock"}},{"type":"Feature","geometry":{"type":"LineString","coordinates":[[28.28042,36.8526],[28.2802,36.8516]]},"properties":{"kind":"pier","name":"F Dock"}},{"type":"Feature","geometry":{"type":"LineString","coordinates":[[28.28005,36.85297],[28.27971,36.85162]]},"properties":{"kind":"pier","name":"E Dock"}},{"type":"Feature","geometry":{"type":"LineString","coordinates":[[28.28087,36.85197],[28.28075,36.8515]]},"properties":{"kind":"pier","name":"G Dock"}},{"type":"Feature","geometry":{"type":"LineString","coordinates":[[28.27942,36.85105],[28.28088,36.85002]]},"properties":{"kind":"pier","name":"L Dock"}},{"type":"Feature","geometry":{"type":"LineString","coordinates":[[28.27992,36.85124],[28.28122,36.85033]]},"properties":{"kind":"pier","name":"K Dock"}},{"type":"Feature","geometry":{"type":"LineString","coordinates":[[28.27884,36.8504],[28.2802,36.84942]]},"properties":{"kind":"pier","name":"N Dock"}},{"type":"Feature","geometry":{"type":"LineString","coordinates":[[28.27899,36.85079],[28.28054,36.84972]]},"properties":{"kind":"pier","name":"M Dock"}},{"type":"Feature","geometry":{"type":"LineString","coordinates":[[28.27875,36.85176],[28.27912,36.85311]]},"properties":{"kind":"pier","name":"C Dock"}},{"type":"Feature","geometry":{"type":"Polygon","coordinates":[[[28.27985,36.84881],[28.27983,36.84906],[28.27791,36.85039],[28.27733,36.8508],[28.27718,36.85067],[28.27885,36.84948],[28.27985,36.84881]]]},"properties":{"kind":"pier","name":"A Dock"}},{"type":"Feature","geometry":{"type":"LineString","coordinates":[[28.31247,36.82206],[28.3127,36.82219],[28.31296,36.82233]]},"properties":{"kind":"pier"}},{"type":"Feature","geometry":{"type":"LineString","coordinates":[[28.3127,36.82219],[28.31288,36.82196]]},"properties":{"kind":"pier"}},{"type":"Feature","geometry":{"type":"LineString","coordinates":[[28.38623,36.83526],[28.38742,36.83607]]},"properties":{"kind":"pier"}},{"type":"Feature","geometry":{"type":"LineString","coordinates":[[28.38583,36.8364],[28.38701,36.83719]]},"properties":{"kind":"pier"}},{"type":"Feature","geometry":{"type":"LineString","coordinates":[[28.38042,36.84236],[28.38146,36.84276]]},"properties":{"kind":"pier"}},{"type":"Feature","geometry":{"type":"LineString","coordinates":[[28.37864,36.84605],[28.37863,36.84603],[28.37863,36.846]]},"properties":{"kind":"pier"}},{"type":"Feature","geometry":{"type":"LineString","coordinates":[[28.37842,36.84603],[28.37863,36.84603]]},"properties":{"kind":"pier"}},{"type":"Feature","geometry":{"type":"LineString","coordinates":[[28.37852,36.84629],[28.37892,36.84603],[28.37923,36.84614]]},"properties":{"kind":"pier"}},{"type":"Feature","geometry":{"type":"LineString","coordinates":[[28.39385,36.83451],[28.394,36.83603]]},"properties":{"kind":"pier"}},{"type":"Feature","geometry":{"type":"LineString","coordinates":[[28.44545,36.87995],[28.44572,36.87979],[28.44556,36.87961]]},"properties":{"kind":"pier"}},{"type":"Feature","geometry":{"type":"LineString","coordinates":[[28.44901,36.88027],[28.44888,36.87979],[28.44915,36.87974]]},"properties":{"kind":"pier"}},{"type":"Feature","geometry":{"type":"LineString","coordinates":[[28.45241,36.87945],[28.45227,36.87917]]},"properties":{"kind":"pier"}},{"type":"Feature","geometry":{"type":"LineString","coordinates":[[28.44768,36.8805],[28.44769,36.8802],[28.44797,36.88021]]},"properties":{"kind":"pier"}},{"type":"Feature","geometry":{"type":"LineString","coordinates":[[27.74706,36.99795],[27.747,36.99783]]},"properties":{"kind":"pier"}},{"type":"Feature","geometry":{"type":"LineString","coordinates":[[27.74645,36.99808],[27.74642,36.99791]]},"properties":{"kind":"pier"}},{"type":"Feature","geometry":{"type":"Polygon","coordinates":[[[27.7457,36.99803],[27.7457,36.99791],[27.74572,36.9979],[27.74573,36.99803],[27.7457,36.99803]]]},"properties":{"kind":"pier"}},{"type":"Feature","geometry":{"type":"LineString","coordinates":[[27.74486,36.99795],[27.74493,36.99767],[27.74504,36.99768]]},"properties":{"kind":"pier"}},{"type":"Feature","geometry":{"type":"LineString","coordinates":[[27.74493,36.99767],[27.74485,36.99766]]},"properties":{"kind":"pier"}},{"type":"Feature","geometry":{"type":"Polygon","coordinates":[[[27.74821,36.99764],[27.74812,36.99745],[27.74813,36.99744],[27.74811,36.9974],[27.74805,36.99742],[27.74807,36.99746],[27.74809,36.99746],[27.74818,36.99765],[27.74821,36.99764]]]},"properties":{"kind":"pier"}},{"type":"Feature","geometry":{"type":"LineString","coordinates":[[27.90788,37.02252],[27.90742,37.02361]]},"properties":{"kind":"pier"}},{"type":"Feature","geometry":{"type":"LineString","coordinates":[[27.90688,37.02225],[27.90788,37.02252],[27.90831,37.02264]]},"properties":{"kind":"pier"}},{"type":"Feature","geometry":{"type":"LineString","coordinates":[[27.98358,37.02989],[27.98413,37.03067]]},"properties":{"kind":"pier"}},{"type":"Feature","geometry":{"type":"LineString","coordinates":[[27.98049,37.03073],[27.9809,37.0312]]},"properties":{"kind":"pier"}},{"type":"Feature","geometry":{"type":"LineString","coordinates":[[27.97999,37.03103],[27.98035,37.03145]]},"properties":{"kind":"pier"}},{"type":"Feature","geometry":{"type":"LineString","coordinates":[[27.98253,37.03045],[27.98297,37.03107]]},"properties":{"kind":"pier"}},{"type":"Feature","geometry":{"type":"LineString","coordinates":[[27.98241,37.0305],[27.98253,37.03045],[27.98266,37.0304]]},"properties":{"kind":"pier"}},{"type":"Feature","geometry":{"type":"LineString","coordinates":[[27.98303,37.03014],[27.98358,37.03092]]},"properties":{"kind":"pier"}},{"type":"Feature","geometry":{"type":"LineString","coordinates":[[27.98291,37.0302],[27.98303,37.03014],[27.98315,37.03009]]},"properties":{"kind":"pier"}},{"type":"Feature","geometry":{"type":"LineString","coordinates":[[27.98346,37.02995],[27.98358,37.02989],[27.9837,37.02984]]},"properties":{"kind":"pier"}},{"type":"Feature","geometry":{"type":"LineString","coordinates":[[27.98833,37.02846],[27.98865,37.02891]]},"properties":{"kind":"pier"}},{"type":"Feature","geometry":{"type":"LineString","coordinates":[[27.98703,37.02875],[27.98745,37.02934]]},"properties":{"kind":"pier"}},{"type":"Feature","geometry":{"type":"LineString","coordinates":[[27.98689,37.02881],[27.98703,37.02875],[27.98718,37.02868]]},"properties":{"kind":"pier"}},{"type":"Feature","geometry":{"type":"LineString","coordinates":[[27.98601,37.02888],[27.98642,37.02947]]},"properties":{"kind":"pier"}},{"type":"Feature","geometry":{"type":"LineString","coordinates":[[27.98586,37.02894],[27.98601,37.02888],[27.98615,37.02881]]},"properties":{"kind":"pier"}},{"type":"Feature","geometry":{"type":"LineString","coordinates":[[27.98528,37.02909],[27.98575,37.02975]]},"properties":{"kind":"pier"}},{"type":"Feature","geometry":{"type":"LineString","coordinates":[[27.98513,37.02915],[27.98528,37.02909],[27.98542,37.02902]]},"properties":{"kind":"pier"}},{"type":"Feature","geometry":{"type":"LineString","coordinates":[[27.98462,37.02935],[27.98508,37.03]]},"properties":{"kind":"pier"}},{"type":"Feature","geometry":{"type":"LineString","coordinates":[[27.9845,37.0294],[27.98462,37.02935],[27.98475,37.02929]]},"properties":{"kind":"pier"}},{"type":"Feature","geometry":{"type":"LineString","coordinates":[[27.98408,37.02959],[27.98455,37.03026]]},"properties":{"kind":"pier"}},{"type":"Feature","geometry":{"type":"LineString","coordinates":[[27.98396,37.02965],[27.98408,37.02959],[27.9842,37.02954]]},"properties":{"kind":"pier"}},{"type":"Feature","geometry":{"type":"LineString","coordinates":[[28.09572,36.93163],[28.09573,36.93155]]},"properties":{"kind":"pier"}},{"type":"Feature","geometry":{"type":"LineString","coordinates":[[28.09562,36.93163],[28.09572,36.93163],[28.09582,36.93164]]},"properties":{"kind":"pier"}},{"type":"Feature","geometry":{"type":"Polygon","coordinates":[[[28.09749,37.02946],[28.09759,37.02946],[28.09759,37.02953],[28.09762,37.02954],[28.09762,37.02946],[28.09765,37.02925],[28.09762,37.02924],[28.0976,37.02943],[28.09749,37.02943],[28.09749,37.02946]]]},"properties":{"kind":"pier"}},{"type":"Feature","geometry":{"type":"LineString","coordinates":[[28.09974,37.02854],[28.0997,37.02831]]},"properties":{"kind":"pier"}},{"type":"Feature","geometry":{"type":"LineString","coordinates":[[28.09952,37.02856],[28.09974,37.02854],[28.09984,37.02853]]},"properties":{"kind":"pier"}},{"type":"Feature","geometry":{"type":"LineString","coordinates":[[27.9808,37.03126],[27.9809,37.0312],[27.98102,37.03114]]},"properties":{"kind":"pier"}},{"type":"Feature","geometry":{"type":"LineString","coordinates":[[27.98024,37.0315],[27.98035,37.03145],[27.98046,37.03138]]},"properties":{"kind":"pier"}},{"type":"Feature","geometry":{"type":"LineString","coordinates":[[28.18577,36.9443],[28.18523,36.94462]]},"properties":{"kind":"pier"}},{"type":"Feature","geometry":{"type":"LineString","coordinates":[[28.1861,36.94466],[28.18577,36.9443],[28.18557,36.94409]]},"properties":{"kind":"pier"}},{"type":"Feature","geometry":{"type":"LineString","coordinates":[[28.18561,36.9425],[28.18674,36.94156],[28.18659,36.94094]]},"properties":{"kind":"pier"}},{"type":"Feature","geometry":{"type":"LineString","coordinates":[[28.18763,36.94189],[28.18772,36.94117]]},"properties":{"kind":"pier"}},{"type":"Feature","geometry":{"type":"LineString","coordinates":[[28.18745,36.94181],[28.18744,36.94186],[28.18763,36.94189],[28.18806,36.94195],[28.18807,36.9419]]},"properties":{"kind":"pier"}},{"type":"Feature","geometry":{"type":"LineString","coordinates":[[28.19013,36.9407],[28.18979,36.94035],[28.18977,36.94032],[28.18969,36.94027],[28.18961,36.94024],[28.18954,36.94023],[28.18934,36.94023]]},"properties":{"kind":"pier"}},{"type":"Feature","geometry":{"type":"LineString","coordinates":[[28.19005,36.94074],[28.19013,36.9407],[28.1902,36.94066]]},"properties":{"kind":"pier"}},{"type":"Feature","geometry":{"type":"LineString","coordinates":[[28.19153,36.95788],[28.19152,36.95778]]},"properties":{"kind":"pier"}},{"type":"Feature","geometry":{"type":"LineString","coordinates":[[28.20661,36.95866],[28.20643,36.95867]]},"properties":{"kind":"pier"}},{"type":"Feature","geometry":{"type":"LineString","coordinates":[[28.20637,36.95927],[28.20662,36.9593]]},"properties":{"kind":"pier"}},{"type":"Feature","geometry":{"type":"LineString","coordinates":[[28.20557,36.99388],[28.20502,36.99381]]},"properties":{"kind":"pier"}},{"type":"Feature","geometry":{"type":"LineString","coordinates":[[28.20555,36.99399],[28.20557,36.99388],[28.20559,36.99378]]},"properties":{"kind":"pier"}},{"type":"Feature","geometry":{"type":"LineString","coordinates":[[28.2146,36.98517],[28.21435,36.98542],[28.21429,36.98561]]},"properties":{"kind":"pier"}},{"type":"Feature","geometry":{"type":"LineString","coordinates":[[28.21553,36.98823],[28.2153,36.98821],[28.2153,36.98828]]},"properties":{"kind":"pier"}},{"type":"Feature","geometry":{"type":"LineString","coordinates":[[28.21531,36.98815],[28.2153,36.98821]]},"properties":{"kind":"pier"}},{"type":"Feature","geometry":{"type":"LineString","coordinates":[[28.24997,36.98944],[28.25038,36.98913]]},"properties":{"kind":"pier"}},{"type":"Feature","geometry":{"type":"LineString","coordinates":[[28.24953,36.98911],[28.24993,36.98938],[28.24997,36.98944],[28.2501,36.98959],[28.24989,36.98977],[28.25003,36.98995]]},"properties":{"kind":"pier"}},{"type":"Feature","geometry":{"type":"LineString","coordinates":[[28.26146,36.98613],[28.26145,36.98609],[28.26145,36.98605]]},"properties":{"kind":"pier"}},{"type":"Feature","geometry":{"type":"LineString","coordinates":[[28.26145,36.98609],[28.26154,36.98609],[28.26166,36.98608]]},"properties":{"kind":"pier"}},{"type":"Feature","geometry":{"type":"LineString","coordinates":[[28.31422,37.04938],[28.31427,37.04937],[28.3143,37.04939],[28.3143,37.04942],[28.31429,37.04945],[28.31426,37.04948]]},"properties":{"kind":"pier"}},{"type":"Feature","geometry":{"type":"LineString","coordinates":[[28.3137,37.0494],[28.31354,37.04942],[28.31334,37.04945]]},"properties":{"kind":"pier"}},{"type":"Feature","geometry":{"type":"LineString","coordinates":[[28.31572,37.04935],[28.31569,37.04932],[28.31564,37.04932],[28.31558,37.04931],[28.31553,37.04933]]},"properties":{"kind":"pier"}},{"type":"Feature","geometry":{"type":"LineString","coordinates":[[28.31579,37.04931],[28.31574,37.04929],[28.31563,37.04925],[28.31556,37.04926],[28.31553,37.04929],[28.31544,37.0493],[28.31531,37.0493]]},"properties":{"kind":"pier"}},{"type":"Feature","geometry":{"type":"Polygon","coordinates":[[[28.31658,37.05001],[28.3165,37.04993],[28.31644,37.04988],[28.31649,37.04984],[28.31658,37.04992],[28.31664,37.04997],[28.31658,37.05001]]]},"properties":{"kind":"pier"}},{"type":"Feature","geometry":{"type":"Polygon","coordinates":[[[28.31573,37.0493],[28.3156,37.04929],[28.31548,37.04931],[28.31529,37.04932],[28.31529,37.04927],[28.31549,37.04922],[28.31568,37.0492],[28.31583,37.04927],[28.3158,37.04934],[28.31573,37.0493]]]},"properties":{"kind":"pier"}},{"type":"Feature","geometry":{"type":"Polygon","coordinates":[[[28.31722,37.05038],[28.31707,37.05029],[28.31714,37.05022],[28.31725,37.05028],[28.31729,37.05031],[28.31722,37.05038]]]},"properties":{"kind":"pier"}},{"type":"Feature","geometry":{"type":"LineString","coordinates":[[28.32459,37.05067],[28.32392,37.04944],[28.3239,37.04931],[28.32393,37.04918],[28.32402,37.04899]]},"properties":{"kind":"breakwater"}},{"type":"Feature","geometry":{"type":"Polygon","coordinates":[[[28.3193,37.05039],[28.31948,37.05034],[28.31961,37.0503],[28.31964,37.05027],[28.31967,37.05026],[28.31969,37.05025],[28.31972,37.05027],[28.31973,37.05029],[28.3198,37.05034],[28.31978,37.05036],[28.31975,37.05034],[28.31971,37.05031],[28.31969,37.05029],[28.31966,37.0503],[28.31964,37.05032],[28.31958,37.05034],[28.31952,37.05036],[28.31941,37.05039],[28.31932,37.05042],[28.3193,37.05039]]]},"properties":{"kind":"pier"}},{"type":"Feature","geometry":{"type":"Polygon","coordinates":[[[28.32462,37.05062],[28.32448,37.05067],[28.32445,37.05056],[28.32383,37.04939],[28.3238,37.04926],[28.32394,37.04892],[28.32403,37.04892],[28.32411,37.04897],[28.32411,37.04907],[28.32405,37.04916],[28.32398,37.04926],[28.32399,37.04938],[28.32462,37.05062]]]},"properties":{"kind":"pier","name":"Akyaka İskelesi"}},{"type":"Feature","geometry":{"type":"LineString","coordinates":[[28.32044,37.05108],[28.32059,37.05092],[28.32074,37.05099]]},"properties":{"kind":"pier"}},{"type":"Feature","geometry":{"type":"LineString","coordinates":[[28.59862,36.7979],[28.59907,36.79772]]},"properties":{"kind":"pier"}},{"type":"Feature","geometry":{"type":"Polygon","coordinates":[[[28.60711,36.8015],[28.60764,36.80134],[28.60763,36.80132],[28.60734,36.80141],[28.60733,36.80137],[28.6073,36.80131],[28.6075,36.80125],[28.60749,36.80123],[28.60729,36.80129],[28.60727,36.80124],[28.60726,36.80125],[28.60724,36.80125],[28.60726,36.80129],[28.60705,36.80136],[28.60706,36.80138],[28.60727,36.80132],[28.60731,36.80142],[28.6071,36.80148],[28.60711,36.8015]]]},"properties":{"kind":"pier"}},{"type":"Feature","geometry":{"type":"Polygon","coordinates":[[[28.60813,36.80116],[28.60866,36.80101],[28.60865,36.80099],[28.6084,36.80106],[28.6083,36.80083],[28.60829,36.80083],[28.60827,36.80083],[28.60837,36.80106],[28.60812,36.80114],[28.60813,36.80116]]]},"properties":{"kind":"pier"}},{"type":"Feature","geometry":{"type":"Polygon","coordinates":[[[28.6055,36.80169],[28.60601,36.80176],[28.60602,36.80174],[28.60577,36.8017],[28.60581,36.80153],[28.60579,36.80153],[28.60578,36.80153],[28.60574,36.8017],[28.60551,36.80167],[28.6055,36.80169]]]},"properties":{"kind":"pier"}},{"type":"Feature","geometry":{"type":"Polygon","coordinates":[[[28.62025,36.82007],[28.62085,36.82015],[28.62086,36.82014],[28.62025,36.82006],[28.62025,36.82007]]]},"properties":{"kind":"pier"}},{"type":"Feature","geometry":{"type":"Polygon","coordinates":[[[28.54968,36.82768],[28.54955,36.82778],[28.55003,36.82832],[28.5501,36.82842],[28.55016,36.82843],[28.55022,36.82837],[28.55022,36.8283],[28.54968,36.82768]]]},"properties":{"kind":"breakwater"}},{"type":"Feature","geometry":{"type":"LineString","coordinates":[[28.5485,36.82841],[28.54835,36.82826]]},"properties":{"kind":"pier"}},{"type":"Feature","geometry":{"type":"LineString","coordinates":[[28.54823,36.82871],[28.54854,36.8287]]},"properties":{"kind":"pier"}},{"type":"Feature","geometry":{"type":"LineString","coordinates":[[28.54875,36.82829],[28.5485,36.82841],[28.54854,36.8287],[28.54858,36.82904]]},"properties":{"kind":"pier"}},{"type":"Feature","geometry":{"type":"LineString","coordinates":[[28.56586,36.82434],[28.56535,36.82433]]},"properties":{"kind":"pier"}},{"type":"Feature","geometry":{"type":"LineString","coordinates":[[28.56532,36.82461],[28.56535,36.82433],[28.56538,36.82403]]},"properties":{"kind":"pier"}},{"type":"Feature","geometry":{"type":"LineString","coordinates":[[28.63331,36.82431],[28.63292,36.82473],[28.63273,36.82494],[28.63272,36.82503],[28.63243,36.82525],[28.63215,36.82543]]},"properties":{"kind":"pier"}},{"type":"Feature","geometry":{"type":"Polygon","coordinates":[[[28.63355,36.84246],[28.63347,36.84225],[28.6335,36.84223],[28.63358,36.84244],[28.63355,36.84246]]]},"properties":{"kind":"pier"}},{"type":"Feature","geometry":{"type":"LineString","coordinates":[[28.6339,36.84331],[28.63386,36.84333],[28.63382,36.84338],[28.63378,36.84385],[28.63378,36.84402],[28.63377,36.84411],[28.63366,36.84454],[28.63364,36.8446],[28.6336,36.84468],[28.63358,36.84479],[28.63295,36.84562],[28.63274,36.84586]]},"properties":{"kind":"pier"}},{"type":"Feature","geometry":{"type":"MultiPolygon","coordinates":[[[[28.2758087,36.8512045],[28.2762349,36.8513799],[28.2766791,36.8513033],[28.2767124,36.8514113],[28.2758428,36.8515827],[28.2758087,36.8512045]]]]},"properties":{"kind":"pier"}}]}